,eventid,iyear,imonth,iday,approxdate,extended,resolution,country,country_txt,region,region_txt,provstate,city,latitude,longitude,summary,multiple,success,suicide,attacktype1,attacktype1_txt,targtype1,targtype1_txt,targsubtype1,targsubtype1_txt,corp1,target1,natlty1,gname,weaptype1,weaptype1_txt,weapsubtype1,weapsubtype1_txt,nkill,nwound,property,propextent,propextent_txt,propvalue,scite1,scite2,dbsource,INT_LOG,INT_ANY,related
170271,201612290023,2016,12,29,2016-12-29 00:00:00,0,,95,Iraq,10,Middle East & North Africa,Saladin,Tarmiyah,33.664353999999996,44.373779,"12/29/2016: Security forces identified and killed three suicide bombers in an explosives-laden vehicle in Tarmiyah, Saladin, Iraq. No group claimed responsibility for the incident.",0,1,1,3,Bombing/Explosion,20,Unknown,,,Unknown,Unknown,95.0,Unknown,6,Explosives/Bombs/Dynamite,15.0,Vehicle,3.0,0.0,0,,,,"""Iraq: Security Roundup 1900 GMT 29 December 2016,"" Al-Iraqiyah Television, December 29, 2016.",,START Primary Collection,-9,-9,
170272,201612290024,2016,12,29,2016-12-29 00:00:00,0,,95,Iraq,10,Middle East & North Africa,Al Anbar,Unknown,32.559762,41.919647,"12/29/2016: Security forces discovered and defused 40 explosive devices in Al Anbar, Iraq. No group claimed responsibility for the incident.",0,0,0,3,Bombing/Explosion,20,Unknown,,,Unknown,Unknown,95.0,Unknown,6,Explosives/Bombs/Dynamite,16.0,Unknown Explosive Type,0.0,0.0,0,,,,"""Iraq: Security Roundup 1900 GMT 29 December 2016,"" Al-Iraqiyah Television, December 29, 2016.",,START Primary Collection,-9,-9,
170273,201612290025,2016,12,29,2016-12-29 00:00:00,0,,95,Iraq,10,Middle East & North Africa,Saladin,Shirqat district,35.485833,43.240556,"12/29/2016: Assailants kidnapped and executed a soldier in Shirqat district, Saladin, Iraq. No group claimed responsibility for the incident; however, sources attributed the attack to the Islamic State of Iraq and the Levant (ISIL).",0,1,0,6,Hostage Taking (Kidnapping),4,Military,34.0,"Military Personnel (soldiers, troops, officers, forces)",Iraqi Armed Forces,Soldier,95.0,Islamic State of Iraq and the Levant (ISIL),13,Unknown,,,1.0,0.0,0,,,,"""Iraq: Security Roundup 1900 GMT 29 December 2016,"" Al-Iraqiyah Television, December 29, 2016.",,START Primary Collection,0,1,
170274,201612290026,2016,12,29,2016-12-29 00:00:00,0,,95,Iraq,10,Middle East & North Africa,Kirkuk,Hawijah district,35.324825,43.766921999999994,"12/29/2016: An explosive device detonated in Hawijah district, Kirkuk, Iraq. Two people were killed in the blast. No group claimed responsibility for the incident.",0,1,0,3,Bombing/Explosion,14,Private Citizens & Property,67.0,Unnamed Civilian/Unspecified,Not Applicable,Civilians,95.0,Unknown,6,Explosives/Bombs/Dynamite,16.0,Unknown Explosive Type,2.0,0.0,0,,,,"""Iraq: Security Roundup 1900 GMT 29 December 2016,"" Al-Iraqiyah Television, December 29, 2016.",,START Primary Collection,-9,-9,
170275,201612290030,2016,12,29,,0,,137,Mozambique,11,Sub-Saharan Africa,Nampula,Namutequeliua,-15.126635,39.268716,"12/29/2016: Assailants opened fire on the vehicle of Jose Naitele in Namutequeliua, Nampula, Mozambique. Naitele, a Mozambique National Resistance Movement (MNR) member and former deputy of the Assembly of the Republic of Mozambique, was killed in the attack. No group claimed responsibility for the incident.",0,1,0,1,Assassination,2,Government (General),15.0,Politician or Political Party Movement/Meeting/Rally,Assembly of the Republic,Former Deputy: Jose Naitele,137.0,Unknown,5,Firearms,5.0,Unknown Gun Type,1.0,0.0,1,3.0,Minor (likely < $1 million),-99.0,"""Renamo official assassinated in Nampula was a former MP, his car ...,"" Club of Mozambique, December 30, 2016.",,START Primary Collection,-9,-9,
170276,201612290032,2016,12,29,,0,,95,Iraq,10,Middle East & North Africa,Baghdad,Baghdad,33.3,44.4,"12/29/2016: An explosives-laden vehicle detonated in Maalef area, Baghdad city, Baghdad governorate, Iraq. One person was killed and seven people were injured in the blast. The Islamic State of Iraq and the Levant (ISIL) claimed responsibility for the incident.",0,1,0,3,Bombing/Explosion,14,Private Citizens & Property,67.0,Unnamed Civilian/Unspecified,Not Applicable,Civilians,95.0,Islamic State of Iraq and the Levant (ISIL),6,Explosives/Bombs/Dynamite,15.0,Vehicle,1.0,7.0,-9,,,,"""UPDATED: Civilian killed, 10 wounded in south, east Baghdad blasts,"" Iraqi News, December 29, 2016.","""Terrorism: Roundup of A'maq News Agency Messages 29 December,"" JustPaste.it, December 29, 2016.",START Primary Collection,0,1,
170277,201612290033,2016,12,29,2016-12-29 00:00:00,0,,95,Iraq,10,Middle East & North Africa,Nineveh,Mosul,36.31,43.216667,"12/29/2016: Security forces identified and destroyed explosives-laden vehicles targeting troops in Ash Shayma, Mosul, Nineveh, Iraq. The Islamic State of Iraq and the Levant (ISIL) claimed responsibility for the incident.",0,0,1,3,Bombing/Explosion,4,Military,34.0,"Military Personnel (soldiers, troops, officers, forces)",Iraqi Army,9th Division Forces,95.0,Islamic State of Iraq and the Levant (ISIL),6,Explosives/Bombs/Dynamite,15.0,Vehicle,,,0,,,,"""State PAO: Iraqi Media Summary 30 December 2016,"" Summary, December 30, 2016.","""Terrorism: Roundup of A'maq News Agency Messages 29 December,"" JustPaste.it, December 29, 2016.",START Primary Collection,0,1,
170278,201612290034,2016,12,29,2016-12-29 00:00:00,0,,95,Iraq,10,Middle East & North Africa,Nineveh,Mosul,36.357146,43.187882,"12/29/2016: Security forces identified and destroyed explosives-laden vehicles targeting troops in Sihah, Mosul, Nineveh, Iraq. No group claimed responsibility for the incident.",0,0,1,3,Bombing/Explosion,4,Military,34.0,"Military Personnel (soldiers, troops, officers, forces)",Iraqi Army,9th Division Forces,95.0,Unknown,6,Explosives/Bombs/Dynamite,15.0,Vehicle,,,0,,,,"""State PAO: Iraqi Media Summary 30 December 2016,"" Summary, December 30, 2016.",,START Primary Collection,-9,-9,
170279,201612290035,2016,12,29,2016-12-29 00:00:00,1,,95,Iraq,10,Middle East & North Africa,Kirkuk,Riyadh,35.269940999999996,43.912673,"12/29/2016: Assailants kidnapped 23 civilians fleeing the area near Riyadh subdistrict, Kirkuk, Iraq. The outcome of the kidnapping is unknown. No group claimed responsibility for the incident; however, sources attributed the attack to the Islamic State of Iraq and the Levant (ISIL).",0,1,0,6,Hostage Taking (Kidnapping),14,Private Citizens & Property,67.0,Unnamed Civilian/Unspecified,Not Applicable,Civilians,95.0,Islamic State of Iraq and the Levant (ISIL),13,Unknown,,,,,0,,,,"""State PAO: Iraqi Media Summary 30 December 2016,"" Summary, December 30, 2016.",,START Primary Collection,0,1,
170280,201612290038,2016,12,29,,0,,200,Syria,10,Middle East & North Africa,Aleppo,Sawran,36.565672,37.213589,"12/29/2016: An explosives-laden vehicle detonated near Sawran, Aleppo, Syria. At least six people were killed and dozens of others were injured in the blast. No group claimed responsibility for the attack.",0,1,0,3,Bombing/Explosion,14,Private Citizens & Property,67.0,Unnamed Civilian/Unspecified,Not Applicable,Civilians,200.0,Unknown,6,Explosives/Bombs/Dynamite,15.0,Vehicle,6.0,24.0,1,3.0,Minor (likely < $1 million),-99.0,"""SYRIA: Deadly Car Bomb Attack Hits Rural Aleppo December 292:04,"" Northern Territory News, December 29, 2016.","""SYRIA: Rescue Crew Reports Three Pulled Alive From Rubble After Deadly Car Bomb Attack December 29,"" The Australian, December 29, 2016.",START Primary Collection,-9,-9,
170281,201612290040,2016,12,29,,1,,147,Nigeria,11,Sub-Saharan Africa,Niger,Dan Mayan,10.241957000000001,6.252294999999999,"12/29/2016: Assailants raided Dan Mayans community in Rafi district, Niger state, Nigeria. This was one of four coordinated attacks in two communities in Rafi over two days. At least 30 people were abducted in the first two raids, while four people were killed and an unknown number of women were sexually assaulted across all four raids. One person escaped, while the whereabouts of the remaining hostages are unknown. No group claimed responsibility for the incidents; however, sources suspected that Boko Haram was involved.",1,1,0,6,Hostage Taking (Kidnapping),14,Private Citizens & Property,75.0,Village/City/Town/Suburb,Dan Mayans Community,Community,147.0,Boko Haram,5,Firearms,2.0,Automatic Weapon,1.0,,1,3.0,Minor (likely < $1 million),-99.0,"""Marauders invade Niger communities, kill, rape, rustle 250 cattle,"" Daily Sun, January 2, 2017.","""Suspected Boko Haram bandits kill 4, kidnap 30, stole 250 cattles in Niger state,"" Naij.com, January 2, 2017.",START Primary Collection,0,0,"201612290040, 201612290041, 201612300024, 201612300025"
170282,201612290041,2016,12,29,,1,,147,Nigeria,11,Sub-Saharan Africa,Niger,Dogongona,10.241977,6.2523290000000005,"12/29/2016: Assailants raided Dogongona community in Rafi district, Niger state, Nigeria. This was one of four coordinated attacks in two communities in Rafi over two days. At least 30 people were abducted in the first two raids, while four people were killed and an unknown number of women were sexually assaulted across all four raids. One person escaped, while the whereabouts of the remaining hostages are unknown. No group claimed responsibility for the incidents; however, sources suspected that Boko Haram was involved.",1,1,0,6,Hostage Taking (Kidnapping),14,Private Citizens & Property,75.0,Village/City/Town/Suburb,Dogongona Community,Community,147.0,Boko Haram,5,Firearms,2.0,Automatic Weapon,1.0,,1,3.0,Minor (likely < $1 million),-99.0,"""Marauders invade Niger communities, kill, rape, rustle 250 cattle,"" Daily Sun, January 2, 2017.","""Suspected Boko Haram bandits kill 4, kidnap 30, stole 250 cattles in Niger state,"" Naij.com, January 2, 2017.",START Primary Collection,0,0,"201612290040, 201612290041, 201612300024, 201612300025"
170283,201612290042,2016,12,29,,1,,138,Myanmar,5,Southeast Asia,Rakhine,Kwazone,20.702778,92.62916700000001,"12/29/2016: Assailants abducted Anna Muller, a village head, in Kwazone, Rakhine, Myanmar. The outcome of the abduction is unknown and sources noted that Muller was beaten during the kidnapping. No group claimed responsibility for the incident.",0,1,0,6,Hostage Taking (Kidnapping),2,Government (General),18.0,"Government Personnel (excluding police, military)",Government of Gwasone,Village Head: Anna Muller,138.0,Unknown,9,Melee,23.0,Knife or Other Sharp Object,,1.0,0,,,,"""Village headman beaten and kidnapped in Maungdaw,"" Mizzima News, December 31, 2016.",,START Primary Collection,-9,-9,
170284,201612290043,2016,12,29,,0,,1004,South Sudan,11,Sub-Saharan Africa,Western Bahr el Ghazal,Raga,8.461161,25.680587,"12/29/2016: Assailants opened fire on the convoy of Rizik Zachariah Hassan in Dambara, Western Bahr el Ghazal, South Sudan. Hassan, the governor of Lol state, was not harmed as there were no reported casualties in the assault. No group claimed responsibility for the attack.",0,0,0,1,Assassination,2,Government (General),18.0,"Government Personnel (excluding police, military)",Government of Lol,Convoy of Governor: Rizik Zachariah Hassan,1004.0,Unknown,5,Firearms,5.0,Unknown Gun Type,0.0,0.0,1,3.0,Minor (likely < $1 million),-99.0,"""S. Sudan governor survives another assassination attempt,"" Sudan Tribune, December 30, 2016.",,START Primary Collection,-9,-9,
170285,201612290046,2016,12,29,2016-12-29 00:00:00,0,,228,Yemen,10,Middle East & North Africa,Marib,Marib,15.460579000000001,45.323333,"12/29/2016: Assailants fired a missile targeting Marib, Yemen. There were no reported casualties as the missile was intercepted by coalition air defense forces. No group claimed responsibility for the incident; however, sources attributed the attack to Huthi extremists.",0,0,0,3,Bombing/Explosion,14,Private Citizens & Property,75.0,Village/City/Town/Suburb,Ma'rib City,City,228.0,Houthi extremists (Ansar Allah),6,Explosives/Bombs/Dynamite,11.0,"Projectile (rockets, mortars, RPGs, etc.)",0.0,0.0,0,,,,"""Yemen: Security Roundup 2000 GMT 29 December 2016,"" Summary, December 29, 2016.",,START Primary Collection,0,0,
170286,201612290049,2016,12,29,"December 26-31, 2016",0,,200,Syria,10,Middle East & North Africa,Homs,Palmyra,34.550609,38.268826000000004,"12/00/2016: Between December 26, 2016 and December 31, 2016 assailants detonated explosives targeting an ancient Roman theater in Palmyra, Homs, Syria. No casualties were reported, but the ruins were damaged in the blast. No group claimed responsibility for the incident; however, sources attributed the attack to the Islamic State of Iraq and the Levant (ISIL).",0,1,0,3,Bombing/Explosion,14,Private Citizens & Property,81.0,Museum/Cultural Center/Cultural House,Unknown,Ancient Roman Theater,200.0,Islamic State of Iraq and the Levant (ISIL),6,Explosives/Bombs/Dynamite,16.0,Unknown Explosive Type,0.0,0.0,1,4.0,Unknown,-99.0,"""ISIS destroys part of ancient Roman theater in Palmyra,"" Libya Today, January 20, 2017.","""Palmyra's theatre and columns 'demolished by IS militants',"" Middle East Eye, January 20, 2017.",START Primary Collection,0,1,
170287,201612290050,2016,12,29,,0,,92,India,6,South Asia,Maharashtra,Aheri,19.413355,80.00591,"12/29/2016: Assailants attacked civilians in Aheri, Maharashtra, India. This was one of two related attacks in Maharashtra on the same day. Three civilians were killed across the attacks. No group claimed responsibility for the incidents; however, sources attributed the attacks to Maoists.",1,1,0,9,Unknown,14,Private Citizens & Property,68.0,Named Civilian,Not Applicable,"Civilians: Laccha Bande Madavi, Patali Doge Atram, Talwarsha Kunjram",92.0,Maoists,13,Unknown,,,2.0,0.0,0,,,,"""Naxals kill three men in Gadchiroli district of Maharashtra,"" Press Trust of India, December 30, 2016.","""Maharashtra: A Fading Red,"" India Blooms, January 30, 2017.",START Primary Collection,-9,-9,"201612290050, 201612290051"
170288,201612290051,2016,12,29,,0,,92,India,6,South Asia,Maharashtra,Korchi,20.717135,80.470196,"12/29/2016: Assailants attacked civilians in Korchi, Maharashtra, India. This was one of two related attacks in Maharashtra on the same day. Three civilians were killed across the attacks. No group claimed responsibility for the incidents; however, sources attributed the attacks to Maoists.",1,1,0,9,Unknown,14,Private Citizens & Property,67.0,Unnamed Civilian/Unspecified,Not Applicable,Civilians,92.0,Maoists,13,Unknown,,,1.0,0.0,0,,,,"""Naxals kill three men in Gadchiroli district of Maharashtra,"" Press Trust of India, December 30, 2016.","""Maharashtra: A Fading Red,"" India Blooms, January 30, 2017.",START Primary Collection,-9,-9,"201612290050, 201612290051"
170289,201612300001,2016,12,30,,0,,153,Pakistan,6,South Asia,Punjab,Rahim Yar Khan,28.429741999999997,70.27737900000001,"12/30/2016: A suicide bomber detonated near Counter Terrorism Department (CTD) officials in Shafi Town neighborhood, Rahim Yar Khan, Punjab, Pakistan. Aside from the death of the bomber, at least two officials were injured in the blast. The Khorasan Chapter of the Islamic State claimed responsibility for the attack. Sources also suspected that the incident may have been carried out by Lashkar-e-Jhangvi, Tehrik-i-Taliban Pakistan (TTP), Ahle Sunnat Wal Jamaat (ASWJ-Pakistan), and Jundallah.",0,1,1,3,Bombing/Explosion,3,Police,25.0,Police Security Forces/Officers,Counter Terrorism Department (CTD),Officials,153.0,Khorasan Chapter of the Islamic State,6,Explosives/Bombs/Dynamite,13.0,Suicide (carried bodily by human being),1.0,2.0,0,,,,"""Case of Rahim Yar Khan suicide attack registered,"" Dunya News, January 1, 2017.","""Two people injured in blast outside mosque in Rahim Yar Khan,"" DAWN Group, December 30, 2016.",START Primary Collection,0,1,
170290,201612300002,2016,12,30,,0,,153,Pakistan,6,South Asia,Balochistan,Dera Bugti,29.036890999999997,69.150147,"12/30/2016: An explosive device detonated near a water pipeline in Dera Bugti, Balochistan, Pakistan. There were no reported casualties in the blast. No group claimed responsibility for the attack.",0,1,0,3,Bombing/Explosion,9,Food or Water Supply,52.0,Water Supply,Unknown,Water Pipeline,153.0,Unknown,6,Explosives/Bombs/Dynamite,16.0,Unknown Explosive Type,0.0,0.0,1,4.0,Unknown,-99.0,"""Terrorists explode water pipeline in Dera Bugti,"" The News International, December 31, 2016.","""Water pipeline blown up in Dera Bugti,"" The Nation Pakistan, December 30, 2016.",START Primary Collection,-9,-9,
170291,201612300003,2016,12,30,,0,,160,Philippines,5,Southeast Asia,Basilan,Lamitan,6.6608,122.138893,"12/30/2016: An explosive device detonated near the City Hall in Lamitan, Basilan, Philippines. There were no reported casualties in the blast. No group claimed responsibility; however, sources suspected that the attack was carried out by the Abu Sayyaf Group (ASG).",0,1,0,3,Bombing/Explosion,2,Government (General),21.0,Government Building/Facility/Office,Government of Lamitan,City Hall,160.0,Abu Sayyaf Group (ASG),6,Explosives/Bombs/Dynamite,16.0,Unknown Explosive Type,0.0,0.0,0,,,,"""Philippines: Authorities suspect Abu Sayyaf in Lamitan City IED blast,"" Philstar.com, December 31, 2016.",,START Primary Collection,0,0,
170292,201612300004,2016,12,30,2016-12-30 00:00:00,0,,4,Afghanistan,6,South Asia,Ghor,Dara Morghab,34.973161,65.618114,"12/30/2016: Assailants set up checkpoints and searched vehicles in Dara Morghab, Ghor, Afghanistan. No casualties were reported in the attack. No group claimed responsibility for the incident; however, sources attributed the attack to the Khorasan Chapter of the Islamic State.",0,0,0,9,Unknown,14,Private Citizens & Property,67.0,Unnamed Civilian/Unspecified,Not Applicable,Civilians,4.0,Khorasan Chapter of the Islamic State,13,Unknown,,,0.0,0.0,0,,,,"""Islamic State said recruiting in western Afghan province,"" Ariana TV, December 30, 2016.",,START Primary Collection,0,1,
170293,201612300005,2016,12,30,,0,,155,West Bank and Gaza Strip,10,Middle East & North Africa,West Bank,Qalandiyah,31.861596999999996,35.207914,"12/30/2016: An assailant attempted to stab police officers at a checkpoint in Qalandiyah, West Bank. The assailant was wounded when police officers opened fire. No group claimed responsibility for the incident; however, sources attributed the attack to a Palestinian extremist.",0,0,0,2,Armed Assault,3,Police,24.0,Police Checkpoint,Israel Police,Checkpoint,97.0,Palestinian Extremists,9,Melee,23.0,Knife or Other Sharp Object,0.0,1.0,0,,,,"""Stabbing attack at Qalandiya checkpoint foiled,,"" Ynet News, December 31, 2016.","""Israeli guards shoot knife-wielding Palestinian woman,"" The Nation Pakistan, December 30, 2016.",START Primary Collection,0,0,
170294,201612300006,2016,12,30,,0,,153,Pakistan,6,South Asia,Khyber Pakhtunkhwa,Gidarwaan,33.532819,71.0597,"12/30/2016: Two explosive devices were discovered and defused in Gidarwaan, Hangu district, Khyber Pakhtunkhwa, Pakistan. No group claimed responsibility for the attack.",0,0,0,3,Bombing/Explosion,20,Unknown,,,Unknown,Unknown,153.0,Unknown,6,Explosives/Bombs/Dynamite,16.0,Unknown Explosive Type,0.0,0.0,0,,,,"""Explosive material defused at Hangu,"" Daily The Pak Banker (Plus Media Solutions Private Limited Publication), December 30, 2016.","""4kg bomb defused in Hangu,"" The Nation Pakistan, December 30, 2016.",START Primary Collection,-9,-9,
170295,201612300007,2016,12,30,,0,,153,Pakistan,6,South Asia,Khyber Pakhtunkhwa,Miryan,31.831227000000002,70.90162,"12/30/2016: Assailants fired rockets and threw grenades at Chashma Sugar Mills Limited buildings in Miryan, Khyber Pakhtunkhwa, Pakistan. There were no reported casualties and an additional explosive device was defused at the scene following the attack. No group claimed responsibility for the incident.",0,1,0,3,Bombing/Explosion,1,Business,5.0,Industrial/Textiles/Factory,Chashma Sugar Mills Limited,Sugar Mill,153.0,Unknown,6,Explosives/Bombs/Dynamite,7.0,Grenade,0.0,0.0,0,,,,"""Rockets fired at sugar mills,"" The News International (Asianet-Pakistan), January 1, 2017.","""Pakistan: Sugar mills attacked in DI Khan,"" Daily Times Online, December 31, 2016.",START Primary Collection,-9,-9,
170296,201612300008,2016,12,30,,0,,160,Philippines,5,Southeast Asia,Davao Oriental,Caraga,7.317214,126.546543,"12/30/2016: Assailants opened fire on Cuper Banugan at his residence in Poblacion neighborhood, Caraga, Davao Oriental, Philippines. At least two people, including Banugan, a Mandaya tribal chieftain, were killed in the assault. The New People's Army (NPA) claimed responsibility for the attack.",0,1,0,1,Assassination,14,Private Citizens & Property,77.0,Laborer (General)/Occupation Identified,Not Applicable,Residence of Mandaya Tribal Chieftan: Cuper Banugan,160.0,New People's Army (NPA),5,Firearms,5.0,Unknown Gun Type,2.0,0.0,0,,,,"""News Briefs: Mandaya chieftain, 2 others killed in Davao Oriental attack,"" Philippine Daily Inquirer, January 2, 2017.","""Asia: US Army ASD Philippine Terrorist Media Weekly Wrap-up 1-7 January 2017,"" Summary, January 10, 2017.",START Primary Collection,0,0,
170297,201612300009,2016,12,30,,0,,603,United Kingdom,8,Western Europe,Northern Ireland,Belfast,54.590415,-5.94042,"12/30/2016: An explosive device was discovered and defused in Belfast, Northern Ireland, United Kingdom. No group claimed responsibility for the incident.",0,0,0,3,Bombing/Explosion,20,Unknown,,,Unknown,Unknown,233.0,Unknown,6,Explosives/Bombs/Dynamite,17.0,Other Explosive Type,0.0,0.0,0,,,,"""Blythe Street: Viable device found in south Belfast,"" BBC, December 30, 2016.","""Explosive device find in heart of Sandy Row,"" News Letter, January 1, 2017.",START Primary Collection,-9,1,
170298,201612300010,2016,12,30,,0,,160,Philippines,5,Southeast Asia,Maguindanao,Salibo,6.937129,124.42951200000002,"12/30/2016: Assailants armed with projectiles and firearms attacked Armed Forces of the Philippines (AFP) units in Salibo, Maguindanao, Philippines. At least seven assailants were killed and five others were injured in the ensuing clash. The Bangsamoro Islamic Freedom Movement (BIFM) claimed responsibility and stated that the incident was carried out in response to the recent death of a BIFM member.",0,1,0,2,Armed Assault,4,Military,29.0,Military Unit/Patrol/Convoy,Armed Forces of the Philippines (AFP),Unit,160.0,Bangsamoro Islamic Freedom Movement (BIFM),6,Explosives/Bombs/Dynamite,11.0,"Projectile (rockets, mortars, RPGs, etc.)",7.0,5.0,0,,,,"""AFP braces for more BIFF attacks in ARMM,"" Manila Times, January 4, 2017.","""Moro rebels attack 3 Army detachments in Maguindanao,"" Philippine Daily Inquirer, December 31, 2016.",START Primary Collection,0,0,
170299,201612300013,2016,12,30,,0,,182,Somalia,11,Sub-Saharan Africa,Bay,Baidoa,3.1166669999999996,43.65,"12/30/2016: An explosive device detonated targeting Abdullah Ali Watin's vehicle near Baidoa, Bay, Somalia. Watin, the Baidoa district commissioner, was not harmed; however, three guards were injured in the blast. Al-Shabaab claimed responsibility for the incident.",0,0,0,1,Assassination,2,Government (General),15.0,Politician or Political Party Movement/Meeting/Rally,Government of Baidoa,Vehicle of District Commissioner: Abdullah Ali Watin,182.0,Al-Shabaab,6,Explosives/Bombs/Dynamite,12.0,Remote Trigger,0.0,3.0,1,3.0,Minor (likely < $1 million),-99.0,"""Somalia: District commissioner survives bomb blast near Baidoa,"" Radio Garowe, December 31, 2016.","""Africa Command OSINT Daily 30 December - 1 January 2017,"" Summary, December 30, 2016.",START Primary Collection,0,0,
170300,201612300014,2016,12,30,,0,,4,Afghanistan,6,South Asia,Takhar,Ishkamish district,36.388226,69.330012,"12/30/2016: A roadside bomb detonated targeting a police vehicle in Ishkamish, Takhar, Afghanistan. A police officer was killed and another was injured in the blast. No group claimed responsibility for the incident.",0,1,0,3,Bombing/Explosion,3,Police,23.0,Police Patrol (including vehicles and convoys),Afghan Police,Vehicle,4.0,Unknown,6,Explosives/Bombs/Dynamite,16.0,Unknown Explosive Type,1.0,1.0,1,3.0,Minor (likely < $1 million),-99.0,"""Xinhua: 57 Militants Killed In Military Operations: Afghan Gov't,"" Xinhua, December 31, 2016.","""Highlights: Pakistan Pashto Press 1 January December 2017,"" Summary, January 1, 2017.",START Primary Collection,-9,-9,
170301,201612300015,2016,12,30,,0,,92,India,6,South Asia,Odisha,Malkangiri,18.343586,81.88252800000001,"12/30/2016: Assailants abducted Mahadeb Sisa, a Panchayati Raj Institution (PRI) member in Malkangiri, Odisha, India. Sisa was injured and released the same day. Maoists claimed responsibility for the incident and accused the victim of being a police informant.",0,1,0,6,Hostage Taking (Kidnapping),2,Government (General),15.0,Politician or Political Party Movement/Meeting/Rally,Panchayati Raj Institution (PRI),Member: Mahadeb Sisa,92.0,Maoists,5,Firearms,5.0,Unknown Gun Type,0.0,1.0,0,,,,"""Tribal Panchayat Samiti Member Thrashed By Maoists in Odisha,"" Outlook India, December 30, 2016.","""Maoists beat up Panchayati Raj member for cooperating with State government in Odisha,"" New Indian Express, December 30, 2016.",START Primary Collection,-9,-9,
170302,201612300016,2016,12,30,,0,,229,Democratic Republic of the Congo,11,Sub-Saharan Africa,North Kivu,Bukavu,-2.502512,28.866666,"12/30/2016: Gunmen attacked a military camp in Bukavu, North Kivu, Democratic Republic of the Congo. There were no reported casualties in the attack. No group claimed responsibility for the incident; however, sources attributed the attack to the Mayi Mayi.",0,0,0,2,Armed Assault,4,Military,27.0,Military Barracks/Base/Headquarters/Checkpost,Armed Forces of the Democratic Republic of the Congo (FARDC),Camp,229.0,Mayi Mayi,5,Firearms,5.0,Unknown Gun Type,0.0,0.0,0,,,,"""DRC: Fighting Reportedly Occur Between Armed Forces, Mai Mai Militia in North Kivu,"" BBC World Service, December 30, 2016.",,START Primary Collection,0,0,
170303,201612300017,2016,12,30,,0,,92,India,6,South Asia,Karnataka,Raichur district,16.201036,77.34904300000001,"12/30/2016: Security forces discovered and defused two explosive devices on a bus in Raichur, Karnataka, India. No group claimed responsibility for the incident.",0,0,0,3,Bombing/Explosion,19,Transportation,99.0,Bus (excluding tourists),Karnataka Road Transport Corporation,Bus,92.0,Unknown,6,Explosives/Bombs/Dynamite,16.0,Unknown Explosive Type,0.0,0.0,0,,,,"""Special police teamsfan out in searchof clues,"" The Hindu, January 1, 2017.","""Explosives found in bus near Raichur,"" The Hindu, December 31, 2016.",START Primary Collection,-9,-9,
170304,201612300019,2016,12,30,,0,,147,Nigeria,11,Sub-Saharan Africa,Borno,Rann,12.270081,14.463595999999999,"12/30/2016: Assailants ambushed military forces in Rann, Borno, Nigeria. At least 15 assailants were killed and four soldiers and an unknown number of assailants were injured in the ensuing clash. No group claimed responsibility for the incident; however, sources attributed the attack to Boko Haram.",0,1,0,2,Armed Assault,4,Military,34.0,"Military Personnel (soldiers, troops, officers, forces)",Nigerian Armed Forces,Soldiers,147.0,Boko Haram,5,Firearms,5.0,Unknown Gun Type,15.0,4.0,-9,,,,"""Soldiers, Boko Haram in 3-hr shoot-out,"" Nigerian Tribune, December 31, 2016.","""15 feared killed as troops, Boko Haram battle in Borno,"" Vanguard, December 30, 2016.",START Primary Collection,0,0,
170305,201612300020,2016,12,30,,0,,4,Afghanistan,6,South Asia,Logar,Puli Alam,33.999938,69.019532,"12/30/2016: Assailants attacked and killed Qari Zubair, the brother of an Afghan Local Police (ALP) officer, in Puli Alam, Logar, Afghanistan. No group claimed responsibility for the incident.",0,1,0,9,Unknown,3,Police,25.0,Police Security Forces/Officers,Afghan Local Police (ALP),Brother of Officer: Qari Zubai,4.0,Unknown,13,Unknown,,,1.0,0.0,0,,,,"""Afghanistan: Nangarhar, Logar Clashes Result in Deaths of Two Security Forces, Four Rebels,"" Pajhwok Afghan News Online, December 31, 2016.",,START Primary Collection,-9,-9,
170306,201612300021,2016,12,30,2016-12-30 00:00:00,0,,95,Iraq,10,Middle East & North Africa,Al Anbar,Rutbah district,33.038056,40.284444,"12/30/2016: Assailants attacked joint security checkpoints in Rutbah district, Al Anbar, Iraq. Security forces repelled the assault, killing four assailants. No group claimed responsibility for the incident; however, sources attributed the attack to the Islamic State of Iraq and the Levant (ISIL).",0,0,0,9,Unknown,4,Military,36.0,Military Checkpoint,Iraqi Volunteer Forces,Checkpoint,95.0,Islamic State of Iraq and the Levant (ISIL),13,Unknown,,,4.0,0.0,0,,,,"""Iraq: Security Roundup 1900 GMT 31 December 2016,"" Summary, December 29, 2016.",,START Primary Collection,0,1,
170307,201612300022,2016,12,30,2016-12-30 00:00:00,0,,95,Iraq,10,Middle East & North Africa,Nineveh,Mosul,36.34,43.13,"12/30/2016: Assailants attacked Al Falah, Mosul, Nineveh, Iraq. There were no reported casualties resulting from the assault. No group claimed responsibility for the incident; however, sources attributed the attack to the Islamic State of Iraq and the Levant (ISIL).",0,0,0,9,Unknown,14,Private Citizens & Property,75.0,Village/City/Town/Suburb,al-Falah Neighborhood,Neighborhood,95.0,Islamic State of Iraq and the Levant (ISIL),13,Unknown,,,0.0,0.0,0,,,,"""Army forces repel Islamic State?s attack near Mosul,"" Iraqi News, December 30, 2016.",,START Primary Collection,0,1,
170308,201612300023,2016,12,30,2016-12-30 00:00:00,0,,95,Iraq,10,Middle East & North Africa,Nineveh,Mosul,36.388713,43.167431,"12/30/2016: Assailants attacked Al-Sukar, Mosul, Nineveh, Iraq. There were no reported casualties resulting from the assault. No group claimed responsibility for the incident; however, sources attributed the attack to the Islamic State of Iraq and the Levant (ISIL).",0,0,0,9,Unknown,14,Private Citizens & Property,75.0,Village/City/Town/Suburb,Sukar Neighborhood,Neighborhood,95.0,Islamic State of Iraq and the Levant (ISIL),13,Unknown,,,0.0,0.0,0,,,,"""Army forces repel Islamic State?s attack near Mosul,"" Iraqi News, December 30, 2016.","""Terrorism: Transcript of ISIL's Al-Bayan News Bulletin for 31 December,"" Twitter, December 31, 2016.",START Primary Collection,0,1,
170309,201612300024,2016,12,30,,1,,147,Nigeria,11,Sub-Saharan Africa,Niger,Dan Mayan,10.241977,6.2523290000000005,"12/30/2016: Assailants raided Dan Mayans community in Rafi district, Niger state, Nigeria. This was one of four coordinated attacks in two communities in Rafi over two days. An unknown number of people were abducted in the second two raids, while four people were killed and an unknown number of women were sexually assaulted across all four raids. One person escaped, while the whereabouts of the remaining hostages are unknown. No group claimed responsibility for the incidents; however, sources suspected that Boko Haram was involved.",1,1,0,6,Hostage Taking (Kidnapping),14,Private Citizens & Property,75.0,Village/City/Town/Suburb,Dan Mayans Community,Community,147.0,Boko Haram,5,Firearms,2.0,Automatic Weapon,1.0,,1,3.0,Minor (likely < $1 million),-99.0,"""Marauders invade Niger communities, kill, rape, rustle 250 cattle,"" Daily Sun, January 2, 2017.","""Suspected Boko Haram bandits kill 4, kidnap 30, stole 250 cattles in Niger state,"" Naij.com, January 2, 2017.",START Primary Collection,0,0,"201612290040, 201612290041, 201612300024, 201612300025"
170310,201612300025,2016,12,30,,1,,147,Nigeria,11,Sub-Saharan Africa,Niger,Dogongona,10.241977,6.2523290000000005,"12/30/2016: Assailants raided Dogongona community in Rafi district, Niger state, Nigeria. This was one of four coordinated attacks in two communities in Rafi over two days. n unknown number of people were abducted in the second two raids, while four people were killed and an unknown number of women were sexually assaulted across all four raids. One person escaped, while the whereabouts of the remaining hostages are unknown. No group claimed responsibility for the incidents; however, sources suspected that Boko Haram was involved.",1,1,0,6,Hostage Taking (Kidnapping),14,Private Citizens & Property,75.0,Village/City/Town/Suburb,Dogongona Community,Community,147.0,Boko Haram,5,Firearms,2.0,Automatic Weapon,1.0,,1,3.0,Minor (likely < $1 million),-99.0,"""Marauders invade Niger communities, kill, rape, rustle 250 cattle,"" Daily Sun, January 2, 2017.","""Suspected Boko Haram bandits kill 4, kidnap 30, stole 250 cattles in Niger state,"" Naij.com, January 2, 2017.",START Primary Collection,0,0,"201612290040, 201612290041, 201612300024, 201612300025"
170311,201612300039,2016,12,30,,0,,160,Philippines,5,Southeast Asia,Maguindanao,Datu Saudi Ampatuan,6.951292,124.447787,"12/30/2016: Security forces discovered and defused an explosive device along Cotabato-Isulan highway in Datu Saudi Ampatuan, Maguindanao, Philippines. No group claimed responsibility for the incident.",0,0,0,3,Bombing/Explosion,20,Unknown,,,Unknown,Unknown,160.0,Unknown,6,Explosives/Bombs/Dynamite,16.0,Unknown Explosive Type,0.0,0.0,0,,,,"""Asia: US Army ASD Philippine Terrorist Media Weekly Wrap-up 25 - 31 December 2016,"" Summary, January 4, 2017.",,START Primary Collection,-9,-9,
170312,201612310001,2016,12,31,2016-12-31 00:00:00,0,,4,Afghanistan,6,South Asia,Sari Pul,Sayyad district,36.062742,65.83499,"12/31/2016: Assailants attacked Sayad district in Sar-e Pul, Afghanistan. At least seven assailants and two security members were killed and 12 assailants were injured in the ensuing clash. No group claimed responsibility for the incident; however, sources attributed the attack to the Taliban.",0,1,0,2,Armed Assault,14,Private Citizens & Property,75.0,Village/City/Town/Suburb,Sayad District,District,4.0,Taliban,5,Firearms,5.0,Unknown Gun Type,9.0,12.0,-9,,,,"""Highlights: Pakistan Pashto Press 1 January December 2017,"" Summary, January 1, 2017.","""Media Highlights on Afghanistan 31 December 2016,"" Summary, December 31, 2016.",START Primary Collection,0,0,
170313,201612310003,2016,12,31,,0,,92,India,6,South Asia,Jammu and Kashmir,Chowgul,34.409556,74.313288,"12/31/2016: Gunmen opened fire on police officers in Chowgul, Jammu and Kashmir, India. One officer was killed in the attack. No group claimed responsibility for the incident.",0,1,0,2,Armed Assault,3,Police,25.0,Police Security Forces/Officers,Indian Police Service (IPS),Constable: Abdul Karim Sheikh,92.0,Unknown,5,Firearms,5.0,Unknown Gun Type,1.0,0.0,0,,,,"""2016 ENDS ON A VIOLENT NOTE IN KASHMIR,"" Hindustan Times, January 1, 2017.","""Policeman killed in militant attack in north Kashmir,"" UNI (United News of India), December 31, 2016.",START Primary Collection,-9,-9,
170314,201612310004,2016,12,31,,0,,153,Pakistan,6,South Asia,Balochistan,Lehri,29.182136,68.211034,"12/31/2016: An explosive device detonated near a motorcycle in Lehri, Balochistan, Pakistan. At least four people were injured in the blast. No group claimed responsibility for the attack.",0,1,0,3,Bombing/Explosion,14,Private Citizens & Property,67.0,Unnamed Civilian/Unspecified,Not Applicable,Civilians,153.0,Unknown,6,Explosives/Bombs/Dynamite,8.0,Land Mine,0.0,4.0,1,3.0,Minor (likely < $1 million),-99.0,"""Highlights: Pakistan Balochistan Press 01 January 2017,"" Summary, January 1, 2017.",,START Primary Collection,-9,-9,
170315,201612310006,2016,12,31,,0,,4,Afghanistan,6,South Asia,Faryab,Chaghatak,35.95771,64.74588299999999,"12/31/2016: Assailants attacked Chaghatak village in Faryab, Afghanistan. This was one of three related attacks in the area on this date. At least 1 police officer was killed and two police officers were injured across the ensuing clashes. In addition, the assailants sustained an unknown number of casualties. No group claimed responsibility for the incidents; however, sources attributed the attacks to the Taliban.",1,1,0,2,Armed Assault,14,Private Citizens & Property,75.0,Village/City/Town/Suburb,Chaghatak Village,Village,4.0,Taliban,5,Firearms,5.0,Unknown Gun Type,1.0,,-9,,,,"""Afghan forces foiled Taliban group attack on northern district -TV,"" Ariana TV, January 1, 2017.",,START Primary Collection,0,0,"201612310006, 201612310007, 201612310008"
170316,201612310007,2016,12,31,,0,,4,Afghanistan,6,South Asia,Faryab,Bukhari Qala,35.856925,64.506511,"12/31/2016: Assailants attacked Bukhari Qala village in Almar, Faryab, Afghanistan. This was one of three related attacks in the area on this date. At least 1 police officer was killed and two police officers were injured across the ensuing clashes. In addition, the assailants sustained an unknown number of casualties. No group claimed responsibility for the incidents; however, sources attributed the attacks to the Taliban.",1,1,0,2,Armed Assault,14,Private Citizens & Property,75.0,Village/City/Town/Suburb,Bukhari Qala Village,Village,4.0,Taliban,5,Firearms,5.0,Unknown Gun Type,,1.0,-9,,,,"""Afghan forces foiled Taliban group attack on northern district -TV,"" Ariana TV, January 1, 2017.",,START Primary Collection,0,0,"201612310006, 201612310007, 201612310008"
170317,201612310008,2016,12,31,,0,,4,Afghanistan,6,South Asia,Faryab,Band-e Abgardan,35.842058,64.539948,"12/31/2016: Assailants attacked Band-e Abgardan village in Almar, Faryab, Afghanistan. This was one of three related attacks in the area on this date. At least 1 police officer was killed and two police officers were injured across the ensuing clashes. In addition, the assailants sustained an unknown number of casualties. No group claimed responsibility for the incidents; however, sources attributed the attacks to the Taliban.",1,1,0,2,Armed Assault,14,Private Citizens & Property,75.0,Village/City/Town/Suburb,Band-e Abgardan Village,Village,4.0,Taliban,5,Firearms,5.0,Unknown Gun Type,,1.0,-9,,,,"""Afghan forces foiled Taliban group attack on northern district -TV,"" Ariana TV, January 1, 2017.",,START Primary Collection,0,0,"201612310006, 201612310007, 201612310008"
170318,201612310009,2016,12,31,,0,,60,Egypt,10,Middle East & North Africa,North Sinai,Arish,31.132296999999998,33.80268,"12/31/2016: An explosive device detonated targeting a police vehicle in Arish, North Sinai, Egypt. At least two police officers were killed and one officer was injured in the blast. No group claimed responsibility for the incident; however, sources attributed the attack to the Sinai Province of the Islamic State.",0,1,0,3,Bombing/Explosion,3,Police,23.0,Police Patrol (including vehicles and convoys),Central Security Forces (CSF),Vehicle,60.0,Sinai Province of the Islamic State,6,Explosives/Bombs/Dynamite,16.0,Unknown Explosive Type,2.0,1.0,1,4.0,Unknown,-99.0,"""Police officer, conscript killed in IED attack near Al-Arish,"" Daily News Egypt, December 31, 2016.","""Sinai explosion kills officer and soldier,"" San Francisco Chronicle, December 31, 2016.",START Primary Collection,0,0,
170319,201612310010,2016,12,31,,0,,160,Philippines,5,Southeast Asia,North Cotabato,Nabalawag,7.059925999999999,124.509575,"12/31/2016: Assailants opened fire on Philippine Army (PA) soldiers in Nabalawag, North Cotabato, Philippines. The wife of a soldier was wounded in the assault. No group claimed responsibility; however, sources attributed the attack to the Bangsamoro Islamic Freedom Movement (BIFM).",0,1,0,2,Armed Assault,4,Military,34.0,"Military Personnel (soldiers, troops, officers, forces)",Philippine Army (PA),34th Infantry Battalion Soldiers,160.0,Bangsamoro Islamic Freedom Movement (BIFM),5,Firearms,2.0,Automatic Weapon,0.0,1.0,0,,,,"""AFP braces for more BIFF attacks in ARMM,"" Manila Times, January 4, 2017.","""Philippines: BIFF attacks soldiers in North Cotabato, Maguindanao on New Year's Eve,"" ABS CBN News Online, January 1, 2017.",START Primary Collection,0,0,
170320,201612310011,2016,12,31,,0,,160,Philippines,5,Southeast Asia,Maguindanao,Elian,6.957127000000001,124.47440800000001,"12/31/2016: Assailants opened fire on Philippine Army (PA) soldiers in Elian, Datu Saudi-Ampatuan district, Maguindanao, Philippines. There were no reported casualties in the assault. No group claimed responsibility; however, sources attributed the attack to the Bangsamoro Islamic Freedom Movement (BIFM).",0,0,0,2,Armed Assault,4,Military,34.0,"Military Personnel (soldiers, troops, officers, forces)",Philippine Army (PA),21st Mechanized Company Soldiers,160.0,Bangsamoro Islamic Freedom Movement (BIFM),5,Firearms,5.0,Unknown Gun Type,0.0,0.0,0,,,,"""Philippines: BIFF attacks soldiers in North Cotabato, Maguindanao on New Year's Eve,"" ABS CBN News Online, January 1, 2017.",,START Primary Collection,0,0,
170321,201612310012,2016,12,31,,0,,19,Bangladesh,6,South Asia,Rangpur,Sundarganj,25.564362,89.51909,"12/31/2016: Assailants shot and killed Manzurul Islam Liton, an Awami League Member of Parliament, in Sundarganj, Rangpur, Bangladesh. No group claimed responsibility for the incident; however, sources attributed the attack to Jamaat-E-Islami (Bangladesh).",0,1,0,1,Assassination,2,Government (General),15.0,Politician or Political Party Movement/Meeting/Rally,Jatiyo Sangshad,Member of Parliament: Manzurul Islam Liton,19.0,Jamaat-E-Islami (Bangladesh),5,Firearms,3.0,Handgun,1.0,0.0,0,,,,"""Ruling party lawmaker shot dead in Bangladesh,"" Press Trust of India, December 31, 2016.","""Liton murder: PM blames Jamaat,"" Bangladesh Daily Star, January 4, 2017.",START Primary Collection,0,0,
170322,201612310013,2016,12,30,,0,,153,Pakistan,6,South Asia,Punjab,Sahiwal,30.661181,73.108576,"12/30/2016: Assailants opened fire on the vehicle of Asif Mirza in Sahiwal, Punjab, Pakistan. At least two people, including Mirza, a Counter Terrorism Department (CTD) official, and his driver, were wounded in the assault. No group claimed responsibility for the attack.",0,1,0,2,Armed Assault,3,Police,23.0,Police Patrol (including vehicles and convoys),Counter Terrorism Department (CTD),Vehicle of Official: Asif Mirza,153.0,Unknown,5,Firearms,5.0,Unknown Gun Type,0.0,2.0,1,3.0,Minor (likely < $1 million),-99.0,"""Suicide attack foiled in Rahim Yar Khan; two CTD men injured,"" DAWN Group, December 31, 2016.",,START Primary Collection,-9,-9,
170323,201612310014,2016,12,31,,0,,173,Saudi Arabia,10,Middle East & North Africa,Jazan,Unknown,16.889359,42.570567,"12/31/2016: Assailants launched projectiles and opened fire on a military post in Jazan region, Saudi Arabia. One soldier was killed in the attack. Huthi extremists claimed responsibility for the incident.",0,1,0,2,Armed Assault,4,Military,27.0,Military Barracks/Base/Headquarters/Checkpost,Royal Saudi Land Forces,Post,173.0,Houthi extremists (Ansar Allah),6,Explosives/Bombs/Dynamite,11.0,"Projectile (rockets, mortars, RPGs, etc.)",1.0,0.0,-9,,,,"""Rebel fire from Yemen kills Saudi soldier,"" The News International, January 2, 2017.","""Saudi Soldier killed due to rebel fire from Yemen,"" MENA English (Middle East and North Africa Financial Network), January 2, 2017.",START Primary Collection,1,1,
170324,201612310015,2016,12,31,,0,,4,Afghanistan,6,South Asia,Kabul,Kabul,34.533342,69.078022,"12/31/2016: An explosive device attached to a civilian vehicle detonated in Kabul, Afghanistan. Two people were killed and four others were injured in the blast. No group claimed responsibility for the incident.",0,1,0,3,Bombing/Explosion,14,Private Citizens & Property,73.0,Vehicles/Transportation,Not Applicable,Vehicle,4.0,Unknown,6,Explosives/Bombs/Dynamite,29.0,Sticky Bomb,2.0,4.0,1,3.0,Minor (likely < $1 million),-99.0,"""Wounded bride: All my dreams shattered,"" Pajhwok Afghan News English, December 31, 2016.","""Highlights: Pakistan Pashto Press 1 January December 2017,"" Summary, January 1, 2017.",START Primary Collection,-9,-9,
170325,201612310016,2016,12,31,,0,,34,Burundi,11,Sub-Saharan Africa,Bubanza,Muzinda,-3.253245,29.430265999999996,"12/31/2016: An assailant threw a grenade at a church in Muzinda, Bubanza, Burundi. Eight people were injured in the blast. No group claimed responsibility for the incident.",0,1,0,3,Bombing/Explosion,15,Religious Figures/Institutions,86.0,Place of Worship,Unknown,Church,34.0,Unknown,6,Explosives/Bombs/Dynamite,7.0,Grenade,0.0,8.0,1,3.0,Minor (likely < $1 million),-99.0,"""Grenade explosion injures 8 in church in Burundi's Bubanza province,"" Xinhua General News Service, January 1, 2017.",,START Primary Collection,-9,-9,
170326,201612310017,2016,12,31,,0,,153,Pakistan,6,South Asia,Khyber Pakhtunkhwa,Peshawar,34.014975,71.58049,"12/31/2016: Assailants opened fire on the vehicle of Rahim Barakzai in Peshawar, Pakistan. Barakzai, an Awami National Party (ANP) leader, was killed and his companion was injured in the assault. No group claimed responsibility for the attack.",0,1,0,1,Assassination,14,Private Citizens & Property,84.0,Political Party Member/Rally,Awami National Party (ANP),Vehicle of Leader: Rahim Barakzai,153.0,Unknown,5,Firearms,5.0,Unknown Gun Type,1.0,1.0,1,3.0,Minor (likely < $1 million),-99.0,"""ANP leader Rahim Barakazi killed in Peshawar,"" Pakistan Today, December 31, 2016.",,START Primary Collection,-9,-9,
170327,201612310019,2016,12,31,,0,,92,India,6,South Asia,Manipur,Imphal,24.806454000000002,93.92081,"12/31/2016: An explosive device was discovered and defused near the house of a former bank official in Imphal, Manipur, India. No group claimed responsibility for the incident.",0,0,0,3,Bombing/Explosion,1,Business,3.0,Bank/Commerce,Unknown,Residence of Former Bank Official,92.0,Unknown,6,Explosives/Bombs/Dynamite,16.0,Unknown Explosive Type,0.0,0.0,0,,,,"""Bomb found at Imphal, hospital closed down,"" UNI (United News of India), December 31, 2016.","""Bomb found at Imphal, hospital closed down,"" HT Syndication, December 31, 2016.",START Primary Collection,-9,-9,
170328,201612310022,2016,12,31,2016-12-31 00:00:00,0,,4,Afghanistan,6,South Asia,Farah,Bagh Kafi,32.372459,62.12009200000001,"12/31/2016: Assailants shot and injured an Afghan Local Police (ALP) deputy head in Bagh Kafi, Farah, Afghanistan. No group claimed responsibility for the incident.",0,1,0,2,Armed Assault,3,Police,25.0,Police Security Forces/Officers,Afghan Local Police (ALP),Deputy Head: Mohammad Esa,4.0,Unknown,5,Firearms,5.0,Unknown Gun Type,0.0,1.0,0,,,,"""Farah ALP officer wounded in gun attack,"" Pajhwok Afghan News English, December 31, 2016.",,START Primary Collection,-9,-9,
170329,201612310023,2016,12,31,2016-12-31 00:00:00,0,,4,Afghanistan,6,South Asia,Logar,Mohammad Agha district,34.221242,69.078024,"12/31/2016: Assailants kidnapped a soldier in Mohammad Agha, Logar, Afghanistan. The soldier was shot and killed shortly after the abduction. No group claimed responsibility for the incident.",0,1,0,6,Hostage Taking (Kidnapping),4,Military,34.0,"Military Personnel (soldiers, troops, officers, forces)",Afghan National Army (ANA),Soldier,4.0,Unknown,5,Firearms,5.0,Unknown Gun Type,1.0,0.0,0,,,,"""Afghanistan: Nangarhar, Logar Clashes Result in Deaths of Two Security Forces, Four Rebels,"" Pajhwok Afghan News Online, December 31, 2016.",,START Primary Collection,-9,-9,
170330,201612310024,2016,12,31,,0,,147,Nigeria,11,Sub-Saharan Africa,Borno,Maiduguri,11.831097999999999,13.150967000000001,"12/31/2016: Two young female suicide bombers attempted to attack a crowd near a food vendor in Maiduguri, Borno, Nigeria. One assailant detonated, killing herself and injuring another person. The second assailant was lynched by the crowd. No group claimed responsibility for the incident; however, sources attributed the attack to Boko Haram.",0,1,1,3,Bombing/Explosion,14,Private Citizens & Property,67.0,Unnamed Civilian/Unspecified,Not Applicable,Civilians,147.0,Boko Haram,6,Explosives/Bombs/Dynamite,13.0,Suicide (carried bodily by human being),2.0,1.0,-9,,,,"""Nigerian girl, 10, used in suicide bomb attack on New Year's Eve; One person seriously injured in attack bearinghallmarks ofBoko Haram,"" The Independent, January 1, 2017.","""Suicide bomber, aged 10, blows herself up in attack at Maiduguri food market,"" International Business Times UK, January 1, 2017.",START Primary Collection,0,0,
170331,201612310025,2016,12,31,2016-12-31 00:00:00,0,,95,Iraq,10,Middle East & North Africa,Saladin,Mutaybijah,34.345164000000004,44.467121,"12/31/2016: Assailants attacked a volunteer forces checkpoint in Mutaybijah, Saladin, Iraq. At least three volunteers were killed and two volunteers were injured in the assault. No group claimed responsibility for the incident; however, sources attributed the attack to the Islamic State of Iraq and the Levant (ISIL).",0,1,0,9,Unknown,4,Military,36.0,Military Checkpoint,Iraqi Volunteer Forces,Checkpoint,95.0,Islamic State of Iraq and the Levant (ISIL),13,Unknown,,,3.0,2.0,0,,,,"""Iraq: Security Roundup 1900 GMT 31 December 2016,"" Summary, December 29, 2016.",,START Primary Collection,0,1,
170332,201612310026,2016,12,31,,0,,95,Iraq,10,Middle East & North Africa,Baghdad,Baghdad,33.381146,44.34494,"12/31/2016: Security forces intercepted and killed two suicide bombers driving an explosives-laden vehicle in Kadhimiya neighborhood, Baghdad city, Baghdad governorate, Iraq. No group claimed responsibility for the incident.",0,1,1,3,Bombing/Explosion,14,Private Citizens & Property,75.0,Village/City/Town/Suburb,Kadhimiyah District,District,95.0,Unknown,6,Explosives/Bombs/Dynamite,15.0,Vehicle,2.0,0.0,0,,,,"""Double bomb attack hits crowded Baghdad market,"" Al Jazeera, December 31, 2016.","""Dozens Killed In Baghdad Blasts Claimed By Islamic State,"" Radio Free Europe, December 31, 2016.",START Primary Collection,-9,-9,
170333,201612310027,2016,12,31,,0,,95,Iraq,10,Middle East & North Africa,Baghdad,Baghdad,33.332813,44.40106,"12/31/2016: A suicide bomber detonated in a market in Sinak area, Baghdad city, Baghdad governorate, Iraq. This was one of two coordinated explosions in the area within a short period of time. At least 28 people were killed and 43 people were injured across both attacks. The Islamic State of Iraq and the Levant (ISIL) claimed responsibility for the incidents.",1,1,1,3,Bombing/Explosion,14,Private Citizens & Property,74.0,Marketplace/Plaza/Square,Al Sinak Market,Market,95.0,Islamic State of Iraq and the Levant (ISIL),6,Explosives/Bombs/Dynamite,13.0,Suicide (carried bodily by human being),15.0,22.0,1,4.0,Unknown,-99.0,"""Double bomb attack hits crowded Baghdad market,"" Al Jazeera, December 31, 2016.","""Update: Baghdad bomb attacks kill 30 at eve of 2017,"" Xinhua General News Service, December 31, 2016.",START Primary Collection,0,1,"201612310027, 201612310028"
170334,201612310028,2016,12,31,,0,,95,Iraq,10,Middle East & North Africa,Baghdad,Baghdad,33.332813,44.40106,"12/31/2016: A suicide bomber detonated in a market in Sinak area, Baghdad city, Baghdad governorate, Iraq. This was one of two coordinated explosions in the area within a short period of time. At least 28 people were killed and 43 people were injured across both attacks. The Islamic State of Iraq and the Levant (ISIL) claimed responsibility for the incidents.",1,1,1,3,Bombing/Explosion,14,Private Citizens & Property,74.0,Marketplace/Plaza/Square,Al Sinak Market,Market,95.0,Islamic State of Iraq and the Levant (ISIL),6,Explosives/Bombs/Dynamite,13.0,Suicide (carried bodily by human being),15.0,21.0,1,4.0,Unknown,-99.0,"""Double bomb attack hits crowded Baghdad market,"" Al Jazeera, December 31, 2016.","""Update: Baghdad bomb attacks kill 30 at eve of 2017,"" Xinhua General News Service, December 31, 2016.",START Primary Collection,0,1,"201612310027, 201612310028"
170335,201612310029,2016,12,31,,0,,95,Iraq,10,Middle East & North Africa,Baghdad,Baghdad,33.305081,44.488946999999996,"12/31/2016: An explosives-laden vehicle detonated in New Baghdad area, Baghdad city, Baghdad governorate, Iraq. At least four people were killed in the blast. No group claimed responsibility for the incident.",0,1,0,3,Bombing/Explosion,14,Private Citizens & Property,67.0,Unnamed Civilian/Unspecified,Not Applicable,Civilians,95.0,Unknown,6,Explosives/Bombs/Dynamite,15.0,Vehicle,4.0,0.0,-9,,,,"""Reuters: Baghdad blasts kill 29 as Mosul fighting intensifies,"" Focus Bulgaria, December 31, 2016.","""Update: Baghdad bomb attacks kill 30 at eve of 2017,"" Xinhua General News Service, December 31, 2016.",START Primary Collection,-9,-9,
170336,201612310030,2016,12,31,,0,,95,Iraq,10,Middle East & North Africa,Baghdad,Baghdad,33.370243,44.278690999999995,"12/31/2016: Five explosive devices detonated in Shuala area, Baghdad city, Baghdad governorate, Iraq. One person was killed and seven people were injured in the blast. No group claimed responsibility for the incident.",0,1,0,3,Bombing/Explosion,14,Private Citizens & Property,67.0,Unnamed Civilian/Unspecified,Not Applicable,Civilians,95.0,Unknown,6,Explosives/Bombs/Dynamite,16.0,Unknown Explosive Type,1.0,7.0,0,,,,"""Update: Baghdad bomb attacks kill 30 at eve of 2017,"" Xinhua General News Service, December 31, 2016.",,START Primary Collection,-9,-9,
170337,201612310031,2016,12,31,,0,,95,Iraq,10,Middle East & North Africa,Nineveh,Mosul,36.352632,43.190459999999995,"12/31/2016: Security forces intercepted and killed an unknown number of suicide bombers targeting security forces with four explosives-laden vehicles in Tamim, Mosul, Nineveh, Iraq. No group claimed responsibility for the incident; however, sources attributed the attack to the Islamic State of Iraq and the Levant (ISIL).",0,0,1,3,Bombing/Explosion,4,Military,34.0,"Military Personnel (soldiers, troops, officers, forces)",Iraqi Armed Forces,Forces,95.0,Islamic State of Iraq and the Levant (ISIL),6,Explosives/Bombs/Dynamite,15.0,Vehicle,,0.0,0,,,,"""CTS destroys 4 car bombs in eastern Mosul,"" Iraqi News, December 31, 2016.",,START Primary Collection,0,1,
170338,201612310033,2016,12,31,,0,,153,Pakistan,6,South Asia,Khyber Pakhtunkhwa,Gajukhel,33.803878999999995,72.02543399999999,"12/31/2016: Assailants opened fire on Frontier Constabulary (FC) personnel in Gajukhel, Nowshera district, Khyber Pakhtunkhwa, Pakistan. At least two officers were killed in the assault. No group claimed responsibility for the attack.",0,1,0,2,Armed Assault,3,Police,25.0,Police Security Forces/Officers,Frontier Constabulary (FC),Personnel,153.0,Unknown,5,Firearms,5.0,Unknown Gun Type,2.0,0.0,0,,,,"""Two FC Balochistan personnel shot dead in Nowshera,"" Khyber News, December 31, 2016.",,START Primary Collection,-9,-9,
170339,201612310034,2016,12,31,,0,,4,Afghanistan,6,South Asia,Jawzjan,Zoqum,36.662402,65.748508,"12/31/2016: Assailants attacked a security post in Zoqum, Jawzjan, Afghanistan. This was one of four related attacks on security posts on this day. Two assailants were killed and five assailants were injured across the ensuing clashes. The Taliban claimed responsibility for the incidents.",1,0,0,9,Unknown,4,Military,27.0,Military Barracks/Base/Headquarters/Checkpost,Afghan National Security Force (ANSF),Checkposts,4.0,Taliban,13,Unknown,,,1.0,1.0,0,,,,"""Jawzjan clash leaves 2 rebels dead, 8 wounded,"" Pajhwok Afghan News English, January 1, 2017.",,START Primary Collection,0,0,"201612310034, 201612310035, 201612310036, 201612310037"
170340,201612310035,2016,12,31,,0,,4,Afghanistan,6,South Asia,Jawzjan,Jakdalk,36.667981,65.75108399999999,"12/31/2016: Assailants attacked a security post in Jakdalk, Jawzjan, Afghanistan. This was one of four related attacks on security posts on this day. Two assailants were killed and five assailants were injured across the ensuing clashes. The Taliban claimed responsibility for the incidents.",1,0,0,9,Unknown,4,Military,27.0,Military Barracks/Base/Headquarters/Checkpost,Afghan National Security Force (ANSF),Checkposts,4.0,Taliban,13,Unknown,,,1.0,1.0,0,,,,"""Jawzjan clash leaves 2 rebels dead, 8 wounded,"" Pajhwok Afghan News English, January 1, 2017.",,START Primary Collection,0,0,"201612310034, 201612310035, 201612310036, 201612310037"
170341,201612310036,2016,12,31,,0,,4,Afghanistan,6,South Asia,Jawzjan,Shirkhel,36.666222,65.754795,"12/31/2016: Assailants attacked a security post in Shirkhel, Jawzjan, Afghanistan. This was one of four related attacks on security posts on this day. Two assailants were killed and five assailants were injured across the ensuing clashes. The Taliban claimed responsibility for the incidents.",1,0,0,9,Unknown,4,Military,27.0,Military Barracks/Base/Headquarters/Checkpost,Afghan National Security Force (ANSF),Checkposts,4.0,Taliban,13,Unknown,,,0.0,2.0,0,,,,"""Jawzjan clash leaves 2 rebels dead, 8 wounded,"" Pajhwok Afghan News English, January 1, 2017.",,START Primary Collection,0,0,"201612310034, 201612310035, 201612310036, 201612310037"
170342,201612310037,2016,12,31,,0,,4,Afghanistan,6,South Asia,Jawzjan,Tofan,36.659695,65.752408,"12/31/2016: Assailants attacked a security post in Tofan, Jawzjan, Afghanistan. This was one of four related attacks on security posts on this day. Two assailants were killed and five assailants were injured across the ensuing clashes. The Taliban claimed responsibility for the incidents.",1,0,0,9,Unknown,4,Military,27.0,Military Barracks/Base/Headquarters/Checkpost,Afghan National Security Force (ANSF),Checkposts,4.0,Taliban,13,Unknown,,,0.0,1.0,0,,,,"""Jawzjan clash leaves 2 rebels dead, 8 wounded,"" Pajhwok Afghan News English, January 1, 2017.",,START Primary Collection,0,0,"201612310034, 201612310035, 201612310036, 201612310037"
170343,201612310038,2016,12,30,,0,,4,Afghanistan,6,South Asia,Jawzjan,Mangajek district,37.007020000000004,66.026738,"12/30/2016: An explosive device attached to a National Uprising Movement vehicle detonated in Mangajek, Jawzjan, Afghanistan. At least two uprising members were killed and five members were injured in the blast. The Taliban claimed responsibility for the incident.",0,1,0,3,Bombing/Explosion,17,Terrorists/Non-State Militia,94.0,Non-State Militia,National Uprising Movement (NUM),Vehicle,4.0,Taliban,6,Explosives/Bombs/Dynamite,16.0,Unknown Explosive Type,2.0,5.0,1,3.0,Minor (likely < $1 million),-99.0,"""Afghansitan: Blast in Jowzjan Province Kills 2, Injures 5 of Anti-Taliban Uprising Group,"" Pajhwok Afghan News Online, December 31, 2016.",,START Primary Collection,0,0,
170344,201612310039,2016,12,31,2016-12-31 00:00:00,0,,4,Afghanistan,6,South Asia,Helmand,Lashkar Gah,31.583664000000002,64.36869899999999,"12/31/2016: An explosive device detonated in Lashkar Gah, Helmand, Afghanistan. One civilian was killed and six civilians were wounded in the blast. No group claimed responsibility for the incident.",0,1,0,3,Bombing/Explosion,14,Private Citizens & Property,67.0,Unnamed Civilian/Unspecified,Not Applicable,Civilians,4.0,Unknown,6,Explosives/Bombs/Dynamite,8.0,Land Mine,1.0,6.0,-9,,,,"""Program Summary: Afghanistan-Pul-e Alam Zinat Ghag Radio Pashto 1430 GMT 30 December 2016,"" Zinat Ghag Radio, December 31, 2016.",,START Primary Collection,-9,-9,
170345,201612310040,2016,12,31,,0,,146,Niger,11,Sub-Saharan Africa,Diffa,Garoua,13.883032,13.177504,"12/31/2016: Assailants attacked military positions in Garoua, Diffa, Niger. At least 15 people, including three soldiers and 12 assailants, were killed and seven other people were injured in the ensuing clash. No group claimed responsibility; however, sources attributed the attack to Boko Haram.",0,1,0,9,Unknown,4,Military,34.0,"Military Personnel (soldiers, troops, officers, forces)",Niger Army,Soldiers,146.0,Boko Haram,13,Unknown,,,15.0,7.0,0,,,,"""15 soldiers killed, 19 injured in Niger terror attack,"" Hindustan Times, February 24, 2017.","""Niger: Boko Haram attack kills two soldiers in Lake Chad region,"" Sahel Standard, January 2, 2017.",START Primary Collection,1,1,
170346,201612310042,2016,12,31,,0,,160,Philippines,5,Southeast Asia,Maguindanao,Talitay,7.027067,124.38655200000001,"12/31/2016: An explosive device detonated targeting soldiers and aid workers in Talitay, Maguindanao, Philippines. No casualties were reported in the blast. No group claimed responsibility for the incident.",0,1,0,3,Bombing/Explosion,12,NGO,,,Unknown,Convoy of Relief Workers,160.0,Unknown,6,Explosives/Bombs/Dynamite,16.0,Unknown Explosive Type,0.0,0.0,-9,,,,"""AFP braces for more BIFF attacks in ARMM,"" Manila Times, January 4, 2017.","""Asia: US Army ASD Philippine Terrorist Media Weekly Wrap-up 25 - 31 December 2016,"" Summary, January 4, 2017.",START Primary Collection,-9,-9,
170347,201612310043,2016,12,31,,1,,229,Democratic Republic of the Congo,11,Sub-Saharan Africa,Bas-Uele,Nakolongbo,4.308611,25.091389000000003,"12/31/2016: Assailants attacked a village and abducted 33 civilians in Nakolongbo, Bas-Uele, Democratic Republic of the Congo. The hostages were rescued by security forces on January 8, 2017. No group claimed responsibility for the incident; however, sources attributed the attack to the Lord's Resistance Army (LRA).",0,1,0,6,Hostage Taking (Kidnapping),14,Private Citizens & Property,75.0,Village/City/Town/Suburb,Nakolongbo Village,Village,229.0,Lord's Resistance Army (LRA),13,Unknown,,,0.0,,0,,,,"""DRC Armed Forces Dislodge Ugandan LRA Rebels From Village in Bas-Uele Province,"" Radio Okapi Online, January 11, 2017.",,START Primary Collection,1,1,
170348,201612310044,2016,12,31,,0,,130,Mexico,1,North America,Chihuahua,Guachochi,26.819644,-107.069898,"12/31/2016: Assailants opened fire on the house of Gabriel Valencia Juarez in Chihuahua, Mexico. Juarez, a journalist, was not harmed in the attack. No group claimed responsibility for the incident.",0,0,0,1,Assassination,10,Journalists & Media,53.0,Newspaper Journalist/Staff/Facility,Norawa,Residence of Journalist: Gabriel Valencia Juarez,130.0,Unknown,5,Firearms,3.0,Handgun,0.0,0.0,1,3.0,Minor (likely < $1 million),-99.0,"""Gunmen shoot at home of Mexican indigenous rights reporter,"" Big News Network, January 10, 2017.","""? Gunmen shoot at home of Mexican indigenous rights reporter,"" Human Rights Network For Journalists - Uganda, January 10, 2017.",START Primary Collection,-9,-9,
170349,201701270001,2016,12,30,,0,,195,Sudan,11,Sub-Saharan Africa,Central Darfur,Nertiti,12.961400999999999,24.044116,"12/30/2016: Assailants armed with firearms attacked Nertiti, Central Darfur, Sudan. At least three people, including a soldier, were killed and 47 others were wounded in ensuing clashes. No group claimed responsibility; however, sources suspected that the attack was carried out by the Sudan Liberation Movement, which denied involvement.",0,0,0,2,Armed Assault,14,Private Citizens & Property,75.0,Village/City/Town/Suburb,Nierteti Town,Town,195.0,Sudan Liberation Movement,5,Firearms,5.0,Unknown Gun Type,0.0,0.0,0,,,,"""Rebels To Blame For Nierteti Killing: Central Darfur Governor,"" Radio Dabanga Online, January 2, 2017.","""Security deteriorates in West Darfur alongside attacks by Sudanese forces and local militias,"" African Centre for Justice and Peace Studies, January 13, 2017.",START Primary Collection,0,0,