,eventid,iyear,imonth,iday,approxdate,extended,resolution,country,country_txt,region,region_txt,provstate,city,latitude,longitude,summary,multiple,success,suicide,attacktype1,attacktype1_txt,targtype1,targtype1_txt,targsubtype1,targsubtype1_txt,corp1,target1,natlty1,gname,weaptype1,weaptype1_txt,weapsubtype1,weapsubtype1_txt,nkill,nwound,property,propextent,propextent_txt,propvalue,scite1,scite2,dbsource,INT_LOG,INT_ANY,related
0,197000000001,1970,7,2,,0,,58,Dominican Republic,2,Central America & Caribbean,,Santo Domingo,18.456792,-69.951164,,0,1,0,1,Assassination,14,Private Citizens & Property,68.0,Named Civilian,,Julio Guzman,58.0,MANO-D,13,Unknown,,,1.0,0.0,0,,,,,,PGIS,0,0,
1,197000000002,1970,0,0,,0,,130,Mexico,1,North America,,Mexico city,19.432608,-99.133207,,0,1,0,6,Hostage Taking (Kidnapping),7,Government (Diplomatic),45.0,"Diplomatic Personnel (outside of embassy, consulate)",Belgian Ambassador Daughter,"Nadine Chaval, daughter",21.0,23rd of September Communist League,13,Unknown,,,0.0,0.0,0,,,,,,PGIS,0,1,
2,197001000001,1970,1,0,,0,,160,Philippines,5,Southeast Asia,Tarlac,Unknown,15.478598000000002,120.599741,,0,1,0,1,Assassination,10,Journalists & Media,54.0,Radio Journalist/Staff/Facility,Voice of America,Employee,217.0,Unknown,13,Unknown,,,1.0,0.0,0,,,,,,PGIS,-9,1,
3,197001000002,1970,1,0,,0,,78,Greece,8,Western Europe,Attica,Athens,37.983773,23.728157,,0,1,0,3,Bombing/Explosion,7,Government (Diplomatic),46.0,Embassy/Consulate,,U.S. Embassy,217.0,Unknown,6,Explosives/Bombs/Dynamite,16.0,Unknown Explosive Type,,,1,,,,,,PGIS,-9,1,
4,197001000003,1970,1,0,,0,,101,Japan,4,East Asia,,Fukouka,33.580412,130.396361,,0,1,0,7,Facility/Infrastructure Attack,7,Government (Diplomatic),46.0,Embassy/Consulate,,U.S. Consulate,217.0,Unknown,8,Incendiary,,,,,1,,,,,,PGIS,-9,1,
5,197001010002,1970,1,1,,0,,217,United States,1,North America,Illinois,Cairo,37.005105,-89.17626899999999,"1/1/1970: Unknown African American assailants fired several bullets at police headquarters in Cairo, Illinois, United States.  There were no casualties, however, one bullet narrowly missed several police officers.  This attack took place during heightened racial tensions, including a Black boycott of White-owned businesses, in Cairo Illinois.",0,1,0,2,Armed Assault,3,Police,22.0,"Police Building (headquarters, station, school)",Cairo Police Department,Cairo Police Headquarters,217.0,Black Nationalists,5,Firearms,5.0,Unknown Gun Type,0.0,0.0,1,3.0,Minor (likely < $1 million),,"""Police Chief Quits,"" Washington Post, January 2, 1970.","""Cairo Police Chief Quits; Decries Local 'Militants',"" Afro-American, January 10, 1970.",Hewitt Project,-9,-9,
6,197001020001,1970,1,2,,0,,218,Uruguay,3,South America,Montevideo,Montevideo,-34.891151,-56.187214000000004,,0,0,0,1,Assassination,3,Police,25.0,Police Security Forces/Officers,Uruguayan Police,Juan Maria de Lucah/Chief of Directorate of info. and intell.,218.0,Tupamaros (Uruguay),5,Firearms,2.0,Automatic Weapon,0.0,0.0,0,,,,,,PGIS,0,0,
7,197001020002,1970,1,2,,0,,217,United States,1,North America,California,Oakland,37.805065,-122.27302399999999,"1/2/1970: Unknown perpetrators detonated explosives at the Pacific Gas & Electric Company Edes substation in Oakland, California, United States.  Three transformers were damaged costing an estimated $20,000 to $25,000.  There were no casualties.",0,1,0,3,Bombing/Explosion,21,Utilities,107.0,Electricity,Pacific Gas & Electric Company,Edes Substation,217.0,Unknown,6,Explosives/Bombs/Dynamite,16.0,Unknown Explosive Type,0.0,0.0,1,3.0,Minor (likely < $1 million),22500.0,"Committee on Government Operations United States Senate, ""Riots, Civil, and Criminal Disorders,"" U.S. Government Printing Office, August 6, 1970.","Christopher Hewitt, ""Political Violence and Terrorism in Modern America: A Chronology,"" Praeger Security International, 2005.",Hewitt Project,-9,-9,
8,197001020003,1970,1,2,,0,,217,United States,1,North America,Wisconsin,Madison,43.076592,-89.412488,"1/2/1970: Karl Armstrong, a member of the New Years Gang, threw a firebomb at R.O.T.C. offices located within the Old Red Gym at the University of Wisconsin in Madison, Wisconsin, United States.  There were no casualties but the fire caused around $60,000 in damages to the building.",0,1,0,7,Facility/Infrastructure Attack,4,Military,28.0,Military Recruiting Station/Academy,R.O.T.C.,"R.O.T.C. offices at University of Wisconsin, Madison",217.0,New Year's Gang,8,Incendiary,19.0,Molotov Cocktail/Petrol Bomb,0.0,0.0,1,3.0,Minor (likely < $1 million),60000.0,"Tom Bates, ""Rads: The 1970 Bombing of the Army Math Research Center at the University of Wisconsin and Its Aftermath,"" HarperCollinsPublishing, 1992.","David Newman, Sandra Sutherland, and Jon Stewart, ""The Madison Bomb Story: The Death the FBI Saw, Heard and Won't Talk About,"" Mother Jones, February-March, 1979.",Hewitt Project,0,0,
9,197001030001,1970,1,3,,0,,217,United States,1,North America,Wisconsin,Madison,43.07295,-89.38669399999999,"1/3/1970: Karl Armstrong, a member of the New Years Gang, broke into the University of Wisconsin's Primate Lab and set a fire on the first floor of the building.  Armstrong intended to set fire to the Madison, Wisconsin, United States, Selective Service Headquarters across the street but mistakenly confused the building with the Primate Lab.  The fire caused slight damages and was extinguished almost immediately.",0,1,0,7,Facility/Infrastructure Attack,2,Government (General),21.0,Government Building/Facility/Office,Selective Service,Selective Service Headquarters in Madison Wisconsin,217.0,New Year's Gang,8,Incendiary,20.0,Gasoline or Alcohol,0.0,0.0,1,3.0,Minor (likely < $1 million),,"Committee on Government Operations United States Senate, ""Riots, Civil, and Criminal Disorders,"" U.S. Government Printing Office, August 6, 1970.","Tom Bates, ""Rads: The 1970 Bombing of the Army Math Research Center at the University of Wisconsin and Its Aftermath,"" HarperCollinsPublishing, 1992.",Hewitt Project,0,0,
10,197001050001,1970,1,1,,0,,217,United States,1,North America,Wisconsin,Baraboo,43.4685,-89.744299,,0,0,0,3,Bombing/Explosion,4,Military,27.0,Military Barracks/Base/Headquarters/Checkpost,,Badger Army ammo depot.,217.0,"Weather Underground, Weathermen",6,Explosives/Bombs/Dynamite,16.0,Unknown Explosive Type,0.0,0.0,0,3.0,Minor (likely < $1 million),0.0,,,PGIS,0,0,
11,197001060001,1970,1,6,,0,,217,United States,1,North America,Colorado,Denver,39.74001,-104.992259,"1/6/1970: Unknown perpetrators threw a Molotov cocktail into an Army Recruiting Station in Denver, Colorado, United States.  There were no casualties but damages to the station were estimated at $305.",0,1,0,7,Facility/Infrastructure Attack,4,Military,28.0,Military Recruiting Station/Academy,Army Recruiting Station,"Army Recruiting Station, Denver Colorado",217.0,Left-Wing Militants,8,Incendiary,19.0,Molotov Cocktail/Petrol Bomb,0.0,0.0,1,3.0,Minor (likely < $1 million),305.0,"Committee on Government Operations United States Senate, ""Riots, Civil, and Criminal Disorders,"" U.S. Government Printing Office, August 6, 1970.","Christopher Hewitt, ""Political Violence and Terrorism in Modern America: A Chronology,"" Praeger Security International, 2005.",Hewitt Project,-9,-9,
12,197001080001,1970,1,8,,0,,98,Italy,8,Western Europe,Lazio,Rome,41.89052,12.494249,,0,1,0,4,Hijacking,6,Airports & Aircraft,42.0,Aircraft (not at an airport),Trans World Airline,Flight 802 Boeing 707,217.0,Unknown,5,Firearms,4.0,Rifle/Shotgun (non-automatic),0.0,0.0,0,,,,,,Hijacking DB,-9,1,
13,197001090001,1970,1,9,,0,,217,United States,1,North America,Michigan,Detroit,42.331685,-83.047924,"1/9/1970: Unknown perpetrators set off a firebomb at the Packard Properties building in Detroit, Michigan, United States.  The facility housed federal employees.  The building was damaged but there were no casualties.",0,1,0,7,Facility/Infrastructure Attack,2,Government (General),21.0,Government Building/Facility/Office,U.S. Government housing,Packard Properties building of Detroit Michigan,217.0,Left-Wing Militants,8,Incendiary,19.0,Molotov Cocktail/Petrol Bomb,0.0,0.0,1,3.0,Minor (likely < $1 million),,"Committee on Government Operations United States Senate, ""Riots, Civil, and Criminal Disorders,"" U.S. Government Printing Office, August 6, 1970.","Christopher Hewitt, ""Political Violence and Terrorism in Modern America: A Chronology,"" Praeger Security International, 2005.",Hewitt Project,-9,-9,
14,197001090002,1970,1,9,,0,,217,United States,1,North America,Puerto Rico,Rio Piedras,18.399712,-66.049987,"1/9/1970:  The Armed Commandos of Liberation claimed credit for setting a fire at the Baker's Store in Rio Piedras, Puerto Rico.  There were no casualties but the store was destroyed at a cost of $2,000,000.",0,1,0,7,Facility/Infrastructure Attack,1,Business,7.0,Retail/Grocery/Bakery,American owned business in Puerto Rico,Baker's Store,217.0,Armed Commandos of Liberation,8,Incendiary,18.0,Arson/Fire,0.0,0.0,1,2.0,Major (likely > $1 million but < $1 billion),2000000.0,"Committee on the Judiciary  United States Senate, ""Terroristic Activity: The Cuban Connection in Puerto Rico; Castro's Hand in Puerto Rican and U.S. Terrorism,"" U.S. Government Printing Office, August 6, 1970.","""No Evidence Of Arson Found In Barkers Fire,"" The Virgin Islands Daily News, January 13, 1970.",Hewitt Project,0,0,
15,197001100001,1970,1,10,,0,,499,East Germany (GDR),9,Eastern Europe,,East Berlin,52.516667000000005,13.4,,0,1,0,3,Bombing/Explosion,2,Government (General),,,,Jurists Ball (Palais au Frankturm),75.0,Commune 1,6,Explosives/Bombs/Dynamite,16.0,Unknown Explosive Type,,,0,,,,,,PGIS,0,1,
16,197001110001,1970,1,11,,0,,65,Ethiopia,11,Sub-Saharan Africa,Unknown,Unknown,,,,0,1,0,9,Unknown,4,Military,34.0,"Military Personnel (soldiers, troops, officers, forces)",U.S. Army,Soldier,217.0,Eritrean Liberation Front,13,Unknown,,,1.0,0.0,0,,,,,,PGIS,0,1,
17,197001120001,1970,1,12,,0,,217,United States,1,North America,New York,New York City,40.610069,-73.947971,"1/12/1970: Unknown perpetrators threw a pipe bomb into the vacant dean's office of James Madison High School in Brooklyn, New York, United States.  There were no casualties but the explosion caused minor damages.  Earlier in the day anti-war and pro-Black Panther statements were discovered painted outside the walls of the school.",0,1,0,3,Bombing/Explosion,8,Educational Institution,49.0,School/University/Educational Building,High School,James Madison High School,217.0,Black Nationalists,6,Explosives/Bombs/Dynamite,11.0,"Projectile (rockets, mortars, RPGs, etc.)",0.0,0.0,1,3.0,Minor (likely < $1 million),,"""Blast Damages Flatbush School,"" New York Times, January 13, 1970.","Linda Greenhouse, ""Madison School Puzzled By Bomb,"" New York Times, January 18, 1970.",Hewitt Project,-9,-9,
18,197001120002,1970,1,12,,0,,217,United States,1,North America,Puerto Rico,Rio Grande,18.379998,-65.83094799999999,"1/12/1970: Unknown perpetrators detonated a bomb at a General Electric factory in Rio Grande, Puerto Rico during a strike.  There were no casualties and it is unknown if the factory sustained any damages.",0,1,0,3,Bombing/Explosion,1,Business,4.0,Multinational Corporation,General Electric,General Electric factory in Rio Grande Puerto Rico,217.0,Strikers,6,Explosives/Bombs/Dynamite,16.0,Unknown Explosive Type,0.0,0.0,-9,4.0,Unknown,,"Committee on the Judiciary  United States Senate, ""Terroristic Activity: The Cuban Connection in Puerto Rico; Castro's Hand in Puerto Rican and U.S. Terrorism,"" U.S. Government Printing Office, August 6, 1970.","""Toward People's War for Independence and Socialism in Puerto Rico: In Defense of Armed Struggle,"" Documents and CommuniquÃˆs from the Revolutionary Public Independence Movement and the Armed Clandestine Movement, January 1987.",Hewitt Project,-9,-9,
19,197001130001,1970,1,13,,0,,217,United States,1,North America,Washington,Seattle,47.603559999999995,-122.329439,"1/13/1970: Unknown perpetrators firebombed Fuson's Department Store in Seattle, Washington, United States.  There were no casualties but the store sustained an estimated $17,000 in damages.  Less than a week earlier, the store owner shot and killed an African American male attempting to rob the store.",0,1,0,7,Facility/Infrastructure Attack,1,Business,7.0,Retail/Grocery/Bakery,Fuson's Department Store,"Fuson's Department Store, Seattle Washington",217.0,Black Nationalists,8,Incendiary,19.0,Molotov Cocktail/Petrol Bomb,0.0,0.0,1,3.0,Minor (likely < $1 million),17000.0,"Committee on Government Operations United States Senate, ""Riots, Civil, and Criminal Disorders,"" U.S. Government Printing Office, August 6, 1970.",,Hewitt Project,-9,-9,
20,197001140001,1970,1,14,,0,,217,United States,1,North America,Illinois,Champaign,40.116748,-88.23926999999999,"1/14/1970: Suspected Black militants threw two firebombs into the Champaign Police Department in Champaign, Illinois, United States.  The building was damaged and one police officer was severely burned.",0,1,0,7,Facility/Infrastructure Attack,3,Police,22.0,"Police Building (headquarters, station, school)",Police Department,Champaign Police Department,217.0,Black Nationalists,8,Incendiary,19.0,Molotov Cocktail/Petrol Bomb,0.0,1.0,1,3.0,Minor (likely < $1 million),,"Committee on Government Operations United States Senate, ""Riots, Civil, and Criminal Disorders,"" U.S. Government Printing Office, August 6, 1970.","Christopher Hewitt, ""Political Violence and Terrorism in Modern America: A Chronology,"" Praeger Security International, 2005.",Hewitt Project,-9,-9,
21,197001150001,1970,1,15,,0,,218,Uruguay,3,South America,Montevideo,Montevideo,-34.891151,-56.187214000000004,,0,1,0,2,Armed Assault,8,Educational Institution,49.0,School/University/Educational Building,,"Secondary School, Chemistry Lab",218.0,Tupamaros (Uruguay),5,Firearms,2.0,Automatic Weapon,0.0,0.0,1,3.0,Minor (likely < $1 million),2500.0,,,PGIS,0,0,
22,197001190002,1970,1,19,,0,,217,United States,1,North America,Washington,Seattle,47.610594,-122.317228,"1/17/1970: Three African Americans were suspected of detonating a bomb on the Seattle University campus in Seattle, Washington, United States.  There were no casualties but the Liberal Arts and Garrand buildings sustained $2,200 in damages.",0,1,0,3,Bombing/Explosion,8,Educational Institution,49.0,School/University/Educational Building,Seattle University,"Liberal Arts and Garrand buildings, Seattle University",217.0,Black Nationalists,6,Explosives/Bombs/Dynamite,16.0,Unknown Explosive Type,0.0,0.0,1,3.0,Minor (likely < $1 million),2200.0,"Committee on Government Operations United States Senate, ""Riots, Civil, and Criminal Disorders,"" U.S. Government Printing Office, August 6, 1970.","Christopher Hewitt, ""Political Violence and Terrorism in Modern America: A Chronology,"" Praeger Security International, 2005.",Hewitt Project,-9,-9,
23,197001190003,1970,1,19,,0,,217,United States,1,North America,Washington,Seattle,47.655335,-122.30351999999999,"1/17/1970: Silas and Judith Bissell placed an explosive device in the vicinity of the Air Force R.O.T.C. at the University of Washington campus in Seattle, Washington, United States.  The device was discovered and subsequently disarmed.",0,0,0,3,Bombing/Explosion,4,Military,28.0,Military Recruiting Station/Academy,R.O.T.C.,Air Force R.O.T.C. at the University of Washington,217.0,Student Radicals,6,Explosives/Bombs/Dynamite,16.0,Unknown Explosive Type,0.0,0.0,0,,,,"Committee on Government Operations United States Senate, ""Riots, Civil, and Criminal Disorders,"" U.S. Government Printing Office, August 6, 1970.","Christopher Hewitt, ""Political Violence and Terrorism in Modern America: A Chronology,"" Praeger Security International, 2005.",Hewitt Project,-9,-9,
24,197001190004,1970,1,19,"January 19-20, 1970",0,,217,United States,1,North America,New Jersey,Jersey City,40.728075,-74.077825,"1/19/1970: Unknown perpetrators ignited a fire at the Black Panther Party headquarters in Jersey City, New Jersey, United States.  Two hours later shots were fired at the building.  There were no casualties but the building sustained minor damages.",0,1,0,7,Facility/Infrastructure Attack,22,Violent Political Party,110.0,Party Office/Facility,Black Panther Party,Headquarters,217.0,White extremists,8,Incendiary,18.0,Arson/Fire,0.0,0.0,1,3.0,Minor (likely < $1 million),,"Committee on Government Operations United States Senate, ""Riots, Civil, and Criminal Disorders,"" U.S. Government Printing Office, August 6, 1970.","""Black Panthers Say Office Was Bombed,"" New York Times, January 20, 1970.",Hewitt Project,-9,-9,
25,197001200001,1970,1,20,,0,,83,Guatemala,2,Central America & Caribbean,,Guatemala City,14.624422000000001,-90.53288,,0,1,0,1,Assassination,7,Government (Diplomatic),46.0,Embassy/Consulate,British consulate,"Bodyguard, British Consul",216.0,Unknown,13,Unknown,,,1.0,0.0,0,,,,,,PGIS,-9,1,
26,197001210001,1970,1,21,,0,,160,Philippines,5,Southeast Asia,Metropolitan Manila,Quezon City,14.677301000000002,121.044348,,0,1,0,3,Bombing/Explosion,7,Government (Diplomatic),46.0,Embassy/Consulate,,JUSMAG HQ,217.0,Unknown,6,Explosives/Bombs/Dynamite,15.0,Vehicle,0.0,0.0,1,3.0,Minor (likely < $1 million),5000.0,,,PGIS,-9,1,
27,197001220001,1970,1,22,,0,,222,Venezuela,3,South America,Caracas,Caracas,10.502961,-66.917253,,0,1,0,6,Hostage Taking (Kidnapping),1,Business,7.0,Retail/Grocery/Bakery,Father owned chain of dept stores,"Leon Jacobo Taurel, son",222.0,Armed Forces of National Liberation- Venezuela (FALN),13,Unknown,,,0.0,0.0,0,,,,,,PGIS,0,0,
28,197001220002,1970,1,22,,0,,217,United States,1,North America,Nebraska,South Sioux City,42.47031,-96.413949,"1/22/1970: Unknown perpetrators detonated an explosive device near a private home in South Sioux City, Nebraska, United States.  There were no casualties, however, a sizable hole was left in the house and windows were broken.  This attack was one of many instances of violence in South Sioux City during the Iowa Beef Packers strike.",0,1,0,3,Bombing/Explosion,14,Private Citizens & Property,76.0,House/Apartment/Residence,Private residence,,217.0,Strikers,6,Explosives/Bombs/Dynamite,28.0,Dynamite/TNT,0.0,0.0,1,3.0,Minor (likely < $1 million),,"Committee on Government Operations United States Senate, ""Riots, Civil, and Criminal Disorders,"" U.S. Government Printing Office, August 6, 1970.","""Beef Plant Workers in Nebraska Await Call to Work After Violent Strike Ends,"" New York Times, April 12, 1970.",Hewitt Project,-9,-9,
29,197001250001,1970,1,25,,0,,217,United States,1,North America,Mississippi,West Point,33.60651,-88.650419,"1/25/1970: Unknown perpetrators burnt down a building that was a meeting spot for African Americans in West Point, Mississippi, United States.  There were no injuries or fatalities.  The attack occurred amidst widespread disapproval of school desegregation by the White population of West Point.",0,1,0,7,Facility/Infrastructure Attack,14,Private Citizens & Property,71.0,Race/Ethnicity Identified,Building,Building used as a meeting place for African Americans.,217.0,White extremists,8,Incendiary,18.0,Arson/Fire,0.0,0.0,1,3.0,Minor (likely < $1 million),,"""Miss. City Is Desegregation Trouble Spot,"" Chicago Daily Defender, January 29, 1970.",,Hewitt Project,-9,-9,
30,197001250002,1970,1,25,,0,,217,United States,1,North America,New York,New York City,40.78306,-73.971249,"1/25/1970: Responding to what authorities believe was a fake report to lure police to Manhattan, New York, United States, Patrolmen William Kivlehan and Ralph Bax were shot at from a rooftop by unknown perpetrators after they got out of their car.  Officer Kivlehan was hit five times and officer Bax was hit three times.  Both policemen survived.",0,1,0,2,Armed Assault,3,Police,25.0,Police Security Forces/Officers,New York Police Department,New York Police Officers responding to a call in Harlem,217.0,Black Nationalists,5,Firearms,5.0,Unknown Gun Type,0.0,2.0,1,3.0,Minor (likely < $1 million),,"Committee on Government Operations United States Senate, ""Riots, Civil, and Criminal Disorders,"" U.S. Government Printing Office, August 6, 1970.","Martin Arnold, ""Harlem Area Sealed Off As Police Hunt Snipers,"" New York Times, January 27, 1970.",Hewitt Project,-9,-9,
31,197001260001,1970,1,26,,0,,217,United States,1,North America,Mississippi,West Point,33.60651,-88.650419,"1/26/1970: Unknown African American assailants, unsatisfied with the courts decision on desegregation, threw a stick of dynamite at the Clay County Courthouse in West Point, Mississippi, United States.  There were no injuries or fatalities but the windows of the building were shattered.",0,1,0,3,Bombing/Explosion,2,Government (General),14.0,Judge/Attorney/Court,Courthouse,Clay County Courthouse,217.0,Black Nationalists,6,Explosives/Bombs/Dynamite,28.0,Dynamite/TNT,0.0,0.0,1,3.0,Minor (likely < $1 million),,"""Miss. City Is Desegregation Trouble Spot,"" Chicago Daily Defender, January 29, 1970.","""Black, White Killings in South, West Trigger Racial Skirmishes,"" New Pittsburgh Courier, October 30, 1971.",Hewitt Project,-9,-9,
32,197001260003,1970,1,26,,0,,217,United States,1,North America,New York,New York City,40.728224,-73.794852,"1/26/1970: Police officer Joseph Blik was on foot patrol in Queens, New York, United States when two people in a car stopped to ask him for directions.  The perpetrators in the car immediately fired two shots at Officer Blik and then drove away.  Officer Blik was not hit.",0,1,0,2,Armed Assault,3,Police,23.0,Police Patrol (including vehicles and convoys),New York Police Department,New York Police Officer on patrol in Forest Hills,217.0,Black Nationalists,5,Firearms,5.0,Unknown Gun Type,0.0,0.0,0,,,,"Committee on Government Operations United States Senate, ""Riots, Civil, and Criminal Disorders,"" U.S. Government Printing Office, August 6, 1970.","Martin Arnold, ""Harlem Area Sealed Off As Police Hunt Snipers,"" New York Times, January 27, 1970.",Hewitt Project,-9,-9,
33,197001270002,1970,1,27,,0,,217,United States,1,North America,Ohio,Norwalk,41.241996,-82.615241,"1/27/1970: Unknown perpetrators broke into the Selective Service Offices located at the Citizens Bank Building in Norwalk, Ohio, United States.  The perpetrators took out the draft records and set them on fire.  The attack caused an estimated $8,800 in damages.",0,1,0,7,Facility/Infrastructure Attack,2,Government (General),21.0,Government Building/Facility/Office,Selective Service,Selective Service office in Norwalk Ohio,217.0,Left-Wing Militants,8,Incendiary,18.0,Arson/Fire,0.0,0.0,1,3.0,Minor (likely < $1 million),8800.0,"Committee on Government Operations United States Senate, ""Riots, Civil, and Criminal Disorders,"" U.S. Government Printing Office, August 6, 1970.","""Clues To Arson Sought In Norwalk,"" Toledo Blade, January 28, 1970.",Hewitt Project,-9,-9,
34,197001280001,1970,1,28,,0,,499,East Germany (GDR),9,Eastern Europe,,East Berlin,52.516667000000005,13.4,,0,1,0,7,Facility/Infrastructure Attack,3,Police,25.0,Police Security Forces/Officers,,Residence of President of Penal Office,75.0,Unknown,8,Incendiary,19.0,Molotov Cocktail/Petrol Bomb,,,1,4.0,Unknown,,,,PGIS,-9,1,
35,197001280002,1970,1,28,,0,,217,United States,1,North America,Washington,Seattle,47.603559999999995,-122.329439,"1/28/1970: Unknown perpetrators detonated an explosive device at Temple De Hirsch in Seattle, Washington, United States.  There were no casualties but the building sustained $1,000 in damages.  During this time period, there were numerous bombings in the Seattle area.",0,1,0,3,Bombing/Explosion,15,Religious Figures/Institutions,86.0,Place of Worship,Jewish Synagogue,Temple De Hirsch,217.0,White extremists,6,Explosives/Bombs/Dynamite,16.0,Unknown Explosive Type,0.0,0.0,1,3.0,Minor (likely < $1 million),3000.0,"Committee on Government Operations United States Senate, ""Riots, Civil, and Criminal Disorders,"" U.S. Government Printing Office, August 6, 1970.","""Synagogue Blasted,"" Tri City Herald, January 25, 1970.",Hewitt Project,-9,-9,
36,197001300001,1970,1,30,,0,,217,United States,1,North America,Nebraska,South Sioux City,42.479999,-96.413046,"1/30/1970: In a series of two incidents that were possibly related, unknown perpetrators detonated an explosive device at a building in South Sioux City, Nebraska, United States.  There were no casualties but the blast damaged the foundation of the building.  This attack was one of many instances of violence in South Sioux City during the Iowa Beef Packers strike.",1,1,0,3,Bombing/Explosion,20,Unknown,,,Unknown building,,217.0,Strikers,6,Explosives/Bombs/Dynamite,28.0,Dynamite/TNT,0.0,0.0,1,3.0,Minor (likely < $1 million),,"Committee on Government Operations United States Senate, ""Riots, Civil, and Criminal Disorders,"" U.S. Government Printing Office, August 6, 1970.","""Beef Plant Workers in Nebraska Await Call to Work After Violent Strike Ends,"" New York Times, April 12, 1970.",Hewitt Project,-9,-9,"197001300001, 197001300002"
37,197001300002,1970,1,30,,0,,217,United States,1,North America,Nebraska,South Sioux City,42.46634,-96.41405,"1/30/1970: In a series of two incidents that were possibly related, unknown perpetrators detonated an explosive device at the A & B Boat Shop in South Sioux City, Nebraska, United States.  There were no casualties but the blast caused $2,500 in damages.  This attack was one of many instances of violence in South Sioux City during the Iowa Beef Packers strike.",1,1,0,3,Bombing/Explosion,1,Business,7.0,Retail/Grocery/Bakery,,A & B Boat Shop,217.0,Strikers,6,Explosives/Bombs/Dynamite,28.0,Dynamite/TNT,0.0,0.0,1,3.0,Minor (likely < $1 million),2500.0,"Committee on Government Operations United States Senate, ""Riots, Civil, and Criminal Disorders,"" U.S. Government Printing Office, August 6, 1970.","""Beef Plant Workers in Nebraska Await Call to Work After Violent Strike Ends,"" New York Times, April 12, 1970.",Hewitt Project,-9,-9,"197001300002, 197001300001"
38,197001300003,1970,1,30,,0,,217,United States,1,North America,Florida,Coral Gables,25.720851,-80.277857,"1/20/1970: Unknown perpetrators firebombed the premises of the Army R.O.T.C. at the University of Miami in Coral Gables, Florida, United States.  There were no casualties but an Army personal carrier was damaged.  Two firebombs did not explode.",0,1,0,7,Facility/Infrastructure Attack,4,Military,28.0,Military Recruiting Station/Academy,Army R.O.T.C.,"Army R.O.T.C., University of Miami",217.0,Student Radicals,8,Incendiary,19.0,Molotov Cocktail/Petrol Bomb,0.0,0.0,1,3.0,Minor (likely < $1 million),,"Committee on Government Operations United States Senate, ""Riots, Civil, and Criminal Disorders,"" U.S. Government Printing Office, August 6, 1970.","""Firebombs Exploded In Miami,"" Times-News, January 30, 1970.",Hewitt Project,-9,-9,
39,197001310001,1970,1,31,,0,,160,Philippines,5,Southeast Asia,Tarlac,Bamban,15.675051000000002,120.33161799999999,,0,0,0,9,Unknown,4,Military,34.0,"Military Personnel (soldiers, troops, officers, forces)",U.S. Navy,Seaman,217.0,New People's Army (NPA),13,Unknown,,,0.0,1.0,0,,,,,,PGIS,0,1,
40,197001310002,1970,1,31,,0,,217,United States,1,North America,Colorado,Denver,39.748783,-105.022136,"1/31/1970: Unknown perpetrators bombed the Police Band Building in Denver, Colorado, United States.  There were no casualties but a restroom was damaged.",0,1,0,3,Bombing/Explosion,3,Police,22.0,"Police Building (headquarters, station, school)",Denver Police Department,"Police Band Building, Denver Colorado",217.0,Unknown,6,Explosives/Bombs/Dynamite,28.0,Dynamite/TNT,0.0,0.0,1,3.0,Minor (likely < $1 million),,"Committee on Government Operations United States Senate, ""Riots, Civil, and Criminal Disorders,"" U.S. Government Printing Office, August 6, 1970.","Christopher Hewitt, ""Political Violence and Terrorism in Modern America: A Chronology,"" Praeger Security International, 2005.",Hewitt Project,-9,-9,
41,197002010001,1970,2,1,,0,,217,United States,1,North America,Oregon,Portland,45.511795,-122.675629,"2/1/1970: An unknown perpetrator broke into the Northeast Oregon building in Portland, Oregon, United States, which housed a Selective Service office and set fire to draft records.  About two hundred and fifty files were destroyed causing $4,189 in damage.",0,1,0,7,Facility/Infrastructure Attack,2,Government (General),21.0,Government Building/Facility/Office,Selective Service,Selective Service office Local Board No. 28 in Portland Oregon,217.0,Left-Wing Militants,8,Incendiary,20.0,Gasoline or Alcohol,0.0,0.0,1,3.0,Minor (likely < $1 million),4189.0,"Committee on Government Operations United States Senate, ""Riots, Civil, and Criminal Disorders,"" U.S. Government Printing Office, August 6, 1970.","""Arsonist 'Failed,'"" Eugene Register-Guard, February 4th, 1970.",Hewitt Project,-9,-9,
42,197002010002,1970,2,1,,0,,217,United States,1,North America,Illinois,Cairo,37.005105,-89.17626899999999,"2/1/1970: Unknown perpetrators fired shots at an Illinois State Police Car that was patrolling the all-Black Pyramid Courts housing development in Cairo, Illinois, United States.  Three bullets struck the police car of Officers Harold Nelson and John Abercrombie.  Neither officer was injured but the windshield of vehicle car was shattered.",0,1,0,2,Armed Assault,3,Police,22.0,"Police Building (headquarters, station, school)",Illinois State Police,Illinois State Police in the Pyramid Courts housing project,217.0,Black Nationalists,5,Firearms,4.0,Rifle/Shotgun (non-automatic),0.0,0.0,1,3.0,Minor (likely < $1 million),,"Committee on Government Operations United States Senate, ""Riots, Civil, and Criminal Disorders,"" U.S. Government Printing Office, August 6, 1970.","""Shooting Inquiry at Cairo,"" The Southeast Missourian, February 2, 1970.",Hewitt Project,-9,-9,
43,197002020001,1970,2,2,,0,,217,United States,1,North America,New York,New York City,40.78306,-73.971249,"2/2/1970: An incendiary device was discovered at Mays department store in Manhattan, New York, United States.  The device was dismantled before it inflicted any damage.  The next day, two incendiary devices were discovered at other department stores in New York City.",0,0,0,7,Facility/Infrastructure Attack,1,Business,7.0,Retail/Grocery/Bakery,Mays Department Store,Mays Department Store in Manhattan,217.0,Unknown,8,Incendiary,20.0,Gasoline or Alcohol,0.0,0.0,0,,,,"""Alexander's Stores Survive 2 Bombs With No Damage,"" New York Times, February 4, 1970.","""Fire Bomb is Found in Alexander Store,"" New York Times, February 5, 1970.",Hewitt Project,-9,-9,
44,197002030001,1970,2,3,,0,,217,United States,1,North America,New York,New York City,40.844782,-73.864827,"2/3/1970: In a series of related attacks, an incendiary device was discovered and dismantled at Alexander's Department Store in the Bronx, New York, United States.",1,0,0,7,Facility/Infrastructure Attack,1,Business,7.0,Retail/Grocery/Bakery,Alexander's Department Store,Alexander's Department Store in the Bronx,217.0,Unknown,8,Incendiary,20.0,Gasoline or Alcohol,0.0,0.0,0,,,,"""Alexander's Stores Survive 2 Bombs With No Damage,"" New York Times, February 4, 1970.","""Fire Bomb is Found in Alexander Store,"" New York Times, February 5, 1970.",Hewitt Project,-9,-9,"197002030001, 197002030002"
45,197002030002,1970,2,3,,0,,217,United States,1,North America,New York,New York City,40.78306,-73.971249,"2/3/1970: In a series of related attacks, an incendiary device was ignited at Alexander's Department Store in Manhattan, New York, United States.  The device was immediately doused with water and did not cause any damage.",1,0,0,7,Facility/Infrastructure Attack,1,Business,7.0,Retail/Grocery/Bakery,Alexander's Department Store,Alexander's Department Store in Manhattan,217.0,Unknown,8,Incendiary,20.0,Gasoline or Alcohol,0.0,0.0,0,,,,"Committee on Government Operations United States Senate, ""Riots, Civil, and Criminal Disorders,"" U.S. Government Printing Office, August 6, 1970.","""Alexander's Stores Survive 2 Bombs With No Damage,"" New York Times, February 4, 1970.",Hewitt Project,-9,-9,"197002030002, 197002030001"
46,197002040001,1970,2,4,,0,,217,United States,1,North America,Ohio,Akron,41.084195,-81.514059,"2/4/1970: In an attack suspected of being connected with the Iowa Beef Packer's Strike, a dynamite bomb exploded near a parked car in Akron, Ohio, United States.  There were no casualties and the car sustained only minor damages.",0,1,0,3,Bombing/Explosion,14,Private Citizens & Property,73.0,Vehicles/Transportation,Car,,217.0,Strikers,6,Explosives/Bombs/Dynamite,28.0,Dynamite/TNT,0.0,0.0,1,3.0,Minor (likely < $1 million),,"Committee on Government Operations United States Senate, ""Riots, Civil, and Criminal Disorders,"" U.S. Government Printing Office, August 6, 1970.",,Hewitt Project,-9,-9,
47,197002060001,1970,2,6,,0,,217,United States,1,North America,Colorado,Denver,39.74001,-104.992259,"2/6/1970: Unknown anti-desegregationists detonated at least twelve dynamite bombs damaging thirty-nine vehicles, most of them school buses, in Denver, Colorado, United States.  There were no casualties.",0,1,0,3,Bombing/Explosion,19,Transportation,99.0,Bus (excluding tourists),Transportation of Denver City Schools,Denver City School Buses,217.0,Black Nationalists,6,Explosives/Bombs/Dynamite,28.0,Dynamite/TNT,0.0,0.0,1,3.0,Minor (likely < $1 million),200000.0,"Anthony Ripley, ""Denver Blasts Destroy 24 School Buses,"" New York Times, February 7, 1970.","Marcia McKnight Trick, ""Chronology of Incidents of Terroristic, Quasi-Terroristic, and Political Violence in the United States: January 1965 to March 1976,"" National Advisory Committee on Criminal Justice Standards and Goals: Report of the Task Force on Disorders and Terrorism, 1976.",Hewitt Project,-9,-9,
48,197002060002,1970,2,6,,0,,217,United States,1,North America,Washington,Seattle,47.608758,-122.329439,"2/6/1970: Suspected White Racists detonated a bomb at the house of State Senator Fred Dore in Seattle, Washington, United States.  There were no casualties, but the house sustained major damages.  Dore was a White sympathizer of African American causes.",0,1,0,3,Bombing/Explosion,2,Government (General),15.0,Politician or Political Party Movement/Meeting/Rally,White politician who represented a Black constituency,Fred Dore,217.0,White extremists,6,Explosives/Bombs/Dynamite,28.0,Dynamite/TNT,0.0,0.0,1,3.0,Minor (likely < $1 million),1000.0,"Earl Caldwell, ""Fear Grows in Seattle as Police Urge F.B.I. Help on Bombings,"" New York Times, April 26, 1970.","Steven V. Roberts, ""Bombings on Rise Over the Nation,"" New York Times, March 13, 1970.",Hewitt Project,-9,-9,
49,197002060003,1970,2,6,,0,,217,United States,1,North America,Washington,Seattle,47.603559999999995,-122.329439,"2/6/1970: Unknown perpetrators detonated a bomb at a synagogue in Seattle, Washington, United States.  There were no casualties but the building as well as surrounding residences sustained minor damage.   During this time period, there were numerous bombings in the Seattle area.",0,1,0,3,Bombing/Explosion,15,Religious Figures/Institutions,86.0,Place of Worship,Jewish Synagogue,,217.0,White extremists,6,Explosives/Bombs/Dynamite,28.0,Dynamite/TNT,0.0,0.0,1,3.0,Minor (likely < $1 million),,"Committee on Government Operations United States Senate, ""Riots, Civil, and Criminal Disorders,"" U.S. Government Printing Office, August 6, 1970.",,Hewitt Project,-9,-9,
50,197002060004,1970,2,6,,0,,217,United States,1,North America,Puerto Rico,Dorado,18.460791,-66.264884,"2/6/1970: In a series of related events, the Armed Revolutionary Independence Movement (MIRA) claimed credit for igniting firebombs at a Selective Service office in Dorado, Puerto Rico.  There were no casualties and it is unknown if the firebombs caused any damage.",1,1,0,7,Facility/Infrastructure Attack,2,Government (General),21.0,Government Building/Facility/Office,Selective Service,Selective Service office in Dorado Puerto Rico,217.0,Armed Revolutionary Independence Movement (MIRA),8,Incendiary,19.0,Molotov Cocktail/Petrol Bomb,0.0,0.0,-9,4.0,Unknown,,"Committee on Government Operations United States Senate, ""Riots, Civil, and Criminal Disorders,"" U.S. Government Printing Office, August 6, 1970.","""Puerto Rican Group Describes Bombings,"" New York Times, February 13, 1970.",Hewitt Project,0,1,"197002060004, 197002060005, 197002060006"
51,197002060005,1970,2,6,,0,,217,United States,1,North America,Puerto Rico,Rio Piedras,18.399712,-66.049987,"2/6/1970: In a series of related events, the Armed Revolutionary Independence Movement (MIRA) claimed credit for igniting firebombs at a General Electric facility in Rio Piedras, Puerto Rico.  There were no casualties and it is unknown if the firebombs caused any damage.",1,1,0,7,Facility/Infrastructure Attack,21,Utilities,107.0,Electricity,General Electric,,217.0,Armed Revolutionary Independence Movement (MIRA),8,Incendiary,19.0,Molotov Cocktail/Petrol Bomb,0.0,0.0,-9,4.0,Unknown,,"Committee on Government Operations United States Senate, ""Riots, Civil, and Criminal Disorders,"" U.S. Government Printing Office, August 6, 1970.","""Puerto Rican Group Describes Bombings,"" New York Times, February 13, 1970.",Hewitt Project,0,1,"197002060005, 197002060004, 197002060006"
52,197002060006,1970,2,6,,0,,217,United States,1,North America,Puerto Rico,Carolina,18.441963,-66.02631600000001,"2/6/1970: In a series of related events, the Armed Revolutionary Independence Movement (MIRA) claimed credit for igniting firebombs at Hotel San Juan in Carolina, Puerto Rico.  There were no casualties and it is unknown if the firebombs caused any damage.",1,1,0,7,Facility/Infrastructure Attack,1,Business,8.0,Hotel/Resort,Hotel,San Juan Hotel,163.0,Armed Revolutionary Independence Movement (MIRA),8,Incendiary,19.0,Molotov Cocktail/Petrol Bomb,0.0,0.0,-9,4.0,Unknown,,"Committee on Government Operations United States Senate, ""Riots, Civil, and Criminal Disorders,"" U.S. Government Printing Office, August 6, 1970.","""Puerto Rican Group Describes Bombings,"" New York Times, February 13, 1970.",Hewitt Project,0,1,"197002060006, 197002060004, 197002060005"
53,197002060007,1970,2,6,"February 6-9, 1970",0,,217,United States,1,North America,Massachusetts,Boston,42.3505,-71.105399,"2/6/1970: Unknown perpetrators firebombed an R.O.T.C. office at Boston University in Boston, Massachusetts, United States.  There were no casualties but the resulting fire damaged the office.",0,1,0,7,Facility/Infrastructure Attack,4,Military,28.0,Military Recruiting Station/Academy,R.O.T.C.,"R.O.T.C. office, Boston University",217.0,Student Radicals,8,Incendiary,19.0,Molotov Cocktail/Petrol Bomb,0.0,0.0,1,3.0,Minor (likely < $1 million),,"Committee on Government Operations United States Senate, ""Riots, Civil, and Criminal Disorders,"" U.S. Government Printing Office, August 6, 1970.","Christopher Hewitt, ""Political Violence and Terrorism in Modern America: A Chronology,"" Praeger Security International, 2005.",Hewitt Project,-9,-9,
54,197002070003,1970,2,7,,0,,217,United States,1,North America,Wisconsin,Whitewater,42.838355,-88.743224,"2/7/1970: Unknown perpetrators set a fire in Old Mail Hall at Wisconsin State College in Whitewater, Wisconsin, United States.  There were no casualties but the building sustained an estimated $1,000,000 in damages.",0,1,0,7,Facility/Infrastructure Attack,8,Educational Institution,49.0,School/University/Educational Building,Wisconsin State College,"Old Mail Hall, Wisconsin State College",217.0,Student Radicals,8,Incendiary,18.0,Arson/Fire,0.0,0.0,1,2.0,Major (likely > $1 million but < $1 billion),1000000.0,"Committee on Government Operations United States Senate, ""Riots, Civil, and Criminal Disorders,"" U.S. Government Printing Office, August 6, 1970.","Christopher Hewitt, ""Political Violence and Terrorism in Modern America: A Chronology,"" Praeger Security International, 2005.",Hewitt Project,-9,-9,
55,197002080001,1970,2,8,,0,,217,United States,1,North America,New York,New York City,40.751212,-73.903649,"2/8/1970: In a series of related events, the Armed Revolutionary Independence Movement (MIRA) claimed credit for bombing the General Electric Service Center in Queens, New York, United States.  There were no casualties but the building sustains minor damages.",1,1,0,3,Bombing/Explosion,1,Business,4.0,Multinational Corporation,General Electric,Queens General Electric Service Center,217.0,Armed Revolutionary Independence Movement (MIRA),6,Explosives/Bombs/Dynamite,16.0,Unknown Explosive Type,0.0,0.0,1,3.0,Minor (likely < $1 million),,"""2 Bombs Explode at G.E. Buildings,"" New York Times, February 9, 1970.","""Puerto Rican Group Describes Bombings,"" New York Times, February 13, 1970.",Hewitt Project,0,1,"197002080001, 197002080002, 197002090003"
56,197002080002,1970,2,8,,0,,217,United States,1,North America,New York,New York City,40.678178,-73.944158,"2/8/1970: In a series of related events, the Armed Revolutionary Independence Movement (MIRA) claimed credit for bombing the General Electric Service Center in Brooklyn, New York, United States.  There are no casualties but the building sustains minor damages.",1,1,0,3,Bombing/Explosion,1,Business,4.0,Multinational Corporation,General Electric,Brooklyn General Electric Service Center,217.0,Armed Revolutionary Independence Movement (MIRA),6,Explosives/Bombs/Dynamite,17.0,Other Explosive Type,0.0,0.0,1,3.0,Minor (likely < $1 million),,"""2 Bombs Explode at G.E. Buildings,"" New York Times, February 9, 1970.","""Puerto Rican Group Describes Bombings,"" New York Times, February 13, 1970.",Hewitt Project,0,1,"197002080002, 197002080001, 197002090003"
57,197002090003,1970,2,9,,0,,217,United States,1,North America,New York,New York City,40.78306,-73.971249,"2/9/1970: In a series of related events, a member of the Armed Revolutionary Independence Movement (MIRA) was suspected of placing a bomb at the General Electric Headquarters in Manhattan, New York, United States.   The bomb was discovered and subsequently removed.",1,0,0,3,Bombing/Explosion,1,Business,4.0,Multinational Corporation,General Electric,General Electric Headquarters,217.0,Armed Revolutionary Independence Movement (MIRA),6,Explosives/Bombs/Dynamite,17.0,Other Explosive Type,0.0,0.0,0,,,,"""2 Bombs Explode at G.E. Buildings,"" New York Times, February 9, 1970.","""Puerto Rican Group Describes Bombings,"" New York Times, February 13, 1970.",Hewitt Project,0,1,"197002090003, 197002080001, 197002080002"
58,197002090004,1970,2,9,,0,,217,United States,1,North America,Ohio,Batavia,39.078590000000005,-84.17941400000001,"2/9/1970: Unknown perpetrators in Batavia, Ohio, United States, bombed two cars belonging to Leslie Jewel, an employee of General Electric that was not part of the union.  The automobiles were damaged, but there were no casualties.  There had been a recent labor strike at the nearby General Electric Evendale plant.",0,1,0,3,Bombing/Explosion,14,Private Citizens & Property,68.0,Named Civilian,Nonunion employee of General Electric in Batavia Ohio,Leslie Jewel,217.0,Strikers,6,Explosives/Bombs/Dynamite,28.0,Dynamite/TNT,0.0,0.0,1,3.0,Minor (likely < $1 million),,"""New York GE Offices Damaged by 2 Bombs,"" The Milwaukee Journal, February 9, 1970.","""GE Empolye's Cars Blown Up by Dynamite,"" Hartford Courant, February 10, 1970.",Hewitt Project,-9,-9,
59,197002100001,1970,2,10,,0,,362,West Germany (FRG),8,Western Europe,Bavaria,Munich,48.139126,11.580186,,0,1,0,2,Armed Assault,6,Airports & Aircraft,44.0,Airport,,El Al Passenger Bus & Airport Lounge,97.0,Popular Front for the Liberation of Palestine (PFLP),5,Firearms,2.0,Automatic Weapon,1.0,,1,3.0,Minor (likely < $1 million),60000.0,,,PGIS,0,1,
60,197002110001,1970,2,11,"February 11-14, 1970",0,,217,United States,1,North America,Michigan,Ypsilanti,42.263414000000004,-83.66528100000001,"2/11/1970: Unknown perpetrators threw a firebomb into a building at Washtenaw Community College in Ypsilanti, Michigan, United States.  There were no casualties, but the buildings sustained an estimated $2,500 in damages.",0,1,0,7,Facility/Infrastructure Attack,8,Educational Institution,49.0,School/University/Educational Building,Washtenaw Community College,,217.0,Student Radicals,8,Incendiary,19.0,Molotov Cocktail/Petrol Bomb,0.0,0.0,1,3.0,Minor (likely < $1 million),2500.0,"Committee on Government Operations United States Senate, ""Riots, Civil, and Criminal Disorders,"" U.S. Government Printing Office, August 6, 1970.","Christopher Hewitt, ""Political Violence and Terrorism in Modern America: A Chronology,"" Praeger Security International, 2005.",Hewitt Project,-9,-9,
61,197002130001,1970,2,13,,0,,217,United States,1,North America,California,Berkeley,37.869885,-122.27053899999999,,0,1,0,3,Bombing/Explosion,3,Police,22.0,"Police Building (headquarters, station, school)",Berkeley Police Department,Police parking lot,217.0,Unknown,6,Explosives/Bombs/Dynamite,16.0,Unknown Explosive Type,0.0,7.0,1,3.0,Minor (likely < $1 million),8000.0,,,PGIS,-9,-9,
62,197002130002,1970,2,13,,0,,362,West Germany (FRG),8,Western Europe,Bavaria,Munich,48.139126,11.580186,,0,1,0,7,Facility/Infrastructure Attack,14,Private Citizens & Property,76.0,House/Apartment/Residence,,Jewish Old People's Home,75.0,Popular Front for the Liberation of Palestine (PFLP),8,Incendiary,,,7.0,9.0,1,3.0,Minor (likely < $1 million),60000.0,,,PGIS,0,1,
63,197002130003,1970,2,13,,0,,217,United States,1,North America,California,Berkeley,37.869885,-122.27053899999999,"2/13/1970: Unknown perpetrators detonated two dynamite bombs in the parking lot of the Berkeley Police Station in California, United States, during a shift change.  Seven police officers were injured, three cars were destroyed, and windows were shattered at nearby buildings.",0,1,0,3,Bombing/Explosion,3,Police,22.0,"Police Building (headquarters, station, school)",Police Station,Berkeley Police Station,217.0,Black Nationalists,6,Explosives/Bombs/Dynamite,28.0,Dynamite/TNT,0.0,7.0,1,3.0,Minor (likely < $1 million),,"Committee on Government Operations United States Senate, ""Riots, Civil, and Criminal Disorders,"" U.S. Government Printing Office, August 6, 1970.","""Bombs Injure 2 Policemen in Berkeley,"" Washington Post, February 14, 1970.",Hewitt Project,-9,-9,
64,197002150001,1970,2,15,,0,,217,United States,1,North America,New York,New York City,40.78306,-73.971249,"7/15/1970: Unknown perpetrators bombed the Chase Manhattan Bank in Manhattan, New York, United States.  There were no casualties, however, the glass doors of the building and windows were shattered.",0,1,0,3,Bombing/Explosion,1,Business,3.0,Bank/Commerce,Chase Manhattan Bank,"Chase Manhattan Bank, East Village Branch",217.0,Left-Wing Militants,6,Explosives/Bombs/Dynamite,16.0,Unknown Explosive Type,0.0,0.0,1,3.0,Minor (likely < $1 million),,"""Door of Chase Bank Is Damaged By Bomb,"" New York Times, July 15, 1970.","""Bank Blasted,"" The Montreal Gazette, July 16, 1970.",Hewitt Project,-9,-9,
65,197002150002,1970,2,15,,0,,217,United States,1,North America,Oregon,Eugene,44.04483,-123.07260600000001,"2/15/1970: Unknown perpetrators set fire to a building housing an R.O.T.C. storage area at the University of Oregon in Eugene, Oregon, United States.  One fireman was injured fighting the blaze and the men's physical education building sustained an estimated $350,000 in damages.  The incident took place a week after the university voted to retain the R.O.T.C. program.",0,1,0,7,Facility/Infrastructure Attack,4,Military,28.0,Military Recruiting Station/Academy,R.O.T.C.,"R.O.T.C. storage area, University of Oregon",217.0,Student Radicals,8,Incendiary,18.0,Arson/Fire,0.0,1.0,1,3.0,Minor (likely < $1 million),350000.0,"Mike Stahlberg, ""Clues Sought for Cause of UO Fire,"" Eugene Register-Guard, February 17, 1970.","""Students Impede Firemen; R.O.T.C. Offices in Ruins,"" The Milwaukee Journal, February 17, 1970.",Hewitt Project,-9,-9,
66,197002160001,1970,2,16,,0,,217,United States,1,North America,California,San Francisco,37.777125,-122.41964399999999,,1,1,0,3,Bombing/Explosion,3,Police,22.0,"Police Building (headquarters, station, school)",San Francisco Police Department,police station,217.0,Unknown,6,Explosives/Bombs/Dynamite,16.0,Unknown Explosive Type,1.0,0.0,1,3.0,Minor (likely < $1 million),3000.0,,,PGIS,-9,-9,"197002160001, 197002160004"
67,197002160002,1970,2,16,,0,,217,United States,1,North America,California,Berkeley,37.869885,-122.27053899999999,,1,1,0,3,Bombing/Explosion,1,Business,7.0,Retail/Grocery/Bakery,,department store,217.0,Unknown,6,Explosives/Bombs/Dynamite,16.0,Unknown Explosive Type,0.0,0.0,0,3.0,Minor (likely < $1 million),0.0,,,PGIS,-9,-9,"197002160002, 197002160003"
68,197002160003,1970,2,16,,0,,217,United States,1,North America,California,Berkeley,37.869885,-122.27053899999999,,1,1,0,3,Bombing/Explosion,1,Business,7.0,Retail/Grocery/Bakery,,department store,217.0,Unknown,6,Explosives/Bombs/Dynamite,16.0,Unknown Explosive Type,0.0,0.0,0,3.0,Minor (likely < $1 million),0.0,,,PGIS,-9,-9,"197002160003, 197002160002"
69,197002160004,1970,2,16,,0,,217,United States,1,North America,California,San Francisco,37.775471,-122.40371699999999,"2/16/1970: Four hours after a San Francisco Police Station was bombed in California, United States, a sniper took aim at three police officers.  However, police fired at the sniper before he could get a shot off.  The sniper and a companion fled the scene before being apprehended.",1,0,0,2,Armed Assault,3,Police,25.0,Police Security Forces/Officers,San Francisco Police Department,San Francisco Police Officers,217.0,Left-Wing Militants,5,Firearms,4.0,Rifle/Shotgun (non-automatic),0.0,0.0,0,,,,"""San Francisco Bomb Injured 7 Policemen,"" Washington Post, February 18, 1970.",,Hewitt Project,-9,-9,"197002160004, 197002160001"
70,197002170001,1970,2,17,,0,,217,United States,1,North America,California,Oakland,37.805065,-122.27302399999999,"2/17/1970: A day after bombings in San Francisco and Berkeley, twenty-four sticks of dynamite were discovered at Walter Boysen Paint Company in Oakland, California, United States.  The bombs never detonated.",0,0,0,3,Bombing/Explosion,1,Business,12.0,Construction,,Walter Boysen Paint Company,217.0,Unknown,6,Explosives/Bombs/Dynamite,28.0,Dynamite/TNT,0.0,0.0,0,,,,"Committee on Government Operations United States Senate, ""Riots, Civil, and Criminal Disorders,"" U.S. Government Printing Office, August 6, 1970.","""San Francisco Bomb Injured 7 Policemen,"" Washington Post, February 18, 1970.",Hewitt Project,-9,-9,
71,197002170002,1970,2,17,,0,,217,United States,1,North America,Maryland,Buckeystown,39.334825,-77.431653,"2/17/1970: Unknown perpetrators bombed a power pole in Buckeystown, Maryland, United States.  There were no casualties, however, as a result of the bombing, five-hundred homes and two industrial facilities lost power.  Windows were also shattered in buildings a quarter of a mile a way.",0,1,0,3,Bombing/Explosion,21,Utilities,107.0,Electricity,Power Pole,Power supply of the Frederick Maryland area,217.0,Unknown,6,Explosives/Bombs/Dynamite,28.0,Dynamite/TNT,0.0,0.0,1,3.0,Minor (likely < $1 million),,"Committee on Government Operations United States Senate, ""Riots, Civil, and Criminal Disorders,"" U.S. Government Printing Office, August 6, 1970.",,Hewitt Project,-9,-9,
72,197002170003,1970,2,17,,0,,217,United States,1,North America,Louisiana,Covington,30.493919,-90.132512,"2/17/1970: Unknown perpetrators detonated a bomb at Covington High School in Louisiana, United States.  There were no casualties but the building sustained minor damages.  The bombing took place six months before the school was integrated.",0,1,0,3,Bombing/Explosion,8,Educational Institution,49.0,School/University/Educational Building,School planned to be integrated,Covington High School,217.0,White extremists,6,Explosives/Bombs/Dynamite,16.0,Unknown Explosive Type,0.0,0.0,1,3.0,Minor (likely < $1 million),,"Committee on Government Operations United States Senate, ""Riots, Civil, and Criminal Disorders,"" U.S. Government Printing Office, August 6, 1970.",,Hewitt Project,-9,-9,
73,197002170004,1970,2,17,"February 16-17, 1970",0,,217,United States,1,North America,Washington,Seattle,47.655335,-122.30351999999999,"2/17/1970: Unknown perpetrators placed a gasoline bomb underneath the Armory at the University of Washington in Seattle, United States.  The bomb did not explode and was later discovered and removed.",0,0,0,3,Bombing/Explosion,4,Military,27.0,Military Barracks/Base/Headquarters/Checkpost,Armory,"Armory, University of Washington",217.0,Student Radicals,6,Explosives/Bombs/Dynamite,16.0,Unknown Explosive Type,0.0,0.0,0,,,,"Committee on Government Operations United States Senate, ""Riots, Civil, and Criminal Disorders,"" U.S. Government Printing Office, August 6, 1970.",,Hewitt Project,-9,-9,
74,197002180002,1970,2,18,,0,,217,United States,1,North America,Ohio,Cleveland,41.504365,-81.69045899999999,"2/18/1970: Amidst a period racial strife at Cuyahoga Community College in Cleveland, Ohio, United States, unknown perpetrators detonated a bomb that damaged a car of a police officer working as a security guard.",0,1,0,3,Bombing/Explosion,3,Police,25.0,Police Security Forces/Officers,Cuyahoga Community College security guard,,217.0,Black Nationalists,6,Explosives/Bombs/Dynamite,17.0,Other Explosive Type,0.0,0.0,1,3.0,Minor (likely < $1 million),,"Committee on Government Operations United States Senate, ""Riots, Civil, and Criminal Disorders,"" U.S. Government Printing Office, August 6, 1970.","Robert W. Peterson, ""Crime & the American Response,"" Facts on File, 1973.",Hewitt Project,-9,-9,
75,197002180003,1970,2,18,,0,,217,United States,1,North America,California,Vallejo,38.10083,-122.254954,"2/18/1970: Booby trapped handgrenades were discovered wired to a car in the parking lot of the Vallejo Police Department in California, United States.  The device was deactivated.",0,1,0,3,Bombing/Explosion,3,Police,25.0,Police Security Forces/Officers,Mission Vallejo Police Officers,,217.0,Black Nationalists,6,Explosives/Bombs/Dynamite,15.0,Vehicle,0.0,0.0,0,,,,"Committee on Government Operations United States Senate, ""Riots, Civil, and Criminal Disorders,"" U.S. Government Printing Office, August 6, 1970.",,Hewitt Project,-9,-9,
76,197002200001,1970,2,20,,0,,217,United States,1,North America,Connecticut,Hartford,41.763325,-72.67406899999999,"2/20/1970: Unknown perpetrators threw a Molotov cocktail at a Federal Building that housed a United States Courthouse in Hartford, Connecticut, United States.  There were no casualties but the building sustained an estimated $450 in damages.",0,1,0,7,Facility/Infrastructure Attack,2,Government (General),14.0,Judge/Attorney/Court,U.S. Courthouse,United States District Court of Connecticut,217.0,Left-Wing Militants,8,Incendiary,19.0,Molotov Cocktail/Petrol Bomb,0.0,0.0,1,3.0,Minor (likely < $1 million),450.0,"Committee on Government Operations United States Senate, ""Riots, Civil, and Criminal Disorders,"" U.S. Government Printing Office, August 6, 1970.",,Hewitt Project,-9,-9,
77,197002200002,1970,2,20,,0,,217,United States,1,North America,New York,New York City,40.807026,-73.960349,"2/20/1970: Unknown perpetrators ignited a firebomb at the Columbia University International Law Library in Manhattan, New York, United States.  There were no casualties but the building sustained slight damages.",0,1,0,7,Facility/Infrastructure Attack,8,Educational Institution,49.0,School/University/Educational Building,Columbia University,Columbia University International Law Library,217.0,Student Radicals,8,Incendiary,19.0,Molotov Cocktail/Petrol Bomb,0.0,0.0,1,3.0,Minor (likely < $1 million),,"Committee on Government Operations United States Senate, ""Riots, Civil, and Criminal Disorders,"" U.S. Government Printing Office, August 6, 1970.","Emanuel Perlmutter, ""Justice Murtagh's Home Target of 3 Fire Bombs,"" New York Times, February 22, 1970.",Hewitt Project,-9,-9,
78,197002200003,1970,2,20,,0,,217,United States,1,North America,Washington,Seattle,47.655335,-122.30351999999999,"2/20/1970: Unknown perpetrators placed two dynamite bombs at the construction site of the School of Architecture at the University of Washington in Seattle, Washington, United States.  Only one of the two bombs exploded causing little damage.  There were no casualties.",0,1,0,3,Bombing/Explosion,8,Educational Institution,49.0,School/University/Educational Building,University of Washington,"Construction site of Architecture School, University of Washington",217.0,Student Radicals,6,Explosives/Bombs/Dynamite,28.0,Dynamite/TNT,0.0,0.0,1,3.0,Minor (likely < $1 million),,"Committee on Government Operations United States Senate, ""Riots, Civil, and Criminal Disorders,"" U.S. Government Printing Office, August 6, 1970.","Dave Dellinger, ""More Power Than We Know: The People's Movement Toward Democracy,"" Anchor Press/Doubleday, 1975.",Hewitt Project,-9,-9,
79,197002210001,1970,2,21,,0,,362,West Germany (FRG),8,Western Europe,Hesse,Frankfurt,50.111445,8.680615,,0,1,0,3,Bombing/Explosion,6,Airports & Aircraft,42.0,Aircraft (not at an airport),,Austrian Airliner en route to Tel Aviv,15.0,"Popular Front for the Liberation of Palestine, Gen Cmd (PFLP-GC)",6,Explosives/Bombs/Dynamite,10.0,Pressure Trigger,0.0,0.0,1,3.0,Minor (likely < $1 million),100000.0,,,PGIS,1,1,
80,197002210002,1970,2,21,,0,,199,Switzerland,8,Western Europe,Zurich,Zurich,47.36865,8.539182,,0,1,0,3,Bombing/Explosion,6,Airports & Aircraft,42.0,Aircraft (not at an airport),,Swiss Air DC-9,199.0,"Popular Front for the Liberation of Palestine, Gen Cmd (PFLP-GC)",6,Explosives/Bombs/Dynamite,16.0,Unknown Explosive Type,47.0,0.0,1,2.0,Major (likely > $1 million but < $1 billion),3000000.0,,,PGIS,1,1,
81,197002210003,1970,2,21,,0,,217,United States,1,North America,New York,New York City,40.733571999999995,-74.002742,"2/21/1970: Unknown perpetrators threw a firebomb at a police car in front of the Charles Street Police Station in Greenwich, New York, United States.  Another bomb was thrown to the pavement  seventy-five feet away.  The attacks caused no damages or casualties.",0,0,0,7,Facility/Infrastructure Attack,3,Police,22.0,"Police Building (headquarters, station, school)",Police Station,Charles Street Police Station,217.0,Left-Wing Militants,8,Incendiary,20.0,Gasoline or Alcohol,0.0,0.0,0,,,,"Emanuel Perlmutter, ""Justice Murtagh's Home Target of 3 Fire Bombs,"" New York Times, February 22, 1970.","""Bombs Are Exploded at Home of N.Y. Panther Trial Judge,"" New York Times, February 21, 1970.",Hewitt Project,-9,-9,
82,197002210004,1970,2,21,,0,,217,United States,1,North America,New York,New York City,40.678178,-73.944158,"2/21/1970: Two Military Recruiting Stations in the vicinity of Brooklyn College were firebombed by unknown perpetrators in New York, United States.  There were no casualties but the recruiting stations sustained minor damages before the fire was extinguished.",0,1,0,7,Facility/Infrastructure Attack,4,Military,28.0,Military Recruiting Station/Academy,Military Recruiting Stations,Army Recruiting Booth and Navy Recruiting Booth,217.0,Left-Wing Militants,8,Incendiary,20.0,Gasoline or Alcohol,0.0,0.0,1,3.0,Minor (likely < $1 million),,"Emanuel Perlmutter, ""Justice Murtagh's Home Target of 3 Fire Bombs,"" New York Times, February 22, 1970.","""Bombs Are Exploded at Home of N.Y. Panther Trial Judge,"" New York Times, February 21, 1970.",Hewitt Project,-9,-9,
83,197002210005,1970,2,21,,0,,217,United States,1,North America,New York,New York City,40.78306,-73.971249,"2/21/1970: The Weathermen claimed credit for bombing the residence of State Supreme Court Justice John Murtagh New York, United States.  The attack caused no casualties but the house sustained minor damages.  Judge Murtagh was presiding over a trial of thirteen Black Panther members at the time.    Anti-Vietnam war and pro-Black Panther graffiti was left at the scene of the attack.",0,1,0,3,Bombing/Explosion,14,Private Citizens & Property,68.0,Named Civilian,,Judge John Murtagh and family,217.0,"Weather Underground, Weathermen",6,Explosives/Bombs/Dynamite,14.0,Time Fuse,0.0,0.0,1,3.0,Minor (likely < $1 million),,"Committee on Government Operations United States Senate, ""Riots, Civil, and Criminal Disorders,"" U.S. Government Printing Office, August 6, 1970.","Emanuel Perlmutter, ""Justice Murtagh's Home Target of 3 Fire Bombs,"" New York Times, February 22, 1970.",Hewitt Project,0,0,
84,197002210006,1970,2,21,,0,,217,United States,1,North America,Colorado,Denver,39.74001,-104.992259,"2/21/1970: Unknown perpetrators threw a firebomb into the residence of James C. Perrill in Denver, Colorado, United States.  There were no casualties and it is unknown if the house was damaged.  The attack occurred during heightened racial tensions due to the integration of Denver City Schools and Perrill was  a conservative school board member.",0,1,0,7,Facility/Infrastructure Attack,14,Private Citizens & Property,68.0,Named Civilian,,James C. Perrill,217.0,Black Nationalists,8,Incendiary,19.0,Molotov Cocktail/Petrol Bomb,0.0,0.0,-9,4.0,Unknown,,"Committee on Government Operations United States Senate, ""Riots, Civil, and Criminal Disorders,"" U.S. Government Printing Office, August 6, 1970.","Anthony Ripley, ""Colorado Weighs Blast Controls,"" New York Times, March 9, 1970.",Hewitt Project,-9,-9,
85,197002220001,1970,2,22,,0,,217,United States,1,North America,New York,Ithaca,42.455233,-76.475847,"2/22/1970: Unknown perpetrators threw kerosene flare pots at the Wari House Dormitory which housed the Black Women's Cooperative at Cornell University in Ithaca, New York, United States.  The incendiary tossed at the dormitory failed to ignite, but an incendiary thrown through the window of a car parked in front of the dormitory burst into flames and caused minor damages to the vehicle.  There were no casualties.",0,1,0,7,Facility/Infrastructure Attack,8,Educational Institution,49.0,School/University/Educational Building,"Black Women's Collective, Cornell University",Dormitory housing Black Women's Collective,217.0,White extremists,8,Incendiary,20.0,Gasoline or Alcohol,0.0,0.0,1,3.0,Minor (likely < $1 million),,"""Flare Pot Hurled at Cornell House,"" New York Times, February 23, 1970.","Richard Phalon, ""Fire Destroys the Black Studies Center at Cornell,"" New York Times, April 2, 1970.",Hewitt Project,-9,-9,
86,197002220002,1970,2,22,,0,,217,United States,1,North America,Wisconsin,Prairie du Sac,43.287052,-89.724361,"2/22/1970: Karl Armstrong, a member of the New Years Gang, attempted to bomb the Wisconsin Power and Light substation in Prairie du Sac, Wisconsin, United States.  Carrying thirteen sticks of dynamite he broke into the substation, but fled the scene when a night security guard arrived unexpectedly.  The substation supplied power to the Badger Ammunition Plant.",0,0,0,3,Bombing/Explosion,21,Utilities,107.0,Electricity,Wisconsin Power and Light Company,"Wisconsin Power and Light Company substation, Prairie du Sac",217.0,New Year's Gang,6,Explosives/Bombs/Dynamite,28.0,Dynamite/TNT,0.0,0.0,0,,,,"Tom Bates, ""Rads: The 1970 Bombing of the Army Math Research Center at the University of Wisconsin and Its Aftermath,"" HarperCollinsPublishing, 1992.","David Newman, Sandra Sutherland, and Jon Stewart, ""The Madison Bomb Story: The Death the FBI Saw, Heard and Won't Talk About,"" Mother Jones, February-March, 1979.",Hewitt Project,0,0,
87,197002230001,1970,2,23,,0,,217,United States,1,North America,Nebraska,South Sioux City,42.47031,-96.413949,"2/23/1970: In a series of related attacks, unknown perpetrators bombed four separate power transmission poles in the Dakota City and Sioux City areas in Nebraska, United States.  There were no casualties and none of the dynamite blasts broke off any of the poles.   These attacks were one of many instances of violence in South Sioux City during the Iowa Beef Packers strike.",1,1,0,3,Bombing/Explosion,21,Utilities,107.0,Electricity,,Power Transmission Pole in the Dakota City/Sioux City area,217.0,Strikers,6,Explosives/Bombs/Dynamite,28.0,Dynamite/TNT,0.0,0.0,0,,,,"Committee on Government Operations United States Senate, ""Riots, Civil, and Criminal Disorders,"" U.S. Government Printing Office, August 6, 1970.",,Hewitt Project,-9,-9,"197002230001, 197002230002, 197002230003, 197002230004"
88,197002230002,1970,2,23,,0,,217,United States,1,North America,Nebraska,South Sioux City,42.47031,-96.413949,"2/23/1970: In a series of related attacks, unknown perpetrators bombed four separate power transmission poles in the Dakota City and Sioux City areas in Nebraska, United States.  There were no casualties and none of the dynamite blasts broke off any of the poles.   These attacks were one of many instances of violence in South Sioux City during the Iowa Beef Packers strike.",1,1,0,3,Bombing/Explosion,21,Utilities,107.0,Electricity,,Power Transmission Pole in the Dakota City/Sioux City area,217.0,Strikers,6,Explosives/Bombs/Dynamite,28.0,Dynamite/TNT,0.0,0.0,0,,,,"Committee on Government Operations United States Senate, ""Riots, Civil, and Criminal Disorders,"" U.S. Government Printing Office, August 6, 1970.",,Hewitt Project,-9,-9,"197002230002, 197002230001, 197002230003, 197002230004"
89,197002230003,1970,2,23,,0,,217,United States,1,North America,Nebraska,South Sioux City,42.47031,-96.413949,"2/23/1970: In a series of related attacks, unknown perpetrators bombed four separate power transmission poles in the Dakota City and Sioux City areas in Nebraska, United States.  There were no casualties and none of the dynamite blasts broke off any of the poles.   These attacks were one of many instances of violence in South Sioux City during the Iowa Beef Packers strike.",1,1,0,3,Bombing/Explosion,21,Utilities,107.0,Electricity,,Power Transmission Pole in the Dakota City/Sioux City area,217.0,Strikers,6,Explosives/Bombs/Dynamite,28.0,Dynamite/TNT,0.0,0.0,0,,,,"Committee on Government Operations United States Senate, ""Riots, Civil, and Criminal Disorders,"" U.S. Government Printing Office, August 6, 1970.",,Hewitt Project,-9,-9,"197002230003, 197002230001, 197002230002, 197002230004"
90,197002230004,1970,2,23,,0,,217,United States,1,North America,Nebraska,South Sioux City,42.47031,-96.413949,"2/23/1970: In a series of related attacks, unknown perpetrators bombed four separate power transmission poles in the Dakota City and Sioux City areas in Nebraska, United States.  There were no casualties and none of the dynamite blasts broke off any of the poles.   These attacks were one of many instances of violence in South Sioux City during the Iowa Beef Packers strike.",1,1,0,3,Bombing/Explosion,21,Utilities,107.0,Electricity,,Power Transmission Pole in the Dakota City/Sioux City area,217.0,Strikers,6,Explosives/Bombs/Dynamite,28.0,Dynamite/TNT,0.0,0.0,0,,,,"Committee on Government Operations United States Senate, ""Riots, Civil, and Criminal Disorders,"" U.S. Government Printing Office, August 6, 1970.",,Hewitt Project,-9,-9,"197002230004, 197002230001, 197002230002, 197002230003"
91,197002230005,1970,2,23,,0,,217,United States,1,North America,Arizona,Tucson,32.222232,-110.925752,"2/23/1970: Unknown perpetrators detonated a dynamite bomb in front of the Selective Service Headquarters in Tucson, Arizona, United States. There were no casualties, however, all of the windows of the building shattered.",0,1,0,3,Bombing/Explosion,4,Military,27.0,Military Barracks/Base/Headquarters/Checkpost,Selective Service,"Selective Service Headquarters, Tucson Arizona.",217.0,Left-Wing Militants,6,Explosives/Bombs/Dynamite,28.0,Dynamite/TNT,0.0,0.0,1,3.0,Minor (likely < $1 million),,"Committee on Government Operations United States Senate, ""Riots, Civil, and Criminal Disorders,"" U.S. Government Printing Office, August 6, 1970.","Steven V. Roberts, ""Bombings on Rise Over the Nation,"" New York Times, March 13, 1970.",Hewitt Project,-9,-9,
92,197002240002,1970,2,24,,0,,217,United States,1,North America,Colorado,Denver,39.74001,-104.992259,"2/24/1970: Unknown perpetrators detonated a pipe bomb in front of the house of Wilfred Keyes in Denver, Colorado, United States.  There were no casualties, however, the front porch was destroyed and many windows were shattered.  Keyes was the lead plaintiff in a court case calling for the desegregation of Denver City Schools.",0,1,0,3,Bombing/Explosion,14,Private Citizens & Property,68.0,Named Civilian,,Wilfred Keyes,217.0,White extremists,6,Explosives/Bombs/Dynamite,28.0,Dynamite/TNT,0.0,0.0,1,3.0,Minor (likely < $1 million),,"Committee on Government Operations United States Senate, ""Riots, Civil, and Criminal Disorders,"" U.S. Government Printing Office, August 6, 1970.","Anna Alejo, ""Alejo: Keys to Success,"" Rocky Mountain News, January 28, 2006.",Hewitt Project,-9,-9,
93,197002240003,1970,2,24,,0,,217,United States,1,North America,Illinois,Champaign,40.101952000000004,-88.227161,"2/24/1970: Unknown perpetrators threw a Molotov cocktail into the Armory at the University of Illinois, Champaign-Urbana, United States.  There were no casualties but the firebomb caused $2,000 in damages.  The offices of the R.O.T.C. were located in the Armory",0,1,0,7,Facility/Infrastructure Attack,4,Military,28.0,Military Recruiting Station/Academy,R.O.T.C.,"R.O.T.C., University of Illinois",217.0,Student Radicals,8,Incendiary,19.0,Molotov Cocktail/Petrol Bomb,0.0,0.0,1,3.0,Minor (likely < $1 million),2000.0,"Committee on Government Operations United States Senate, ""Riots, Civil, and Criminal Disorders,"" U.S. Government Printing Office, August 6, 1970.","Patrick D. Kennedy, ""Reactions Against the Vietnam War and Military-Related Targets on Campus: The University of Illinois as a Case Study, 1965-1972,"" Illinois Historical Journal, 1991.",Hewitt Project,-9,-9,
94,197002270001,1970,2,27,,0,,217,United States,1,North America,Colorado,Boulder,40.007581,-105.265942,"2/27/1970: Unknown perpetrators detonated a bomb in the Behavioral Sciences Building at the University of Colorado at Boulder in Colorado, United States.  There were no casualties but the building was damaged.",0,1,0,3,Bombing/Explosion,8,Educational Institution,49.0,School/University/Educational Building,University of Colorado,Institute of Behavioral Sciences,217.0,Student Radicals,6,Explosives/Bombs/Dynamite,16.0,Unknown Explosive Type,0.0,0.0,1,3.0,Minor (likely < $1 million),,"Committee on Government Operations United States Senate, ""Riots, Civil, and Criminal Disorders,"" U.S. Government Printing Office, August 6, 1970.","Marie Smith, ""Heavy Security Highlights Pat's Colorado Visit,"" Washington Post, March 5, 1970.",Hewitt Project,-9,-9,
95,197002280001,1970,2,28,,0,,102,Jordan,10,Middle East & North Africa,Khalil,Hebron,31.532521000000003,35.100248,,0,1,0,2,Armed Assault,18,Tourists,96.0,Tour Bus/Van,,Tourist Bus,102.0,Unknown,5,Firearms,2.0,Automatic Weapon,,,1,4.0,Unknown,,,,PGIS,-9,-9,
96,197003000001,1970,3,0,,0,,160,Philippines,5,Southeast Asia,Metropolitian Manila,Manila,14.596051000000001,120.97866599999999,,0,1,0,3,Bombing/Explosion,7,Government (Diplomatic),46.0,Embassy/Consulate,,U.S. Embassy,217.0,Unknown,6,Explosives/Bombs/Dynamite,16.0,Unknown Explosive Type,0.0,0.0,1,3.0,Minor (likely < $1 million),500.0,,,PGIS,-9,1,
97,197003010001,1970,3,1,,0,,98,Italy,8,Western Europe,Lazio,Rome,41.89052,12.494249,,0,0,0,3,Bombing/Explosion,6,Airports & Aircraft,42.0,Aircraft (not at an airport),,Ethopian Airliner,65.0,Eritrean Liberation Front,6,Explosives/Bombs/Dynamite,16.0,Unknown Explosive Type,0.0,0.0,1,,,,,,PGIS,1,1,
98,197003010005,1970,3,1,,0,,217,United States,1,North America,Colorado,Boulder,40.007581,-105.265942,"3/1/1970: Unknown perpetrators bombed the office of the Air Force R.O.T.C. at the University of Colorado in Boulder, Colorado, United States.  There were no casualties but the R.O.T.C. training facility sustained an estimated $2,000 in damages.",0,1,0,3,Bombing/Explosion,4,Military,28.0,Military Recruiting Station/Academy,R.O.T.C.,Air Force R.O.T.C. at University of Colorado,217.0,Student Radicals,6,Explosives/Bombs/Dynamite,17.0,Other Explosive Type,0.0,0.0,1,3.0,Minor (likely < $1 million),2000.0,"Committee on Government Operations United States Senate, ""Riots, Civil, and Criminal Disorders,"" U.S. Government Printing Office, August 6, 1970.","""Colorado R.O.T.C. Blast Attributed to Arsonists,"" Washington Post, March 3, 1970.",Hewitt Project,-9,-9,
99,197003010006,1970,3,1,,0,,217,United States,1,North America,Colorado,Colorado Springs,38.83345,-104.821814,"3/1/1970: Unknown perpetrators firebombed the headquarters of the Selective Service in Colorado Springs, Colorado, United States.  There were no casualties but the building sustained moderate damages.",0,1,0,7,Facility/Infrastructure Attack,4,Military,27.0,Military Barracks/Base/Headquarters/Checkpost,Selective Service,"Selective Service Headquarters, Colorado Springs",217.0,Left-Wing Militants,8,Incendiary,19.0,Molotov Cocktail/Petrol Bomb,0.0,0.0,1,3.0,Minor (likely < $1 million),,"Committee on Government Operations United States Senate, ""Riots, Civil, and Criminal Disorders,"" U.S. Government Printing Office, August 6, 1970.","""Colorado R.O.T.C. Blast Attributed to Arsonists,"" Washington Post, March 3, 1970.",Hewitt Project,-9,-9,
100,197003010007,1970,3,1,,0,,217,United States,1,North America,Colorado,Boulder,40.007581,-105.265942,"3/1/1970: In a series of two incidents that were possibly related, unknown perpetrators firebombed a University of Colorado campus police vehicle in Boulder, Colorado, United States.  There were no casualties but the car was damaged.",0,1,0,7,Facility/Infrastructure Attack,3,Police,23.0,Police Patrol (including vehicles and convoys),University of Colorado Police,Police Car,217.0,Student Radicals,8,Incendiary,19.0,Molotov Cocktail/Petrol Bomb,0.0,0.0,1,3.0,Minor (likely < $1 million),,"Committee on Government Operations United States Senate, ""Riots, Civil, and Criminal Disorders,"" U.S. Government Printing Office, August 6, 1970.","Anthony Ripley, ""Colorado Weighs Blast Controls,"" New York Times, March 9, 1970.",Hewitt Project,-9,-9,
101,197003010008,1970,3,1,,0,,217,United States,1,North America,Colorado,Boulder,40.014986,-105.270546,"3/2/1970: In a series of two incidents that were possibly related, unknown perpetrators bombed a city police car in Boulder, Colorado, United States.  There were no casualties but the car was damaged.",0,1,0,3,Bombing/Explosion,3,Police,23.0,Police Patrol (including vehicles and convoys),Boulder Police Department,Police Car,217.0,Left-Wing Militants,6,Explosives/Bombs/Dynamite,28.0,Dynamite/TNT,0.0,0.0,1,3.0,Minor (likely < $1 million),,"Committee on Government Operations United States Senate, ""Riots, Civil, and Criminal Disorders,"" U.S. Government Printing Office, August 6, 1970.","Anthony Ripley, ""Colorado Weighs Blast Controls,"" New York Times, March 9, 1970.",Hewitt Project,-9,-9,
102,197003020001,1970,3,2,,0,,217,United States,1,North America,Ohio,Cleveland,41.504365,-81.69045899999999,"3/2/1970: Unknown perpetrators threw a Molotov cocktail into the house of Frank Schaeffer, the president of the Cleveland Fraternal Order of Police, in Cleveland, Ohio, United States.  There were no casualties but the fire caused an estimated $200 in damages.  Schaeffer had recently defended the actions of Cleveland Police Officers during the 1968 racial disorders.",0,1,0,7,Facility/Infrastructure Attack,14,Private Citizens & Property,68.0,Named Civilian,,Frank Schaeffer,217.0,Black Nationalists,8,Incendiary,19.0,Molotov Cocktail/Petrol Bomb,0.0,0.0,1,3.0,Minor (likely < $1 million),200.0,"""Home of Police Officer Bombed,"" Toledo Blade, March 2, 1970.","Christopher Hewitt, ""Political Violence and Terrorism in Modern America: A Chronology,"" Praeger Security International, 2005.",Hewitt Project,-9,-9,
103,197003030001,1970,3,3,,0,,185,Spain,8,Western Europe,Unknown,Unknown,,,,0,0,0,6,Hostage Taking (Kidnapping),2,Government (General),15.0,Politician or Political Party Movement/Meeting/Rally,Spanish Govt.,"Garrigues, permanent spanish delegaet to Unesco",185.0,1st of May Group,13,Unknown,,,0.0,0.0,0,,,,,,PGIS,0,1,
104,197003030002,1970,3,3,,0,,217,United States,1,North America,Colorado,Denver,39.751039,-104.93049599999999,"3/3/1970: Unknown perpetrators bombed a foreign-made car painted red in Denver, Colorado, United States.  There were no casualties but the car was damaged.",0,1,0,3,Bombing/Explosion,14,Private Citizens & Property,73.0,Vehicles/Transportation,Foreign Vehicles,Foreign cars painted red,,Left-Wing Militants,6,Explosives/Bombs/Dynamite,28.0,Dynamite/TNT,0.0,0.0,1,3.0,Minor (likely < $1 million),,"Committee on Government Operations United States Senate, ""Riots, Civil, and Criminal Disorders,"" U.S. Government Printing Office, August 6, 1970.","Anthony Ripley, ""Colorado Weighs Blast Controls,"" New York Times, March 9, 1970.",Hewitt Project,-9,-9,
105,197003030003,1970,3,3,,0,,217,United States,1,North America,Washington,Seattle,47.655335,-122.30351999999999,"3/3/1970: Four left wing radicals set off a dynamite bomb at a post office in Seattle, Washington, United States.  There were no casualties but the building and a vehicle were damaged.",0,1,0,3,Bombing/Explosion,2,Government (General),21.0,Government Building/Facility/Office,Post Office,Post Office in Seattle's University District,217.0,Student Radicals,6,Explosives/Bombs/Dynamite,28.0,Dynamite/TNT,0.0,0.0,1,3.0,Minor (likely < $1 million),,"Committee on Government Operations United States Senate, ""Riots, Civil, and Criminal Disorders,"" U.S. Government Printing Office, August 6, 1970.","Earl Caldwell, ""Fear Grows In Seattle As Police Urge F.B.I. Help On Bombings,"" New York Times, April 26, 1970.",Hewitt Project,-9,-9,
106,197003040001,1970,3,4,,0,,217,United States,1,North America,California,Oakland,37.805065,-122.27302399999999,"3/4/1970: Unknown perpetrators placed a time bomb in a Barracks at the Oakland Army Base in California, United States.  The bomb was subsequently discovered and disarmed. The base was used as a departing point for United States troops heading to Vietnam.",0,0,0,3,Bombing/Explosion,4,Military,27.0,Military Barracks/Base/Headquarters/Checkpost,US Military,Oakland Army Base,217.0,Left-Wing Militants,6,Explosives/Bombs/Dynamite,14.0,Time Fuse,0.0,0.0,0,,,,"Committee on Government Operations United States Senate, ""Riots, Civil, and Criminal Disorders,"" U.S. Government Printing Office, August 6, 1970.","""Army Disarms Time Bomb at Base in Oakland,"" Washington Post, March 5, 1970.",Hewitt Project,-9,-9,
107,197003040002,1970,3,4,,0,,217,United States,1,North America,California,Martinez,38.019304,-122.13406200000001,"3/4/1970: Unknown perpetrators placed a bomb on a railroad car in Martinez, California, United States.  The bomb was subsequently discovered and disarmed.  The railroad car was used to transport acid.",0,0,0,3,Bombing/Explosion,19,Transportation,100.0,Train/Train Tracks/Trolley,Railroad car,,217.0,Unknown,6,Explosives/Bombs/Dynamite,28.0,Dynamite/TNT,0.0,0.0,0,,,,"Committee on Government Operations United States Senate, ""Riots, Civil, and Criminal Disorders,"" U.S. Government Printing Office, August 6, 1970.",,Hewitt Project,-9,-9,
108,197003040003,1970,3,4,,0,,217,United States,1,North America,Colorado,Denver,39.735233,-104.98608200000001,"3/4/1970: Unknown perpetrators bombed a foreign-made car painted red in Denver, Colorado, United States.  There were no casualties but the car was damaged.",0,1,0,3,Bombing/Explosion,14,Private Citizens & Property,73.0,Vehicles/Transportation,Foreign Vehicles,Foreign cars painted red,,Left-Wing Militants,6,Explosives/Bombs/Dynamite,28.0,Dynamite/TNT,0.0,0.0,1,3.0,Minor (likely < $1 million),,"Committee on Government Operations United States Senate, ""Riots, Civil, and Criminal Disorders,"" U.S. Government Printing Office, August 6, 1970.","Anthony Ripley, ""Colorado Weighs Blast Controls,"" New York Times, March 9, 1970.",Hewitt Project,-9,-9,
109,197003050001,1970,3,5,,0,,217,United States,1,North America,Washington,Seattle,47.603559999999995,-122.329439,"3/5/1970: Unknown perpetrators detonated a bomb at the University District Post Office in Seattle, Washington, United States.  There were no casualties, however, the side of the building was damaged.",0,1,0,3,Bombing/Explosion,2,Government (General),21.0,Government Building/Facility/Office,Post Office,University District Post Office,217.0,Left-Wing Militants,6,Explosives/Bombs/Dynamite,28.0,Dynamite/TNT,0.0,0.0,1,3.0,Minor (likely < $1 million),,"Committee on Government Operations United States Senate, ""Riots, Civil, and Criminal Disorders,"" U.S. Government Printing Office, August 6, 1970.",,Hewitt Project,-9,-9,
110,197003050002,1970,3,5,,0,,217,United States,1,North America,Colorado,Denver,39.73686,-104.981109,"3/5/1970: Unknown perpetrators bombed a foreign-made car painted red in Denver, Colorado, United States.  There were no casualties but the car was heavily damaged.",0,1,0,3,Bombing/Explosion,14,Private Citizens & Property,73.0,Vehicles/Transportation,Foreign Vehicles,Foreign cars painted red,,Left-Wing Militants,6,Explosives/Bombs/Dynamite,28.0,Dynamite/TNT,0.0,0.0,1,3.0,Minor (likely < $1 million),,"Committee on Government Operations United States Senate, ""Riots, Civil, and Criminal Disorders,"" U.S. Government Printing Office, August 6, 1970.","Anthony Ripley, ""Colorado Weighs Blast Controls,"" New York Times, March 9, 1970.",Hewitt Project,-9,-9,
111,197003050003,1970,3,5,,0,,217,United States,1,North America,Puerto Rico,San Juan,18.46617,-66.106654,"3/5/1970: Unknown Puerto Rican Nationalists assassinated two United States Navy personal stationed in San Juan, Puerto Rico.  The incident was in response to the death of Antonia Martinez Lagaras, who was shot and killed during a confrontation between students and police in front of the R.O.T.C. building at the University of Puerto Rico, Rio Piedras a day earlier.",0,1,0,1,Assassination,4,Military,34.0,"Military Personnel (soldiers, troops, officers, forces)",US Navy,Two members of the United States Navy,217.0,Armed Commandos of Liberation,5,Firearms,5.0,Unknown Gun Type,2.0,0.0,0,,,,"Committee on the Judiciary  United States Senate, ""Terroristic Activity: The Cuban Connection in Puerto Rico; Castro's Hand in Puerto Rican and U.S. Terrorism,"" U.S. Government Printing Office, August 6, 1970.","William Sater, ""Puerto Rican Terrorists: A Possible Threat to U.S. Energy Installations?,"" RAND, October 1981.",Hewitt Project,0,1,
112,197003060001,1970,3,6,,1,3/8/1970,83,Guatemala,2,Central America & Caribbean,,Guatemala City,14.624422000000001,-90.53288,,0,1,0,6,Hostage Taking (Kidnapping),7,Government (Diplomatic),45.0,"Diplomatic Personnel (outside of embassy, consulate)",State Dept,"Sean Holley, U.S. labor attache, U.S. embassy",217.0,Rebel Armed Forces of Guatemala (FAR),5,Firearms,2.0,Automatic Weapon,0.0,0.0,0,,,,,,PGIS,0,1,
113,197003060003,1970,3,6,,0,,217,United States,1,North America,Michigan,Detroit,42.331685,-83.047924,"3/6/1970: In a series of related unsuccessful attacks, suspected members of the Weathermen placed thirty-four sticks of dynamite at the Detroit Police Department building in Michigan, United States.  The bombs were subsequently discovered and  disarmed.",1,0,0,3,Bombing/Explosion,3,Police,22.0,"Police Building (headquarters, station, school)",Detroit Police Department,Detroit Police Department Building,217.0,"Weather Underground, Weathermen",6,Explosives/Bombs/Dynamite,28.0,Dynamite/TNT,0.0,0.0,0,,,,"Committee on Government Operations United States Senate, ""Riots, Civil, and Criminal Disorders,"" U.S. Government Printing Office, August 6, 1970.","W. Mark Felt, ""The FBBI Pyramid From the Inside,"" G. P. Putnam's Sons, 1979.",Hewitt Project,0,0,"197003060003, 197003060004"
114,197003060004,1970,3,6,,0,,217,United States,1,North America,Michigan,Detroit,42.331685,-83.047924,"3/6/1970: In a series of related unsuccessful attacks, suspected members of the Weathermen tossed a package containing dynamite through a window of the Detroit Police Officers Association in Michigan, United States.  The dynamite was  discovered and subsequently disarmed.",1,0,0,3,Bombing/Explosion,3,Police,25.0,Police Security Forces/Officers,Detroit Police Department,Detroit Police Officers Association,217.0,"Weather Underground, Weathermen",6,Explosives/Bombs/Dynamite,28.0,Dynamite/TNT,0.0,0.0,0,,,,"Committee on Government Operations United States Senate, ""Riots, Civil, and Criminal Disorders,"" U.S. Government Printing Office, August 6, 1970.","John Castellucci, ""The Big Dance,"" Dodd, Mead & Company, 1986.",Hewitt Project,0,0,"197003060004, 197003060003"
115,197003090001,1970,3,9,,0,,217,United States,1,North America,California,Berkeley,37.869885,-122.27053899999999,,0,1,0,7,Facility/Infrastructure Attack,8,Educational Institution,49.0,School/University/Educational Building,"University of California, Berkeley",Library,217.0,Unknown,8,Incendiary,,,0.0,0.0,1,3.0,Minor (likely < $1 million),320000.0,,,PGIS,-9,-9,
116,197003090003,1970,3,9,,0,,217,United States,1,North America,Alabama,Ashville,33.83651,-86.254749,,0,1,0,7,Facility/Infrastructure Attack,14,Private Citizens & Property,69.0,Religion Identified,,Black Muslims,217.0,Ku Klux Klan,2,Chemical,1.0,Poisoning,0.0,0.0,1,,,,,,CBRN Global Chronology,0,0,
117,197003090004,1970,3,9,,0,,217,United States,1,North America,Connecticut,Bridgeport,41.18188,-73.19126899999999,"3/9/1970: Unknown perpetrators firebombed Shiloh Baptist Church, a predominantly African American Church, in Bridgeport, Connecticut, United States.  There were no casualties but the building sustained minor damages.",0,1,0,7,Facility/Infrastructure Attack,15,Religious Figures/Institutions,86.0,Place of Worship,African American Church,Shiloh Baptist Church,217.0,White extremists,8,Incendiary,19.0,Molotov Cocktail/Petrol Bomb,0.0,0.0,1,3.0,Minor (likely < $1 million),,"Committee on Government Operations United States Senate, ""Riots, Civil, and Criminal Disorders,"" U.S. Government Printing Office, August 6, 1970.",,Hewitt Project,-9,-9,
118,197003090005,1970,3,9,,0,,217,United States,1,North America,New Mexico,Albuquerque,35.084319,-106.619781,"3/9/1970: Unknown perpetrators placed an incendiary bomb underneath the Air Force R.O.T.C. building at the University of New Mexico in Albuquerque, New Mexico, United States.  The bomb was discovered and disarmed fifteen minutes before it was set to explode.",0,0,0,3,Bombing/Explosion,4,Military,28.0,Military Recruiting Station/Academy,R.O.T.C.,Air Force R.O.T.C. at University of New Mexico,217.0,White extremists,6,Explosives/Bombs/Dynamite,14.0,Time Fuse,0.0,0.0,0,,,,"Committee on Government Operations United States Senate, ""Riots, Civil, and Criminal Disorders,"" U.S. Government Printing Office, August 6, 1970.","""S.F. State Protest Ends, Off-Campus Rampage Blocked,"" Washington Post, March 11, 1970.",Hewitt Project,-9,-9,
119,197003090006,1970,3,9,,0,,217,United States,1,North America,Maryland,Bel Air,39.538940000000004,-76.348479,"3/9/1970: A bomb exploded in the car of Ralph Featherstone and William Payne, members of the Student non-violent Coordinating Committee and supporters of H. Rap Brown, while they were driving in Bel Air, Maryland, United States.  Both men died as a result of the blast.  Police suspected that the bomb exploded prematurely and was intended for H. Rap Brown's trial scheduled to be held  at the Harford County Courthouse   Many members of the radical Black community believed that the bomb was set off by White Racists or the police.  The next day, a bomb was detonated at Dorchester County Courthouse, the original location of Brown's trial, by an unknown perpetrator.",0,0,0,3,Bombing/Explosion,20,Unknown,,,,,217.0,Black Nationalists,6,Explosives/Bombs/Dynamite,16.0,Unknown Explosive Type,2.0,0.0,1,3.0,Minor (likely < $1 million),,"Committee on Government Operations United States Senate, ""Riots, Civil, and Criminal Disorders,"" U.S. Government Printing Office, August 6, 1970.","Homer Bigart, ""Maryland Hunts Woman In Blast,"" New York Times, March 12, 1970.",Hewitt Project,-9,-9,
120,197003100001,1970,3,10,,0,,362,West Germany (FRG),8,Western Europe,Bavaria,Munich,48.139126,11.580186,,0,0,0,3,Bombing/Explosion,2,Government (General),14.0,Judge/Attorney/Court,,Court Building (Amstgericht),75.0,Unknown,6,Explosives/Bombs/Dynamite,14.0,Time Fuse,0.0,0.0,0,,,,,,PGIS,-9,1,
121,197003100002,1970,3,10,,0,,217,United States,1,North America,Maryland,Cambridge,38.563122,-76.078063,"3/10/1970: An unidentified White middle-aged female was suspected of bombing the Dorchester County Courthouse in Cambridge, Maryland, United States where the trial for radical Black leader H. Rap Brown was originally scheduled to be held.  There were no casualties but the building sustained extensive damages.",0,1,0,3,Bombing/Explosion,2,Government (General),14.0,Judge/Attorney/Court,,Dorchester County Courthouse,217.0,Left-Wing Militants,6,Explosives/Bombs/Dynamite,14.0,Time Fuse,0.0,0.0,1,3.0,Minor (likely < $1 million),,"Committee on Government Operations United States Senate, ""Riots, Civil, and Criminal Disorders,"" U.S. Government Printing Office, August 6, 1970.","Homer Bigart, ""Maryland Hunts Woman In Blast,"" New York Times, March 12, 1970.",Hewitt Project,-9,-9,
122,197003100003,1970,3,10,,0,,217,United States,1,North America,California,San Francisco,37.721897,-122.478209,"3/10/1970: Unknown perpetrators threw a Molotov cocktail into the office of Dr. Samuel Ichiye Hayakawa, the president of San Francisco State College, in San Francisco, California, United States.  The bomb failed to ignite.  The next day their were violent protests on campus against military recruiters on the SFSC campus.  Previously, S. I. Hayakawa took a hard line against student demonstrators.",0,0,0,7,Facility/Infrastructure Attack,1,Business,,,,Office of S. I. Hayakawa,217.0,Student Radicals,8,Incendiary,19.0,Molotov Cocktail/Petrol Bomb,0.0,0.0,0,,,,"Committee on Government Operations United States Senate, ""Riots, Civil, and Criminal Disorders,"" U.S. Government Printing Office, August 6, 1970.","""S. F. State Protest Ends, Off-Campus Rampage Blocked,"" Washington Post, March 11, 1970.",Hewitt Project,-9,-9,
123,197003110001,1970,3,11,,1,3/15/1970,30,Brazil,3,South America,Sao Paulo,Sao Paulo,-23.550711,-46.633475,,0,1,0,6,Hostage Taking (Kidnapping),7,Government (Diplomatic),45.0,"Diplomatic Personnel (outside of embassy, consulate)",Japanese govt,"Nobico Okushi, Japanese consul general, Sao PAulo",101.0,Popular Revolutionary Vanguard (VPR),13,Unknown,,,0.0,0.0,0,,,,,,PGIS,0,1,
124,197003110002,1970,3,11,,0,,217,United States,1,North America,Illinois,Champaign,40.102408000000004,-88.227159,"3/11/1970: Unknown perpetrators firebombed the Army and Air Force Recruiting Station at the University of Illinois, Champaign-Urbana, United States.  There were no casualties but the Recruiting Station was destroyed.",0,1,0,7,Facility/Infrastructure Attack,4,Military,28.0,Military Recruiting Station/Academy,Army and Air Force Recruiting Station,"Army and Air Force Recruiting Station, University of Illinois",217.0,Student Radicals,8,Incendiary,19.0,Molotov Cocktail/Petrol Bomb,0.0,0.0,1,3.0,Minor (likely < $1 million),,"Committee on Government Operations United States Senate, ""Riots, Civil, and Criminal Disorders,"" U.S. Government Printing Office, August 6, 1970.","Patrick D. Kennedy, ""Reactions Against the Vietnam War and Military-Related Targets on Campus: The University of Illinois as a Case Study, 1965-1972,"" Illinois Historical Journal, 1991.",Hewitt Project,-9,-9,
125,197003120001,1970,3,12,,0,,217,United States,1,North America,New York,New York City,40.712784,-74.007124,,1,1,0,3,Bombing/Explosion,1,Business,7.0,Retail/Grocery/Bakery,,general telephone and electronics,217.0,Revolutionary Force 9,6,Explosives/Bombs/Dynamite,16.0,Unknown Explosive Type,0.0,0.0,1,3.0,Minor (likely < $1 million),25000.0,,,PGIS,0,0,"197003120001, 197003120002, 197003120005"
126,197003120002,1970,3,12,,0,,217,United States,1,North America,New York,New York City,40.712784,-74.005941,,1,1,0,3,Bombing/Explosion,1,Business,4.0,Multinational Corporation,,IBM,217.0,Revolutionary Force 9,6,Explosives/Bombs/Dynamite,16.0,Unknown Explosive Type,0.0,0.0,1,3.0,Minor (likely < $1 million),25000.0,,,PGIS,0,0,"197003120002, 197003120001, 197003120005"
127,197003120003,1970,3,12,,0,,217,United States,1,North America,Illinois,Chicago,41.88415,-87.632409,"3/12/1970:  In a series of two incidents that were possibly related, a bomb exploded underneath an empty police car parked in front of detective headquarters in Chicago, Illinois, United States.  There were no casualties but the car sustained minor damages.",1,1,0,3,Bombing/Explosion,3,Police,23.0,Police Patrol (including vehicles and convoys),Chicago Police,Chicago Police Car,217.0,Black Nationalists,6,Explosives/Bombs/Dynamite,16.0,Unknown Explosive Type,0.0,0.0,1,3.0,Minor (likely < $1 million),,"Committee on Government Operations United States Senate, ""Riots, Civil, and Criminal Disorders,"" U.S. Government Printing Office, August 6, 1970.","""Bombs and Threats Jolt Cities,"" Washington Post, March 14, 1970.",Hewitt Project,-9,-9,"197003120003, 197003120004"
128,197003120004,1970,3,12,,0,,217,United States,1,North America,Illinois,Chicago,41.88415,-87.632409,"3/12/1970:  In a series of two incidents that were possibly related, a cherry bomb was thrown at an empty police car in Chicago, Illinois, United States, after two officers left the vehicle responding to a call for help.  There were no casualties but the car was damaged.",1,1,0,3,Bombing/Explosion,3,Police,23.0,Police Patrol (including vehicles and convoys),Chicago Police,Chicago Police Car,217.0,Black Nationalists,6,Explosives/Bombs/Dynamite,11.0,"Projectile (rockets, mortars, RPGs, etc.)",0.0,0.0,1,3.0,Minor (likely < $1 million),,"Committee on Government Operations United States Senate, ""Riots, Civil, and Criminal Disorders,"" U.S. Government Printing Office, August 6, 1970.","""Bombs and Threats Jolt Cities,"" Washington Post, March 14, 1970.",Hewitt Project,-9,-9,"197003120004, 197003120003"
129,197003120005,1970,3,12,,0,,217,United States,1,North America,New York,New York City,40.78306,-73.971249,"3/12/1970: In a series of related attacks, the Revolutionary Force 9 claimed credit for the bombing of the Mobil Oil Company Building in Manhattan, New York, United States.  There were no casualties but the building sustained heavy structural damage.  The Revolutionary Force 9 claimed that the Mobil Oil Company was an ""enem(y) of human life"" because it profited off of the Vietnam War.",1,1,0,3,Bombing/Explosion,1,Business,1.0,Gas/Oil,Mobile Oil Company,Mobil Oil Company Building,217.0,Revolutionary Force 9,6,Explosives/Bombs/Dynamite,16.0,Unknown Explosive Type,0.0,0.0,1,2.0,Major (likely > $1 million but < $1 billion),,"Committee on Government Operations United States Senate, ""Riots, Civil, and Criminal Disorders,"" U.S. Government Printing Office, August 6, 1970.","Homar Bigart, ""Many Buildings Evacuated Here In Bomb Scares,"" New York Times, March 13, 1970.",Hewitt Project,0,0,"197003120005, 197003120001, 197003120002"
130,197003130001,1970,3,13,,0,,217,United States,1,North America,Wisconsin,Appleton,44.260288,-88.39745500000001,"3/13/1970: In a series of two incidents that were possibly related, unknown perpetrators set off a firebomb at the R.O.T.C. Building at Lawrence University in Appleton, Wisconsin, United States.  There were no casualties but the building sustained damage to its walls",1,1,0,7,Facility/Infrastructure Attack,4,Military,28.0,Military Recruiting Station/Academy,R.O.T.C.,R.O.T.C. at Lawrence University,217.0,Student Radicals,8,Incendiary,20.0,Gasoline or Alcohol,0.0,0.0,1,3.0,Minor (likely < $1 million),,"Committee on Government Operations United States Senate, ""Riots, Civil, and Criminal Disorders,"" U.S. Government Printing Office, August 6, 1970.","""Blasts and Threats Occur Across the U.S."" New York Times, March 14, 1970.",Hewitt Project,-9,-9,"197003130001, 197003130002"
131,197003130002,1970,3,13,,0,,217,United States,1,North America,Wisconsin,Appleton,44.268598,-88.42844000000001,"3/13/1970: In a series of two incidents that were possibly related, unknown perpetrators threw two incendiary devices into Appleton West High School in Wisconsin, United States.  The firebombs caused a fire but there were no casualties.",1,1,0,7,Facility/Infrastructure Attack,8,Educational Institution,49.0,School/University/Educational Building,,Appleton West High School,217.0,Student Radicals,8,Incendiary,20.0,Gasoline or Alcohol,0.0,0.0,1,3.0,Minor (likely < $1 million),,"Committee on Government Operations United States Senate, ""Riots, Civil, and Criminal Disorders,"" U.S. Government Printing Office, August 6, 1970.","""Blasts and Threats Occur Across the U.S."" New York Times, March 14, 1970.",Hewitt Project,-9,-9,"197003130002, 197003130001"
132,197003140001,1970,3,14,,1,3/31/1970,65,Ethiopia,11,Sub-Saharan Africa,Unknown,Unknown,,,,0,1,0,6,Hostage Taking (Kidnapping),10,Journalists & Media,53.0,Newspaper Journalist/Staff/Facility,National geographic society,Film crew,422.0,Eritrean Liberation Front,13,Unknown,,,0.0,0.0,0,,,,,,PGIS,0,1,
133,197003140002,1970,3,14,,0,,60,Egypt,10,Middle East & North Africa,,Alexandria,31.198055600000004,29.9191667,,0,1,0,3,Bombing/Explosion,6,Airports & Aircraft,42.0,Aircraft (not at an airport),,United Arab Airlines Flight Antonov 24 Acft,60.0,Unknown,6,Explosives/Bombs/Dynamite,16.0,Unknown Explosive Type,0.0,2.0,1,4.0,Unknown,,,,PGIS,-9,-9,
134,197003140003,1970,3,14,,0,,217,United States,1,North America,New York,New York City,40.609334000000004,-74.028722,"3/14/1970: Unknown perpetrators placed an explosive device outside of the U. S. Army Reserve Building in Fort Hamilton, New York, United States.  The device was discovered and disarmed.",0,0,0,3,Bombing/Explosion,4,Military,27.0,Military Barracks/Base/Headquarters/Checkpost,US Military,Army Reserve Building,217.0,Left-Wing Militants,6,Explosives/Bombs/Dynamite,16.0,Unknown Explosive Type,0.0,0.0,0,,,,"Committee on Government Operations United States Senate, ""Riots, Civil, and Criminal Disorders,"" U.S. Government Printing Office, August 6, 1970.",,Hewitt Project,-9,-9,
135,197003140004,1970,3,14,,1,3/15/1970,217,United States,1,North America,California,Long Beach,33.766725,-118.192399,"3/14/1970: Two crewmen on the SS Columbia Eagle, Clyde William McKay Jr. and Leonard Glatkowski, hijacked the ship which debarked from Long Beach, California, United States towards Thailand.  The ship was transporting munitions that were to be used by the US military in the Vietnam War.  Twenty four crewmen were released from the ship immediately after the hijacking while thirteen were held on board as the ship was diverted to Cambodia.  The next day the SS Columbia reached Cambodia and the two perpetrators attempted attain asylum.  After many negotiations, the ship and crew were allowed to return to the United States on April 8th and McKay and Glatkowski remained in Cambodia.",0,1,0,4,Hijacking,4,Military,32.0,Military Maritime,US Military,SS Columbia Eagle,217.0,Left-Wing Militants,7,Fake Weapons,,,0.0,0.0,0,,,,"""Mystery of the SS Columbia Eagle Hijacking,"" Vietnam Magazine, February, 2001.","Tad Szulc, ""U.S. Arms Ship to Thailand Seized by 'Men With Guns,'"" New York Times, March 16, 1970.",Hewitt Project,-9,-9,
136,197003150001,1970,3,15,,0,,217,United States,1,North America,Puerto Rico,San Juan,18.46617,-66.106654,"3/15/1970: Unknown perpetrators detonated a bomb at a Kresge's Department Store in suburban San Juan, Puerto Rico.  There were no casualties and only minor damages were inflicted.  Kresge was an American owned company.",0,1,0,3,Bombing/Explosion,1,Business,7.0,Retail/Grocery/Bakery,Department Store,Kresge's Department Store,217.0,Puerto Rican Nationalists,6,Explosives/Bombs/Dynamite,16.0,Unknown Explosive Type,0.0,0.0,1,3.0,Minor (likely < $1 million),,"""San Juan Store Bombed,"" New York Times, March 16, 1970.","William Sater, ""Puerto Rican Terrorists: A Possible Threat to U.S. Energy Installations?,"" RAND, October 1981.",Hewitt Project,0,0,
137,197003150002,1970,3,15,,0,,217,United States,1,North America,Montana,Billings,45.783975,-108.505794,"3/15/1970: Unknown perpetrators detonated a bomb in the backseat of a parked police car in Billings, Montana, United States.  There were no casualties, however, the car was demolished.",0,1,0,3,Bombing/Explosion,3,Police,23.0,Police Patrol (including vehicles and convoys),Billings Police,Billings Police car,217.0,Unknown,6,Explosives/Bombs/Dynamite,15.0,Vehicle,0.0,0.0,1,3.0,Minor (likely < $1 million),,"Committee on Government Operations United States Senate, ""Riots, Civil, and Criminal Disorders,"" U.S. Government Printing Office, August 6, 1970.","""Bomb Wrecks Police Car,"" New York Times, March 16, 1970.",Hewitt Project,-9,-9,
138,197003160001,1970,3,16,"March 16-17, 1970",0,,217,United States,1,North America,California,San Bernardino,34.105245000000004,-117.294124,"3/16/1970: Unknown perpetrators threw four firebombs at the house of Councilman Norris Gregory in San Bernardino, California, United States.  He received minor burns attempting to put out the fire and the house sustained an estimated $4,000 in damages.  Gregory was the first and only Black councilman in San Bernadino at the time.",0,1,0,7,Facility/Infrastructure Attack,2,Government (General),15.0,Politician or Political Party Movement/Meeting/Rally,Black San Bernardino Councilman,Norris Gregory,217.0,White extremists,8,Incendiary,19.0,Molotov Cocktail/Petrol Bomb,0.0,1.0,1,3.0,Minor (likely < $1 million),4000.0,"Committee on Government Operations United States Senate, ""Riots, Civil, and Criminal Disorders,"" U.S. Government Printing Office, August 6, 1970.","""Four Black Churches Fire Bombed in Texas,"" Jet Magazine, March 25, 1971.",Hewitt Project,-9,-9,
139,197003170002,1970,3,17,,0,,217,United States,1,North America,California,Los Angeles,34.04773,-118.20470900000001,"3/17/1970: Suspected members of the Chicano Liberation Front detonated two bombs in administration offices at Roosevelt High School in Los Angeles, California, United States.  There were no casualties and the bombs caused little damage.",0,1,0,3,Bombing/Explosion,8,Educational Institution,49.0,School/University/Educational Building,"Roosevelt High School, Los Angeles","Administration offices, Roosevelt High School",217.0,Chicano Liberation Front,6,Explosives/Bombs/Dynamite,16.0,Unknown Explosive Type,0.0,0.0,1,3.0,Minor (likely < $1 million),,"""Arsonists Blamed in $100,000 Roosevelt High School Blaze,"" Los Angeles Times, April 9, 1970.","Paul Houston and Franz Rodriguez, ""Chicano Militants Reportedly Claim 28 Bombings in L.A.,"" Los Angeles Times, August 14, 1971.",Hewitt Project,0,0,
140,197003180001,1970,3,18,,0,,217,United States,1,North America,Ohio,Lockland,39.226834999999994,-84.45330899999999,"3/18/1970: Unknown perpetrators detonated a bomb at a booster station of the Cincinnati Gas & Electric Company in Lockland, Ohio, United States.  There were no casualties but the transformer sustained extensive damage.",0,1,0,3,Bombing/Explosion,21,Utilities,,,Transformer,Cincinnati Gas & Electric Company Booster Station,217.0,Unknown,6,Explosives/Bombs/Dynamite,28.0,Dynamite/TNT,0.0,0.0,1,3.0,Minor (likely < $1 million),,"Committee on Government Operations United States Senate, ""Riots, Civil, and Criminal Disorders,"" U.S. Government Printing Office, August 6, 1970.","Christopher Hewitt, ""Political Violence and Terrorism in Modern America: A Chronology,"" Praeger Security International, 2005.",Hewitt Project,-9,-9,
141,197003200001,1970,3,20,,0,,217,United States,1,North America,Oregon,Portland,45.511795,-122.675629,"3/20/1970: Unknown perpetrators placed two firebombs at the United States Army Reserve Training Center in Portland, Oregon, United States.  One bomb ignited but burnt out before causing any damage and the other bomb was found and dismantled.",0,0,0,3,Bombing/Explosion,4,Military,28.0,Military Recruiting Station/Academy,US Military,United States Army Reserve Training Center in Portland Oregon,217.0,White extremists,8,Incendiary,19.0,Molotov Cocktail/Petrol Bomb,0.0,0.0,0,,,,"Committee on Government Operations United States Senate, ""Riots, Civil, and Criminal Disorders,"" U.S. Government Printing Office, August 6, 1970.","Christopher Hewitt, ""Political Violence and Terrorism in Modern America: A Chronology,"" Praeger Security International, 2005.",Hewitt Project,-9,-9,
142,197003200002,1970,3,20,,0,,217,United States,1,North America,Michigan,Detroit,42.331685,-83.047924,"3/20/1970: Unknown perpetrators shot and killed Burton I. Gordin, the director of the Michigan Civil Rights Commission, in a downtown garage in Detroit, Michigan, United States.  Police suspected that this incident might have been politically motivated as no money was stolen from Gordin's wallet.",0,1,0,1,Assassination,14,Private Citizens & Property,68.0,Named Civilian,Michigan Civil Rights Commission,Burton I. Gordin,217.0,White extremists,5,Firearms,5.0,Unknown Gun Type,1.0,0.0,0,,,,"Jerry M. Flint, ""Civil Rights Chief In Michigan Slain,"" New York Times, March 21, 1970.","""No Motive of Suspect Seen In Slaying of Rights Official,"" Washington Post, March 22, 1970.",Hewitt Project,-9,-9,
143,197003210001,1970,3,21,,0,,217,United States,1,North America,District of Columbia,Washington,38.897676000000004,-77.03653,"3/21/1970: In a series of related incidents, a letter bomb protesting the draft was sent to President Richard Nixon in Washington D.C., United States.  The bomb was intercepted and dismantled.",0,0,0,3,Bombing/Explosion,2,Government (General),17.0,Head of State,President of the United States,President Richard Nixon,217.0,Left-Wing Militants,6,Explosives/Bombs/Dynamite,9.0,Letter Bomb,0.0,0.0,0,,,,"George Lardner Jr. ""Bomb is Sent by Mail to Nixon Over Draft,"" Washington Post, April 26, 1970.",,Hewitt Project,-9,-9,
144,197003210002,1970,3,21,,0,,217,United States,1,North America,New York,New York City,40.78306,-73.971249,"3/21/1970: In a series of related attacks, a group called Puerto Rican Resistance claimed credit for an incendiary device that ignited at Bloomingdale's Department Store in Manhattan, New York, United States.  There were no casualties but the firebomb caused minor damage.",1,1,0,7,Facility/Infrastructure Attack,1,Business,7.0,Retail/Grocery/Bakery,Department Store,Bloomingdale's Department Store,217.0,Puerto Rican Resistance Movement,8,Incendiary,20.0,Gasoline or Alcohol,0.0,0.0,1,3.0,Minor (likely < $1 million),,"Committee on Government Operations United States Senate, ""Riots, Civil, and Criminal Disorders,"" U.S. Government Printing Office, August 6, 1970.","Robert D. McFadden, ""2 Stores Targets of Arson Devices,"" New York Times, March 22, 1970.",Hewitt Project,1,1,"197003210002, 197003210003"
145,197003210003,1970,3,21,,0,,217,United States,1,North America,New York,New York City,40.78306,-73.971249,"3/21/1970: In a series of related attacks, a group called Puerto Rican Resistance claimed credit for two incendiary devices that ignited at Alexander's Department Store in Manhattan, New York, United States.  One person was injured but the firebomb caused minor damage.",1,1,0,7,Facility/Infrastructure Attack,1,Business,7.0,Retail/Grocery/Bakery,Department Store,Alexander's Department Store,217.0,Puerto Rican Resistance Movement,8,Incendiary,20.0,Gasoline or Alcohol,0.0,1.0,1,3.0,Minor (likely < $1 million),,"Committee on Government Operations United States Senate, ""Riots, Civil, and Criminal Disorders,"" U.S. Government Printing Office, August 6, 1970.","Robert D. McFadden, ""2 Stores Targets of Arson Devices,"" New York Times, March 22, 1970.",Hewitt Project,1,1,"197003210003, 197003210002"
146,197003220001,1970,3,22,,0,,217,United States,1,North America,New York,New York City,40.844782,-73.864827,"3/22/1970: In a series of related attacks, a member of the Black Panther Party detonated a pipe bomb at the brokerage firm Nagler, Weissman & Co. in the Bronx, New York, United States.  There were no casualties but the door and windows of the building were damaged.",1,1,0,3,Bombing/Explosion,1,Business,3.0,Bank/Commerce,Stock Brokerage,"Nagler, Weissman & Company",217.0,Black Panthers,6,Explosives/Bombs/Dynamite,14.0,Time Fuse,0.0,0.0,1,3.0,Minor (likely < $1 million),,"Committee on Government Operations United States Senate, ""Riots, Civil, and Criminal Disorders,"" U.S. Government Printing Office, August 6, 1970.","Michael Knight, ""15 at the Electric Circus Injured in Bomb Explosion,"" New York Times, March 23, 1970.",Hewitt Project,0,0,"197003220001, 197003220002, 197003220003"
147,197003220002,1970,3,22,,0,,217,United States,1,North America,New York,New York City,40.844782,-73.864827,"3/22/1970: In a series of related attacks, a member of the Black Panther Party placed a pipe bomb on the window ledge of Chase-Manhattan Bank in the Bronx, New York, United States.  Police discovered and disarmed the time bomb.",1,0,0,3,Bombing/Explosion,1,Business,3.0,Bank/Commerce,Chase-Manhattan Bank,"Chase-Manhattan Bank, Bronx branch",217.0,Black Panthers,6,Explosives/Bombs/Dynamite,14.0,Time Fuse,0.0,0.0,0,,,,"Committee on Government Operations United States Senate, ""Riots, Civil, and Criminal Disorders,"" U.S. Government Printing Office, August 6, 1970.","Michael Knight, ""15 at the Electric Circus Injured in Bomb Explosion,"" New York Times, March 23, 1970.",Hewitt Project,0,0,"197003220002, 197003220001, 197003220003"
148,197003220003,1970,3,22,,0,,217,United States,1,North America,New York,New York City,40.78306,-73.971249,"3/22/1970: In a series of related attacks, a suspected member of the Black Panther Party detonated a pipe bomb at the Electric Circus Discotheque in Manhattan New York, United States.  Seventeen people were injured and the building sustained minor damages.",1,1,0,3,Bombing/Explosion,1,Business,11.0,Entertainment/Cultural/Stadium/Casino,Discotheque,Electric  Circus,217.0,Black Panthers,6,Explosives/Bombs/Dynamite,28.0,Dynamite/TNT,0.0,17.0,1,3.0,Minor (likely < $1 million),,"Committee on Government Operations United States Senate, ""Riots, Civil, and Criminal Disorders,"" U.S. Government Printing Office, August 6, 1970.","Michael Knight, ""15 at the Electric Circus Injured in Bomb Explosion,"" New York Times, March 23, 1970.",Hewitt Project,0,0,"197003220003, 197003220001, 197003220002"
149,197003230001,1970,3,23,,0,,217,United States,1,North America,Florida,Orlando,28.538234999999997,-81.37738900000001,"3/23/1970: Unknown perpetrators detonated a bomb that destroyed the local headquarters of the United Brotherhood of Carpenters and Joiners union in Orlando, Florida, United States.  There were no causalities.",0,1,0,3,Bombing/Explosion,14,Private Citizens & Property,82.0,Labor Union Related,United Brotherhood of Carpenters and Joiners,Local 1765 Orlando Headquarters,217.0,Strikers,6,Explosives/Bombs/Dynamite,28.0,Dynamite/TNT,0.0,0.0,1,3.0,Minor (likely < $1 million),,"Committee on Government Operations United States Senate, ""Riots, Civil, and Criminal Disorders,"" U.S. Government Printing Office, August 6, 1970.","""Union's Building Blasted,"" New York Times, March 23, 1970.",Hewitt Project,-9,-9,
150,197003240001,1970,3,24,,0,,160,Philippines,5,Southeast Asia,Pampanga,Angeles,15.153001999999999,120.59194199999999,,0,1,0,9,Unknown,4,Military,34.0,"Military Personnel (soldiers, troops, officers, forces)",U.S. Air Force,officer,217.0,Unknown,13,Unknown,,,1.0,0.0,0,,,,,,PGIS,-9,1,
151,197003240002,1970,3,24,,1,3/26/1970,58,Dominican Republic,2,Central America & Caribbean,,Santo Domingo,18.456792,-69.951164,,0,1,0,6,Hostage Taking (Kidnapping),4,Military,34.0,"Military Personnel (soldiers, troops, officers, forces)",U.S. Air force,"Lt. Col. Donal J. Crowley, U.S. Air attache",217.0,Dominican Popular Movement (MPD),13,Unknown,,,0.0,0.0,0,,,,,,PGIS,0,1,
152,197003240003,1970,3,24,,1,3/28/1970,11,Argentina,3,South America,Corrientes,Ituzaingo,-27.583246000000003,-56.683333999999995,,0,1,0,6,Hostage Taking (Kidnapping),7,Government (Diplomatic),45.0,"Diplomatic Personnel (outside of embassy, consulate)",Paraguayan government,"Waldemar Sanchez, paraguayan consul, Buenos Aires",158.0,Argentine Liberation Front (FAL),13,Unknown,,,0.0,0.0,0,,,,,,PGIS,0,1,
153,197003240004,1970,3,24,,0,,217,United States,1,North America,New York,New York City,40.78306,-73.971249,"3/24/1970: Unknown perpetrators tossed a bomb through the window of Joe's Restaurant in Manhattan, New York, United States after it closed.  There were no casualties, however, windows and furniture were damaged.",0,1,0,3,Bombing/Explosion,1,Business,2.0,Restaurant/Bar/CafÃˆ,Restaurant,Joe's Restaurant,217.0,Unknown,6,Explosives/Bombs/Dynamite,16.0,Unknown Explosive Type,0.0,0.0,1,3.0,Minor (likely < $1 million),,"Committee on Government Operations United States Senate, ""Riots, Civil, and Criminal Disorders,"" U.S. Government Printing Office, August 6, 1970.","""Bomb Rips Another CafÃˆ in 'Village.'"" Washington Post, March 25, 1970.",Hewitt Project,-9,-9,
154,197003240005,1970,3,24,,0,,217,United States,1,North America,Ohio,Cleveland,41.508882,-81.611701,"3/24/1970: Unknown perpetrators detonated a pipe bomb at Auguste Rodin's Thinker statue that was located in front of the Cleveland Museum of Art in Ohio, United States.  There were no casualties, however, the statue was irrevocably damaged.",0,1,0,3,Bombing/Explosion,14,Private Citizens & Property,81.0,Museum/Cultural Center/Cultural House,Cleveland Museum of Art,The Thinker statue,217.0,White extremists,6,Explosives/Bombs/Dynamite,28.0,Dynamite/TNT,0.0,0.0,1,3.0,Minor (likely < $1 million),,"Committee on Government Operations United States Senate, ""Riots, Civil, and Criminal Disorders,"" U.S. Government Printing Office, August 6, 1970.","""Damaged Rodin Work is Righted in Cleveland,"" New York Times, March 31, 1970.",Hewitt Project,-9,-9,
155,197003240006,1970,3,24,,0,,217,United States,1,North America,California,Richmond,37.93781,-122.34270900000001,"3/24/1970: Unknown perpetrators detonated a bomb outside of the home of a police officer in Richmond, California, United States.  There were no casualties, but the house sustained minor damages.",0,1,0,3,Bombing/Explosion,3,Police,25.0,Police Security Forces/Officers,Richmond Police Officer,House of Police Officer,217.0,Black Nationalists,6,Explosives/Bombs/Dynamite,17.0,Other Explosive Type,0.0,0.0,1,3.0,Minor (likely < $1 million),,"Committee on Government Operations United States Senate, ""Riots, Civil, and Criminal Disorders,"" U.S. Government Printing Office, August 6, 1970.",,Hewitt Project,-9,-9,
156,197003270001,1970,3,27,,0,,217,United States,1,North America,California,San Francisco,37.777125,-122.41964399999999,"3/27/1970: Unknown perpetrators detonated a bomb at the Trovatore Tavern in San Francisco, California, United States.  The Tavern was across the street from the Hall of Justice and frequented by police officers.  There were no casualties, however, the building sustained $5,000 in damages.",0,1,0,3,Bombing/Explosion,3,Police,25.0,Police Security Forces/Officers,San Francisco Police Department,San Francisco Police Officers frequenting Trovatore Tavern,217.0,Black Nationalists,6,Explosives/Bombs/Dynamite,16.0,Unknown Explosive Type,0.0,0.0,1,3.0,Minor (likely < $1 million),5000.0,"""S.F. Tavern Is Bombed Near Police Station,"" Washington Post, March 28, 1970.","""Guerrilla Acts of Sabotage and Terrorism in the United States 1965-1970,"" Scanlan's Magazine, January 1971.",Hewitt Project,-9,-9,
157,197003290001,1970,3,29,,0,,11,Argentina,3,South America,Buenos Aires,Buenos Aires,-34.6037,-58.381503,,0,1,0,6,Hostage Taking (Kidnapping),7,Government (Diplomatic),45.0,"Diplomatic Personnel (outside of embassy, consulate)",USSR,"Yuri Pivovarov, commercial attache",359.0,Argentine National Organization Movement (MANO),13,Unknown,,,0.0,0.0,0,,,,,,PGIS,0,1,
158,197003290002,1970,3,29,,0,,110,Lebanon,10,Middle East & North Africa,Beirut,Beirut,33.888628999999995,35.495478999999996,,0,1,0,3,Bombing/Explosion,7,Government (Diplomatic),46.0,Embassy/Consulate,,U.S. Embassy,217.0,Popular Front for the Liberation of Palestine (PFLP),6,Explosives/Bombs/Dynamite,16.0,Unknown Explosive Type,0.0,0.0,1,,,,,,PGIS,0,1,
159,197003300001,1970,3,30,,0,,217,United States,1,North America,Illinois,Biggsville,40.85122,-90.864369,"3/30/1970: Unknown perpetrators set fire to the Old State Bank of Biggsville building which housed the Selective Service Offices in Biggsville, Illinois, United States.  There were no casualties but the building and draft records were destroyed causing an estimated $10,500 in damages.",0,1,0,7,Facility/Infrastructure Attack,2,Government (General),21.0,Government Building/Facility/Office,Selective Service,Selective Service office in Biggsville Illinois,217.0,Left-Wing Militants,8,Incendiary,18.0,Arson/Fire,0.0,0.0,1,3.0,Minor (likely < $1 million),105000.0,"Committee on Government Operations United States Senate, ""Riots, Civil, and Criminal Disorders,"" U.S. Government Printing Office, August 6, 1970.","""Fire in Draft Office Destroys Many Files,"" Chicago Tribune, March 29, 1970.",Hewitt Project,-9,-9,
160,197003300002,1970,3,30,,0,,217,United States,1,North America,Georgia,Fort Benning,32.3575,-84.95623,"3/30/1971: A United States soldier threw a firebomb at the military courthouse in Fort Benning, Georgia, United States where the trial of Lt. William Calley was taking place.  Lt. William Calley was on trial for his involvement in the My Lai Massacre.  It is unknown if the attack was successful.",0,1,0,7,Facility/Infrastructure Attack,4,Military,27.0,Military Barracks/Base/Headquarters/Checkpost,Military courthouse where the trial of Lt. William Calley was held,"Military courthouse, Fort Benning Georgia",217.0,Left-Wing Militants,8,Incendiary,19.0,Molotov Cocktail/Petrol Bomb,0.0,0.0,-9,4.0,Unknown,,"William Greider, ""Calley Pleads for Future Gis,"" Washington Post, March 31, 1971.","Marcia McKnight Trick, ""Chronology of Incidents of Terroristic, Quasi-Terroristic, and Political Violence in the United States: January 1965 to March 1976,"" National Advisory Committee on Criminal Justice Standards and Goals: Report of the Task Force on Disorders and Terrorism, 1976.",Hewitt Project,-9,-9,
161,197003310001,1970,3,31,,1,4/5/1970,83,Guatemala,2,Central America & Caribbean,,Guatemala City,14.624422000000001,-90.53288,,0,1,0,6,Hostage Taking (Kidnapping),7,Government (Diplomatic),45.0,"Diplomatic Personnel (outside of embassy, consulate)",FRG Govt.,"Count Karl Von Spreti, ambassador to Guatemala",75.0,Rebel Armed Forces of Guatemala (FAR),13,Unknown,,,1.0,0.0,0,,,,,,PGIS,0,1,
162,197003310002,1970,3,31,,1,4/3/1970,101,Japan,4,East Asia,,Fukouka,33.580412,130.396361,,0,1,0,4,Hijacking,6,Airports & Aircraft,42.0,Aircraft (not at an airport),Japan Airlines,Boeing 727,101.0,Japanese Red Army (JRA),6,Explosives/Bombs/Dynamite,16.0,Unknown Explosive Type,0.0,0.0,0,,,,,,Hijacking DB,0,1,
163,197003310003,1970,3,31,,0,,217,United States,1,North America,District of Columbia,Washington,38.890370000000004,-77.031959,"3/31/1970: In a series of related incidents, a letter bomb protesting the draft was sent to Curtis W. Tarr, the head of the Selective Services in Washington D.C., United States.  The bomb was intercepted and dismantled.",0,0,0,3,Bombing/Explosion,2,Government (General),18.0,"Government Personnel (excluding police, military)",Director of the Selective Services,Curtis W. Tarr,217.0,Left-Wing Militants,6,Explosives/Bombs/Dynamite,9.0,Letter Bomb,0.0,0.0,0,,,,"George Lardner Jr. ""Bomb is Sent by Mail to Nixon Over Draft,"" Washington Post, April 26, 1970.","""New Draft Chief Target of Bomb,"" Washington Post, April 1, 1970.",Hewitt Project,-9,-9,
164,197003310004,1970,3,31,,0,,217,United States,1,North America,Washington,Seattle,47.655335,-122.30351999999999,"3/31/1970: Unknown perpetrators bombed two jeeps owned by the University of Washington parked at the Seattle campus in Washington, United States.  There were no casualties, but the vehicles sustained major damages.",0,1,0,3,Bombing/Explosion,8,Educational Institution,49.0,School/University/Educational Building,University of Washington,Jeeps owned by the University of Washington,217.0,Student Radicals,6,Explosives/Bombs/Dynamite,16.0,Unknown Explosive Type,0.0,0.0,1,3.0,Minor (likely < $1 million),,"Committee on Government Operations United States Senate, ""Riots, Civil, and Criminal Disorders,"" U.S. Government Printing Office, August 6, 1970.","Robert W. Patterson, ""Crime & the American Response,"" Facts on File, 1973",Hewitt Project,-9,-9,
165,197004000001,1970,4,0,,1,4/5/1970,65,Ethiopia,11,Sub-Saharan Africa,Unknown,Unknown,,,,0,1,0,6,Hostage Taking (Kidnapping),7,Government (Diplomatic),45.0,"Diplomatic Personnel (outside of embassy, consulate)","Peace corps, U.S. government","Jack Fry, peace corps official",217.0,Eritrean Liberation Front,13,Unknown,,,0.0,0.0,0,,,,,,PGIS,0,1,
166,197004010001,1970,4,1,,0,,217,United States,1,North America,Michigan,East Lansing,42.7375,-84.483779,"4/1/1970: Unknown perpetrators bombed the administration building at Michigan State University in East Lansing, Michigan, United States.  There were no casualties but the building sustained $500 in damages.",0,1,0,3,Bombing/Explosion,8,Educational Institution,49.0,School/University/Educational Building,Michigan State University,Michigan State University administration building,217.0,Student Radicals,6,Explosives/Bombs/Dynamite,14.0,Time Fuse,0.0,0.0,1,3.0,Minor (likely < $1 million),500.0,"Robert W. Patterson, ""Crime & the American Response,"" Facts on File, 1973","Christopher Hewitt, ""Political Violence and Terrorism in Modern America: A Chronology,"" Praeger Security International, 2005.",Hewitt Project,-9,-9,
167,197004010002,1970,4,1,,0,,217,United States,1,North America,New York,Ithaca,42.455233,-76.475847,"4/1/1970: Unknown perpetrators started a fire at the building that houses the Africana Studies and Research Center at Cornell University in Ithaca, New York, United States.  There were no casualties but the building sustained an estimated $100,000 in damages.",0,1,0,7,Facility/Infrastructure Attack,8,Educational Institution,49.0,School/University/Educational Building,"Africana Studies and Research Center, Cornell University",Building housing Africana Studies and Research Center,217.0,White extremists,8,Incendiary,18.0,Arson/Fire,0.0,0.0,1,3.0,Minor (likely < $1 million),100000.0,"Richard Phalon, ""Fire Destroys the Black Studies Center at Cornell,"" New York Times, April 2, 1970.","Paul L. Montgomery, ""100 Cornell Negro Students Loot New Campus Store,"" New York Times, April 7, 1970.",Hewitt Project,-9,-9,
168,197004010003,1970,4,1,,0,,217,United States,1,North America,Texas,Houston,29.717394,-95.401831,"4/1/1970: Unknown perpetrators set a kerosene fire to the Naval R.O.T.C. building at Rice University in Houston, Texas, United States.  There were no casualties but a hole was burned through one side of the building.",0,1,0,7,Facility/Infrastructure Attack,4,Military,28.0,Military Recruiting Station/Academy,Naval R.O.T.C.,Naval R.O.T.C. at Rice University,217.0,Student Radicals,8,Incendiary,20.0,Gasoline or Alcohol,0.0,0.0,1,3.0,Minor (likely < $1 million),,"Committee on Government Operations United States Senate, ""Riots, Civil, and Criminal Disorders,"" U.S. Government Printing Office, August 6, 1970.","""Cornell Officials Hint Arson In Black Studies Center Fire,"" Washington Post, April 2, 1970.",Hewitt Project,-9,-9,
169,197004020001,1970,4,2,,0,,160,Philippines,5,Southeast Asia,Pampanga,Mabalacat City,15.185916,120.54186999999999,,0,1,0,9,Unknown,4,Military,34.0,"Military Personnel (soldiers, troops, officers, forces)",U.S. Air Force,Airmen,217.0,New People's Army (NPA),13,Unknown,,,2.0,0.0,0,,,,,,PGIS,0,1,
170,197004020002,1970,4,2,,0,,217,United States,1,North America,New York,New York City,40.844782,-73.864827,"4/2/1970: Unknowns perpetrator placed a pipe bomb in a vestibule of Chase Manhattan Bank in the Bronx, New York, United States.  The bomb was discovered and subsequently dismantled by the police.",0,0,0,3,Bombing/Explosion,1,Business,3.0,Bank/Commerce,Chase-Manhattan Bank,"Chase-Manhattan Bank, Bronx branch",217.0,Left-Wing Militants,6,Explosives/Bombs/Dynamite,17.0,Other Explosive Type,0.0,0.0,0,,,,"Committee on Government Operations United States Senate, ""Riots, Civil, and Criminal Disorders,"" U.S. Government Printing Office, August 6, 1970.","""Homemade Bomb Found in Vestibule Of Bank in Bronx,"" New York Times, April 3, 1970.",Hewitt Project,-9,-9,
171,197004030001,1970,4,3,,0,,96,Ireland,8,Western Europe,Dublin,Dublin,53.344104,-6.267494,,0,1,0,2,Armed Assault,1,Business,3.0,Bank/Commerce,Bank of Ireland,"Richard Fallon, 42, Garda Siochana",96.0,Saor Eire (Irish Republican Group),5,Firearms,5.0,Unknown Gun Type,1.0,,1,,,,,,CAIN,1,1,
172,197004040001,1970,4,4,,0,,217,United States,1,North America,New York,New York City,40.78306,-73.971249,"4/4/1970: In a series of related attacks that failed, unknown perpetrators placed a pipe bomb at the Banco de Ponce in Manhattan, New York, United States.  The bomb was discovered and subsequently disarmed.",1,0,0,3,Bombing/Explosion,1,Business,3.0,Bank/Commerce,Banco de Ponce,"Banco de Ponce, Bronx Branch",163.0,Left-Wing Militants,6,Explosives/Bombs/Dynamite,17.0,Other Explosive Type,0.0,0.0,0,,,,"Committee on Government Operations United States Senate, ""Riots, Civil, and Criminal Disorders,"" U.S. Government Printing Office, August 6, 1970.","Alfonso A. Narvaez, ""Two More Bombs Discovered Here,"" New York Times, April 4, 1970.",Hewitt Project,-9,-9,"197004040001, 197004040002"
173,197004040002,1970,4,4,,0,,217,United States,1,North America,New York,New York City,40.844782,-73.864827,"4/4/1970: In a series of related attacks that failed, unknown perpetrators placed a pipe bomb at a busy intersection in the Bronx, New York, United States.  The bomb was discovered and subsequently disarmed.",1,0,0,3,Bombing/Explosion,14,Private Citizens & Property,79.0,"Public Area (garden, parking lot, garage, beach, public building, camp)",Busy intersection,135th Street and Brook Avenues,217.0,Left-Wing Militants,6,Explosives/Bombs/Dynamite,17.0,Other Explosive Type,0.0,0.0,0,,,,"Committee on Government Operations United States Senate, ""Riots, Civil, and Criminal Disorders,"" U.S. Government Printing Office, August 6, 1970.","Alfonso A. Narvaez, ""Two More Bombs Discovered Here,"" New York Times, April 4, 1970.",Hewitt Project,-9,-9,"197004040002, 197004040001"
174,197004040003,1970,4,4,,0,,217,United States,1,North America,Washington,Pullman,46.731958,-117.162603,"4/4/1970: Unknown perpetrators set a fire at Rogers Field Stadium at Washington State University in Pullman, Washington, United States.  There were no casualties, but the stadium sustained $700,000 in damages.",0,1,0,7,Facility/Infrastructure Attack,8,Educational Institution,49.0,School/University/Educational Building,Football stadium of Washington State University,Rogers Field Stadium,217.0,Student Radicals,8,Incendiary,18.0,Arson/Fire,0.0,0.0,1,3.0,Minor (likely < $1 million),700000.0,"Hannelore Sudermann, ""A Burning Mystery,"" Washington State Magazine, 2007.","Christopher Hewitt, ""Political Violence and Terrorism in Modern America: A Chronology,"" Praeger Security International, 2005.",Hewitt Project,-9,-9,
175,197004050001,1970,4,5,,0,,30,Brazil,3,South America,Rio Grande do Sul,Porto Alegre,-30.034108000000003,-51.217839,,0,0,0,6,Hostage Taking (Kidnapping),7,Government (Diplomatic),45.0,"Diplomatic Personnel (outside of embassy, consulate)",state dept,"Curtis C. Cutter, U.S. consul, Porto Alegre",217.0,Popular Revolutionary Vanguard (VPR),13,Unknown,,,0.0,1.0,0,,,,,,PGIS,0,1,
176,197004050003,1970,4,5,,0,,11,Argentina,3,South America,Buenos Aires,Buenos Aires,-34.6037,-58.381503,,0,1,0,2,Armed Assault,4,Military,27.0,Military Barracks/Base/Headquarters/Checkpost,,HQ. Patricios Infantry Regiment,11.0,Argentine Liberation Front (FAL),5,Firearms,2.0,Automatic Weapon,,,1,3.0,Minor (likely < $1 million),15000.0,,,PGIS,0,0,
177,197004050004,1970,4,5,,0,,217,United States,1,North America,California,Trona,35.76625,-117.370674,"4/5/1970: In a series of two incidents that were possibly related, unknown perpetrators bombed a power line pole supplying electrical power to a pumping station in Trona, California, United States.  There were no casualties but the power line pole was destroyed.  At the time, the American Potash Plant of Trona was the scene of a major workers strike.",0,1,0,3,Bombing/Explosion,21,Utilities,107.0,Electricity,,Power line pole,217.0,Strikers,6,Explosives/Bombs/Dynamite,28.0,Dynamite/TNT,0.0,0.0,1,3.0,Minor (likely < $1 million),,"Committee on Government Operations United States Senate, ""Riots, Civil, and Criminal Disorders,"" U.S. Government Printing Office, August 6, 1970.",,Hewitt Project,-9,-9,
178,197004050005,1970,4,5,,0,,217,United States,1,North America,California,Trona,35.76625,-117.370674,"4/5/1970: In a series of two incidents that were possibly related, unknown perpetrators set fire to barracks owned by the American Potash and Chemical Company in Trona, California, United States.  There were no casualties but the barracks were damaged.  At the time, the American Potash Plant of Trona was the scene of a major workers strike.",0,1,0,7,Facility/Infrastructure Attack,1,Business,5.0,Industrial/Textiles/Factory,American Potash and Chemical Company,Barracks of American Potash and Chemical Company,217.0,Strikers,8,Incendiary,20.0,Gasoline or Alcohol,0.0,0.0,1,3.0,Minor (likely < $1 million),,"Committee on Government Operations United States Senate, ""Riots, Civil, and Criminal Disorders,"" U.S. Government Printing Office, August 6, 1970.",,Hewitt Project,-9,-9,
179,197004050006,1970,4,5,,0,,217,United States,1,North America,New York,New York City,40.78306,-73.971249,"4/5/1970: Unknown perpetrators placed a bomb at the Young Women's Christian Association in Manhattan, New York, United States.  The bomb was discovered and subsequently disarmed.",0,0,0,3,Bombing/Explosion,12,NGO,62.0,International NGO,Young Women's Christian Association,West Side Branch of Young Women's Christian Association in Manhattan New York,217.0,Unknown,6,Explosives/Bombs/Dynamite,17.0,Other Explosive Type,0.0,0.0,0,,,,"Committee on Government Operations United States Senate, ""Riots, Civil, and Criminal Disorders,"" U.S. Government Printing Office, August 6, 1970.","""Incendiary Device is Found at Y.W.C.A.,"" New York Times, April 6, 1970.",Hewitt Project,-9,-9,
180,197004050007,1970,4,5,,0,,217,United States,1,North America,Texas,Houston,29.717394,-95.401831,"4/5/1970: Unknown perpetrators set fire to the office of the dean of students at Rice University in Houston, Texas, United States.  There were no casualties but the office sustained an estimated $50,000 in damages.  Student records were also destroyed.",0,1,0,7,Facility/Infrastructure Attack,8,Educational Institution,49.0,School/University/Educational Building,Rice University,"Office of dean of students, Rice University",217.0,Student Radicals,8,Incendiary,18.0,Arson/Fire,0.0,0.0,1,3.0,Minor (likely < $1 million),50000.0,"""Arson Suspected In Fire at Rice,"" The Victoria Advocate, April 6, 1970.","Christopher Hewitt, ""Political Violence and Terrorism in Modern America: A Chronology,"" Praeger Security International, 2005.",Hewitt Project,-9,-9,
181,197004080001,1970,4,8,,0,,217,United States,1,North America,Kansas,Lawrence,38.973065000000005,-95.23653399999999,"4/8/1970: Unknown perpetrators bombed the building of Anchor Savings & Loan in Lawrence, Kansas, United States.  There were no casualties but two windows were shattered.",0,1,0,3,Bombing/Explosion,1,Business,3.0,Bank/Commerce,Anchor Savings & Loan,"Anchor Savings & Loan, Lawrence Kansas",217.0,Unknown,6,Explosives/Bombs/Dynamite,17.0,Other Explosive Type,0.0,0.0,1,3.0,Minor (likely < $1 million),,"Committee on Government Operations United States Senate, ""Riots, Civil, and Criminal Disorders,"" U.S. Government Printing Office, August 6, 1970.","Christopher Hewitt, ""Political Violence and Terrorism in Modern America: A Chronology,"" Praeger Security International, 2005.",Hewitt Project,-9,-9,
182,197004080002,1970,4,8,,0,,217,United States,1,North America,Kansas,Baxter Springs,37.023676,-94.735504,"4/8/1970: Unknown perpetrators bombed the car of a person working at a strike bound company in Baxter, Kansas, United States.  There were no casualties but the car was damaged.",0,1,0,3,Bombing/Explosion,14,Private Citizens & Property,67.0,Unnamed Civilian/Unspecified,,Individual at strike bound company,217.0,Strikers,6,Explosives/Bombs/Dynamite,17.0,Other Explosive Type,0.0,0.0,1,3.0,Minor (likely < $1 million),,"Committee on Government Operations United States Senate, ""Riots, Civil, and Criminal Disorders,"" U.S. Government Printing Office, August 6, 1970.",,Hewitt Project,-9,-9,
183,197004080003,1970,4,8,,0,,217,United States,1,North America,California,Los Angeles,34.04773,-118.20470900000001,"4/8/1970: Suspected members of the Chicano Liberation Front set fire to the administration building at Roosevelt High School in Los Angeles, California, United States.  There were no casualties but the building sustained over $100,000 in damages.",0,1,0,7,Facility/Infrastructure Attack,8,Educational Institution,49.0,School/University/Educational Building,"Roosevelt High School, Los Angeles","Administration building, Roosevelt High School",217.0,Chicano Liberation Front,8,Incendiary,18.0,Arson/Fire,0.0,0.0,1,3.0,Minor (likely < $1 million),100000.0,"""Arsonists Blamed in $100,000 Roosevelt High School Blaze,"" Los Angeles Times, April 9, 1970.","""2 School Buildings Hit by Fires; Loss $95,000,"" Los Angeles Times, April 16, 1970.",Hewitt Project,0,0,
184,197004090001,1970,4,9,,0,,217,United States,1,North America,Illinois,East St. Louis,38.624421000000005,-90.150603,"4/9/1970: Unknown assailants bombed a shovel crane belonging to the Waggoner Equipment Rental & Excavating Company in East St. Louis, Illinois, United States.  There were no casualties but the crane sustained an estimated $30,000 in damages.  The perpetrators were protesting outside companies that worked on construction projects in East St. Louis.",0,1,0,3,Bombing/Explosion,1,Business,5.0,Industrial/Textiles/Factory,Waggoner Equipment Rental & Excavating Company,Large shovel crane,217.0,Unknown,6,Explosives/Bombs/Dynamite,28.0,Dynamite/TNT,0.0,0.0,1,3.0,Minor (likely < $1 million),30000.0,"Committee on Government Operations United States Senate, ""Riots, Civil, and Criminal Disorders,"" U.S. Government Printing Office, August 6, 1970.",,Hewitt Project,-9,-9,
185,197004110001,1970,4,11,,0,,217,United States,1,North America,California,San Diego,32.715695000000004,-117.16171899999999,"4/11/1970: Unknown perpetrators bombed the barracks at the Imperial Beach Naval Air Station in San Diego, California, United States.  There were no casualties but the barracks building was damaged.",0,1,0,3,Bombing/Explosion,4,Military,27.0,Military Barracks/Base/Headquarters/Checkpost,US Military,Imperial Beach Naval Air Station,217.0,Left-Wing Militants,6,Explosives/Bombs/Dynamite,16.0,Unknown Explosive Type,0.0,0.0,1,3.0,Minor (likely < $1 million),,"Committee on Government Operations United States Senate, ""Riots, Civil, and Criminal Disorders,"" U.S. Government Printing Office, August 6, 1970.","Christopher Hewitt, ""Political Violence and Terrorism in Modern America: A Chronology,"" Praeger Security International, 2005.",Hewitt Project,-9,-9,
186,197004110002,1970,4,11,,0,,217,United States,1,North America,New York,Ithaca,42.455233,-76.475847,"4/11/1970: Two unknown individuals threw Molotov cocktails into the Olin Library, McGraw Hall, Morrill Hall, and Psi Upsilon fraternity at Cornell University in Ithaca, New York, United States.  Only two of the Molotov cocktails ignited and caused minor damage.  There were no casualties.",0,1,0,7,Facility/Infrastructure Attack,8,Educational Institution,49.0,School/University/Educational Building,Cornell University,"Olin Library, McGraw Hall, and Morrill Hall",217.0,Student Radicals,8,Incendiary,19.0,Molotov Cocktail/Petrol Bomb,0.0,0.0,1,3.0,Minor (likely < $1 million),,"Committee on Government Operations United States Senate, ""Riots, Civil, and Criminal Disorders,"" U.S. Government Printing Office, August 6, 1970.","""Burning of Africana Center Causes Tensions on Campus,"" Cornell Reports: Volume Four, Number Three, May, 1970.",Hewitt Project,-9,-9,
187,197004110003,1970,4,11,,0,,217,United States,1,North America,Texas,Freeport,28.949564000000002,-95.344371,"4/11/1970: Unknown perpetrators firebombed a storage tank at the Dow Chemical Company located north of Freeport, Texas, United States.  Five people received minor injuries from flying glass and an estimated $250,000 in damages was caused to the facilities.",0,1,0,7,Facility/Infrastructure Attack,1,Business,5.0,Industrial/Textiles/Factory,Dow Chemical Company,"Dow Chemical Company plant, Freeport Texas",217.0,Unknown,8,Incendiary,20.0,Gasoline or Alcohol,0.0,5.0,1,3.0,Minor (likely < $1 million),250000.0,"""5 Persons Hurt In Plant Blast"", The Victoria Advocate, April 12, 1970.","Christopher Hewitt, ""Political Violence and Terrorism in Modern America: A Chronology,"" Praeger Security International, 2005.",Hewitt Project,-9,-9,
188,197004130001,1970,4,13,,0,,217,United States,1,North America,California,Berkeley,37.869885,-122.27053899999999,,0,1,0,3,Bombing/Explosion,21,Utilities,107.0,Electricity,,High woltage power line,217.0,New World Liberation Front (NWLF),6,Explosives/Bombs/Dynamite,16.0,Unknown Explosive Type,0.0,0.0,1,3.0,Minor (likely < $1 million),25000.0,,,PGIS,0,0,
189,197004130002,1970,4,13,,0,,217,United States,1,North America,Missouri,Kansas City,39.087921,-94.521196,"4/13/1970: In a series of related attacks, unknown perpetrators bombed East High School in Kansas City, Missouri, United States.  There were no casualties but the building sustained minor damage.",1,1,0,3,Bombing/Explosion,8,Educational Institution,49.0,School/University/Educational Building,East High School,,217.0,Unknown,6,Explosives/Bombs/Dynamite,16.0,Unknown Explosive Type,0.0,0.0,1,3.0,Minor (likely < $1 million),,"Committee on Government Operations United States Senate, ""Riots, Civil, and Criminal Disorders,"" U.S. Government Printing Office, August 6, 1970.","""Teamster Walkouts Close More Plants,"" Washington Post, April 17, 1970.",Hewitt Project,-9,-9,"197004130002, 197004130003, 197004130004"
190,197004130003,1970,4,13,,0,,217,United States,1,North America,Missouri,Kansas City,39.102959999999996,-94.583062,"4/13/1970: In a series of related attacks, unknown perpetrators bombed Linwood Methodist Church in Kansas City, Missouri, United States.  There were no casualties but the building sustained minor damage.",1,1,0,3,Bombing/Explosion,15,Religious Figures/Institutions,86.0,Place of Worship,Linwood Methodist Church,"Linwood Methodist Church, Kansas City",217.0,Unknown,6,Explosives/Bombs/Dynamite,16.0,Unknown Explosive Type,0.0,0.0,1,3.0,Minor (likely < $1 million),,"Committee on Government Operations United States Senate, ""Riots, Civil, and Criminal Disorders,"" U.S. Government Printing Office, August 6, 1970.","""Teamster Walkouts Close More Plants,"" Washington Post, April 17, 1970.",Hewitt Project,-9,-9,"197004130003, 197004130002, 197004130004"
191,197004130004,1970,4,13,,0,,217,United States,1,North America,Missouri,Kansas City,39.102959999999996,-94.583062,"4/13/1970: In a series of related attacks, unknown perpetrators bombed the Police Academy of Kansas City, Missouri, United States.  There were no casualties but the windows of the Police Academy and surrounding buildings were shattered.",1,1,0,3,Bombing/Explosion,3,Police,22.0,"Police Building (headquarters, station, school)",Kansas City Police Department,Kansas City Police Academy,217.0,Unknown,6,Explosives/Bombs/Dynamite,16.0,Unknown Explosive Type,0.0,0.0,1,3.0,Minor (likely < $1 million),,"Committee on Government Operations United States Senate, ""Riots, Civil, and Criminal Disorders,"" U.S. Government Printing Office, August 6, 1970.","""Teamster Walkouts Close More Plants,"" Washington Post, April 17, 1970.",Hewitt Project,-9,-9,"197004130004, 197004130002, 197004130003"
192,197004140002,1970,4,14,,0,,217,United States,1,North America,California,Trona,35.76625,-117.370674,"4/14/1970: Unknown perpetrators bombed a sewer leading from the American Potash Plant in Trona, California, United States.  There were no casualties but a substantial part of the sewer was destroyed.  At the time, the American Potash Plant of Trona was the scene of a major workers strike.",0,1,0,3,Bombing/Explosion,1,Business,5.0,Industrial/Textiles/Factory,American Potash and Chemical Company,"American Potash Plant, Trona California",217.0,Strikers,6,Explosives/Bombs/Dynamite,28.0,Dynamite/TNT,0.0,0.0,1,3.0,Minor (likely < $1 million),,"Committee on Government Operations United States Senate, ""Riots, Civil, and Criminal Disorders,"" U.S. Government Printing Office, August 6, 1970.",,Hewitt Project,-9,-9,
193,197004140003,1970,4,14,,0,,217,United States,1,North America,California,Long Beach,33.783823999999996,-118.11408999999999,"4/14/1970: Unknown perpetrators placed a pipe bomb in the Science Building at California State University, Long Beach, United States.  The bomb was discovered and subsequently disarmed.",0,0,0,3,Bombing/Explosion,8,Educational Institution,49.0,School/University/Educational Building,"California State University, Long Beach",Science Building,217.0,Student Radicals,6,Explosives/Bombs/Dynamite,17.0,Other Explosive Type,0.0,0.0,0,,,,"Committee on Government Operations United States Senate, ""Riots, Civil, and Criminal Disorders,"" U.S. Government Printing Office, August 6, 1970.",,Hewitt Project,-9,-9,
194,197004140004,1970,4,14,,0,,217,United States,1,North America,California,Los Angeles,34.053490000000004,-118.245319,"4/14/1970: Unknown perpetrators placed a stick of dynamite, kerosene, a cloth rag, matches, and a cigarette explosive device at the May Company Department Store in Los Angeles, California, United States.  The weapons were discovered and removed by security officials.",0,0,0,3,Bombing/Explosion,1,Business,7.0,Retail/Grocery/Bakery,May Company Department Store,"May Company Department Store, Los Angeles",217.0,Unknown,6,Explosives/Bombs/Dynamite,28.0,Dynamite/TNT,0.0,0.0,0,,,,"Committee on Government Operations United States Senate, ""Riots, Civil, and Criminal Disorders,"" U.S. Government Printing Office, August 6, 1970.",,Hewitt Project,-9,-9,
195,197004150001,1970,4,15,,0,,102,Jordan,10,Middle East & North Africa,Amman,Amman,31.950001,35.933331,,0,1,0,3,Bombing/Explosion,7,Government (Diplomatic),46.0,Embassy/Consulate,,US Embassy,217.0,Popular Front for the Liberation of Palestine (PFLP),6,Explosives/Bombs/Dynamite,16.0,Unknown Explosive Type,0.0,0.0,1,3.0,Minor (likely < $1 million),100000.0,,,PGIS,0,1,
196,197004150002,1970,4,15,,0,,217,United States,1,North America,California,Los Angeles,34.053490000000004,-118.245319,"4/15/1970: Four Cuban refugees firebombed a building in Los Angeles, California, United States, occupied by pro-Castro sympathizers.  There were no casualties but the building was damaged.",0,1,0,7,Facility/Infrastructure Attack,14,Private Citizens & Property,84.0,Political Party Member/Rally,,Building owned by pro-Castro sympathizers,217.0,Cuban Exiles,8,Incendiary,19.0,Molotov Cocktail/Petrol Bomb,0.0,0.0,1,3.0,Minor (likely < $1 million),,"Committee on Government Operations United States Senate, ""Riots, Civil, and Criminal Disorders,"" U.S. Government Printing Office, August 6, 1970.",,Hewitt Project,1,1,
197,197004150004,1970,4,15,,0,,217,United States,1,North America,California,Los Angeles,34.0613,-118.203553,"4/15/1970: In a series of related attacks, suspected members of the Chicano Liberation Front set fire to the Board of Education administration building in Los Angeles, California, United States.  There were no casualties but the building sustained $75,000 in damages.",1,1,0,7,Facility/Infrastructure Attack,8,Educational Institution,49.0,School/University/Educational Building,Los Angeles Board of Education,"Board of Education administration building, Los Angeles",217.0,Chicano Liberation Front,8,Incendiary,18.0,Arson/Fire,0.0,0.0,1,3.0,Minor (likely < $1 million),75000.0,"""2 School Buildings Hit by Fires; Loss $95,000,"" Los Angeles Times, April 16, 1970.","Paul Houston and Franz Rodriguez, ""Chicano Militants Reportedly Claim 28 Bombings in L.A.,"" Los Angeles Times, August 14, 1971.",Hewitt Project,0,0,"197004150004, 197004150005"
198,197004150005,1970,4,15,,0,,217,United States,1,North America,California,Los Angeles,34.04773,-118.20470900000001,"4/15/1970: In a series of related attacks, suspected members of the Chicano Liberation Front set fire to a storage structure at Roosevelt High School in Los Angeles, California, United States.  There were no casualties but the school sustained $20,000 in damages.",1,1,0,7,Facility/Infrastructure Attack,8,Educational Institution,49.0,School/University/Educational Building,"Roosevelt High School, Los Angeles","Storage structure, Roosevelt High School",217.0,Chicano Liberation Front,8,Incendiary,18.0,Arson/Fire,0.0,0.0,1,3.0,Minor (likely < $1 million),20000.0,"""2 School Buildings Hit by Fires; Loss $95,000,"" Los Angeles Times, April 16, 1970.","Paul Houston and Franz Rodriguez, ""Chicano Militants Reportedly Claim 28 Bombings in L.A.,"" Los Angeles Times, August 14, 1971.",Hewitt Project,0,0,"197004150005, 197004150004"
199,197004160001,1970,4,16,,0,,217,United States,1,North America,Missouri,Kansas City,39.102959999999996,-94.583062,"4/16/1970: In a series of related attacks, unknown perpetrators bombed the Plaza III Restaurant in Kansas City, Missouri, United States.  There were no casualties but the blast blew a hole through the ceiling of the restaurant.",1,1,0,3,Bombing/Explosion,1,Business,2.0,Restaurant/Bar/CafÃˆ,Kansas City Restaurant,Plaza III Restaurant,217.0,Unknown,6,Explosives/Bombs/Dynamite,14.0,Time Fuse,0.0,0.0,1,3.0,Minor (likely < $1 million),,"Committee on Government Operations United States Senate, ""Riots, Civil, and Criminal Disorders,"" U.S. Government Printing Office, August 6, 1970.","""Teamster Walkouts Close More Plants,"" Washington Post, April 17, 1970.",Hewitt Project,-9,-9,"197004160001, 197004160002, 197004160003"